{"type":"FeatureCollection","features":[{"type":"Feature","properties":{"name":"1A"},"geometry":{"type":"Polygon","coordinates":[[[-97.11578,49.86118],[-97.11966,49.85811],[-97.12615,49.85592],[-97.14248,49.85415],[-97.14326,49.85483],[-97.15232,49.85196],[-97.15368,49.85256],[-97.15239,49.85421],[-97.14937,49.85334],[-97.14817,49.85431],[-97.13097,49.86005],[-97.14102,49.87259],[-97.13727,49.8788],[-97.13185,49.88322],[-97.13139,49.88435],[-97.12989,49.883],[-97.13717,49.87552],[-97.13716,49.87309],[-97.13623,49.87124],[-97.13303,49.87018],[-97.12317,49.87128],[-97.11525,49.87046],[-97.11257,49.86806],[-97.11281,49.86554],[-97.11578,49.86118]]]}},{"type":"Feature","properties":{"name":"1AW"},"geometry":{"type":"Polygon","coordinates":[[[-97.14887,49.85403],[-97.14966,49.8533],[-97.15239,49.85421],[-97.15091,49.85573],[-97.14102,49.87259],[-97.13097,49.86005],[-97.14887,49.85403]]]}},{"type":"Feature","properties":{"name":"1B"},"geometry":{"type":"Polygon","coordinates":[[[-97.13371,49.88561],[-97.14232,49.88243],[-97.15105,49.88171],[-97.1499,49.87979],[-97.15437,49.87868],[-97.15324,49.87764],[-97.15227,49.8752],[-97.1531,49.8743],[-97.15693,49.8741],[-97.15773,49.87317],[-97.16423,49.87102],[-97.15258,49.8563],[-97.15303,49.85479],[-97.15254,49.85403],[-97.15091,49.85573],[-97.13727,49.8788],[-97.13185,49.88322],[-97.13139,49.88435],[-97.12989,49.883],[-97.1276,49.88602],[-97.13371,49.88561]]]}},{"type":"Feature","properties":{"name":"1BW"},"geometry":{"type":"Polygon","coordinates":[[[-97.16423,49.87102],[-97.15258,49.8563],[-97.15303,49.85479],[-97.15254,49.85403],[-97.15468,49.85267],[-97.17569,49.85072],[-97.17428,49.86752],[-97.16423,49.87102]]]}},{"type":"Feature","properties":{"name":"1C"},"geometry":{"type":"Polygon","coordinates":[[[-97.20658,49.86394],[-97.17474,49.86231],[-97.17428,49.86752],[-97.15979,49.87239],[-97.15693,49.8741],[-97.1531,49.8743],[-97.15227,49.8752],[-97.15324,49.87764],[-97.15437,49.87868],[-97.1499,49.87979],[-97.15105,49.88171],[-97.15159,49.88167],[-97.15419,49.88094],[-97.15489,49.88012],[-97.15478,49.87916],[-97.1593,49.87883],[-97.16086,49.87783],[-97.16499,49.87858],[-97.1711,49.87625],[-97.17505,49.87621],[-97.1802,49.8791],[-97.18301,49.8796],[-97.19045,49.87809],[-97.19727,49.87835],[-97.20361,49.87672],[-97.20668,49.87697],[-97.20798,49.8764],[-97.20838,49.87429],[-97.21037,49.8738],[-97.21115,49.86619],[-97.20658,49.86394]]]}},{"type":"Feature","properties":{"name":"1D"},"geometry":{"type":"Polygon","coordinates":[[[-97.17474,49.86231],[-97.20658,49.86394],[-97.21115,49.86619],[-97.21298,49.84716],[-97.17569,49.85072],[-97.17474,49.86231]]]}},{"type":"Feature","properties":{"name":"1E"},"geometry":{"type":"Polygon","coordinates":[[[-97.25188,49.84361],[-97.22839,49.84515],[-97.23068,49.83082],[-97.23108,49.82441],[-97.23167,49.82185],[-97.2337,49.822],[-97.23432,49.81448],[-97.2196,49.81506],[-97.21194,49.81763],[-97.20732,49.82695],[-97.20963,49.82883],[-97.21024,49.8305],[-97.20802,49.84761],[-97.21298,49.84716],[-97.21037,49.8738],[-97.21388,49.87447],[-97.22146,49.87313],[-97.22936,49.87554],[-97.23657,49.87567],[-97.24043,49.87486],[-97.24427,49.87502],[-97.24527,49.87403],[-97.24923,49.87413],[-97.25188,49.84361]]]}},{"type":"Feature","properties":{"name":"1F"},"geometry":{"type":"Polygon","coordinates":[[[-97.24923,49.87413],[-97.24979,49.86769],[-97.25796,49.86834],[-97.2728,49.86695],[-97.27379,49.86634],[-97.27758,49.85829],[-97.28248,49.85749],[-97.31941,49.86415],[-97.32464,49.86418],[-97.32551,49.86894],[-97.32115,49.87244],[-97.31755,49.87274],[-97.31314,49.87054],[-97.31157,49.86684],[-97.30225,49.86549],[-97.29943,49.86432],[-97.2892,49.86358],[-97.28554,49.85978],[-97.28091,49.85929],[-97.27788,49.86124],[-97.28041,49.86778],[-97.27837,49.87029],[-97.27206,49.86986],[-97.26569,49.87224],[-97.2606,49.87188],[-97.24923,49.87413]]]}},{"type":"Feature","properties":{"name":"1G"},"geometry":{"type":"Polygon","coordinates":[[[-97.31153,49.86267],[-97.28248,49.85749],[-97.27758,49.85829],[-97.27379,49.86634],[-97.2728,49.86695],[-97.25796,49.86834],[-97.24979,49.86769],[-97.25188,49.84361],[-97.28402,49.84071],[-97.30913,49.83978],[-97.30867,49.84688],[-97.31266,49.84719],[-97.31153,49.86267]]]}},{"type":"Feature","properties":{"name":"1H"},"geometry":{"type":"Polygon","coordinates":[[[-97.32464,49.86418],[-97.31153,49.86267],[-97.31266,49.84719],[-97.30867,49.84688],[-97.30913,49.83978],[-97.32396,49.83945],[-97.32273,49.85507],[-97.32464,49.86418]]]}},{"type":"Feature","properties":{"name":"1J"},"geometry":{"type":"Polygon","coordinates":[[[-97.1451,49.85255],[-97.14516,49.85112],[-97.14415,49.85055],[-97.14085,49.85047],[-97.13378,49.85269],[-97.13094,49.85259],[-97.11959,49.84582],[-97.11945,49.8433],[-97.12077,49.84216],[-97.12445,49.84175],[-97.13254,49.84385],[-97.13707,49.84251],[-97.13719,49.84051],[-97.13082,49.83475],[-97.13147,49.83261],[-97.13462,49.83131],[-97.14364,49.83232],[-97.14849,49.83073],[-97.14846,49.82882],[-97.14274,49.82197],[-97.15299,49.81938],[-97.15367,49.82402],[-97.15115,49.83417],[-97.1521,49.83853],[-97.15466,49.8414],[-97.15232,49.85196],[-97.14326,49.85483],[-97.14236,49.85402],[-97.1451,49.85255]]]}},{"type":"Feature","properties":{"name":"1JW"},"geometry":{"type":"Polygon","coordinates":[[[-97.17847,49.85044],[-97.17909,49.83641],[-97.18054,49.83234],[-97.17917,49.82742],[-97.1787,49.81746],[-97.17821,49.81571],[-97.17616,49.81323],[-97.16311,49.81824],[-97.15299,49.81938],[-97.15367,49.82402],[-97.15115,49.83417],[-97.1521,49.83853],[-97.15466,49.8414],[-97.15232,49.85196],[-97.15353,49.85228],[-97.15373,49.85306],[-97.17847,49.85044]]]}},{"type":"Feature","properties":{"name":"1K"},"geometry":{"type":"Polygon","coordinates":[[[-97.15299,49.81938],[-97.14274,49.82197],[-97.14112,49.81476],[-97.13585,49.81302],[-97.13082,49.81375],[-97.12213,49.81706],[-97.11771,49.81611],[-97.11489,49.81376],[-97.11601,49.81146],[-97.12901,49.80709],[-97.12989,49.80526],[-97.12851,49.8032],[-97.11767,49.79826],[-97.11612,49.79517],[-97.11842,49.79328],[-97.12159,49.79332],[-97.12676,49.79777],[-97.13022,49.79695],[-97.13622,49.78769],[-97.13574,49.78518],[-97.15699,49.77727],[-97.15772,49.79238],[-97.1573,49.80266],[-97.15306,49.8113],[-97.152,49.81634],[-97.15299,49.81938]]]}},{"type":"Feature","properties":{"name":"1L"},"geometry":{"type":"Polygon","coordinates":[[[-97.17284,49.80161],[-97.15736,49.80136],[-97.15678,49.80402],[-97.15306,49.8113],[-97.152,49.81634],[-97.15299,49.81938],[-97.16311,49.81824],[-97.17616,49.81323],[-97.17428,49.81138],[-97.17332,49.80876],[-97.17284,49.80161]]]}},{"type":"Feature","properties":{"name":"1M"},"geometry":{"type":"Polygon","coordinates":[[[-97.21194,49.81763],[-97.20148,49.82146],[-97.19383,49.81178],[-97.19034,49.80983],[-97.18625,49.80999],[-97.17616,49.81323],[-97.17821,49.81571],[-97.1787,49.81746],[-97.17917,49.82742],[-97.18054,49.83234],[-97.17909,49.83641],[-97.17847,49.85044],[-97.20802,49.84761],[-97.21024,49.8305],[-97.20963,49.82883],[-97.20732,49.82695],[-97.21194,49.81763]]]}},{"type":"Feature","properties":{"name":"1N"},"geometry":{"type":"Polygon","coordinates":[[[-97.28402,49.84071],[-97.22839,49.84515],[-97.23068,49.83082],[-97.23108,49.82441],[-97.23167,49.82185],[-97.2337,49.822],[-97.23432,49.81448],[-97.25359,49.8146],[-97.25387,49.81255],[-97.25457,49.81239],[-97.27653,49.81259],[-97.27664,49.81074],[-97.29955,49.81082],[-97.29952,49.8096],[-97.32735,49.80981],[-97.32396,49.83945],[-97.28402,49.84071]]]}},{"type":"Feature","properties":{"name":"1P"},"geometry":{"type":"Polygon","coordinates":[[[-97.19383,49.81178],[-97.19493,49.81133],[-97.19478,49.80935],[-97.19589,49.80885],[-97.21955,49.8014],[-97.2196,49.81506],[-97.20148,49.82146],[-97.19383,49.81178]]]}},{"type":"Feature","properties":{"name":"1Q"},"geometry":{"type":"Polygon","coordinates":[[[-97.17931,49.72787],[-97.17893,49.76271],[-97.17737,49.76491],[-97.17455,49.7672],[-97.17363,49.7688],[-97.17353,49.77149],[-97.13574,49.78518],[-97.13149,49.78127],[-97.13183,49.77965],[-97.13279,49.77883],[-97.14798,49.7769],[-97.15258,49.77502],[-97.15425,49.77268],[-97.1536,49.77076],[-97.15151,49.77055],[-97.14547,49.77372],[-97.1408,49.77417],[-97.13974,49.7732],[-97.13926,49.77102],[-97.1408,49.75743],[-97.13792,49.75364],[-97.12968,49.748],[-97.12768,49.74583],[-97.17931,49.72787]]]}},{"type":"Feature","properties":{"name":"1R"},"geometry":{"type":"Polygon","coordinates":[[[-97.17789,49.77011],[-97.18627,49.76869],[-97.2139,49.7685],[-97.21389,49.79727],[-97.21951,49.79767],[-97.21955,49.8014],[-97.19589,49.80885],[-97.19478,49.80935],[-97.19506,49.811],[-97.19424,49.81168],[-97.19126,49.81006],[-97.18766,49.8097],[-97.17616,49.81323],[-97.17428,49.81138],[-97.17332,49.80876],[-97.17284,49.80161],[-97.17356,49.80045],[-97.17353,49.77149],[-97.17789,49.77011]]]}},{"type":"Feature","properties":{"name":"1S"},"geometry":{"type":"Polygon","coordinates":[[[-97.15736,49.80136],[-97.15772,49.79238],[-97.15699,49.77727],[-97.17353,49.77149],[-97.17335,49.80113],[-97.17176,49.80194],[-97.15736,49.80136]]]}},{"type":"Feature","properties":{"name":"1W"},"geometry":{"type":"Polygon","coordinates":[[[-97.44386,49.87242],[-97.44195,49.87177],[-97.43887,49.86805],[-97.43229,49.86612],[-97.42777,49.86594],[-97.42534,49.86655],[-97.42044,49.87008],[-97.41476,49.87067],[-97.40078,49.86817],[-97.39365,49.8641],[-97.39035,49.86416],[-97.38589,49.86604],[-97.38048,49.86392],[-97.3739,49.86364],[-97.37077,49.86516],[-97.36886,49.86793],[-97.35839,49.87012],[-97.34945,49.86993],[-97.34699,49.86736],[-97.35034,49.86441],[-97.35005,49.8626],[-97.34734,49.86239],[-97.34227,49.86471],[-97.32551,49.86894],[-97.32273,49.85507],[-97.32527,49.82462],[-97.32718,49.81106],[-97.40259,49.81165],[-97.40307,49.80755],[-97.41323,49.80749],[-97.41374,49.79814],[-97.45907,49.79815],[-97.45866,49.80381],[-97.45632,49.80378],[-97.45313,49.83573],[-97.45214,49.86883],[-97.44823,49.87154],[-97.44386,49.87242]]]}},{"type":"Feature","properties":{"name":"2A"},"geometry":{"type":"Polygon","coordinates":[[[-97.13062,49.88251],[-97.1256,49.88768],[-97.12707,49.89122],[-97.13174,49.89763],[-97.12418,49.90135],[-97.11147,49.90051],[-97.1093,49.90139],[-97.10866,49.90298],[-97.10485,49.9031],[-97.09515,49.90078],[-97.07434,49.89718],[-97.0764,49.89553],[-97.07147,49.89486],[-97.07289,49.89189],[-97.07301,49.88162],[-97.10375,49.88162],[-97.12871,49.88084],[-97.13062,49.88251]]]}},{"type":"Feature","properties":{"name":"2B"},"geometry":{"type":"Polygon","coordinates":[[[-97.12871,49.88084],[-97.13062,49.88251],[-97.13717,49.87552],[-97.13716,49.87309],[-97.13623,49.87124],[-97.13303,49.87018],[-97.12317,49.87128],[-97.11703,49.87069],[-97.10386,49.87499],[-97.07269,49.87494],[-97.07301,49.88162],[-97.10375,49.88162],[-97.12871,49.88084]]]}},{"type":"Feature","properties":{"name":"2C"},"geometry":{"type":"Polygon","coordinates":[[[-97.11329,49.87202],[-97.1102,49.86909],[-97.11028,49.86551],[-97.11181,49.85817],[-97.11141,49.85335],[-97.11241,49.84571],[-97.11188,49.83714],[-97.1147,49.83127],[-97.11142,49.81368],[-97.11538,49.80307],[-97.1138,49.79586],[-97.11479,49.79307],[-97.13574,49.78518],[-97.13622,49.78769],[-97.13022,49.79695],[-97.12676,49.79777],[-97.12159,49.79332],[-97.11842,49.79328],[-97.11612,49.79517],[-97.11767,49.79826],[-97.12851,49.8032],[-97.12989,49.80526],[-97.12901,49.80709],[-97.11601,49.81146],[-97.11489,49.81376],[-97.11771,49.81611],[-97.12213,49.81706],[-97.13082,49.81375],[-97.13585,49.81302],[-97.14112,49.81476],[-97.14274,49.82197],[-97.14846,49.82882],[-97.14849,49.83073],[-97.14364,49.83232],[-97.13462,49.83131],[-97.13147,49.83261],[-97.13082,49.83475],[-97.13719,49.84051],[-97.13707,49.84251],[-97.13254,49.84385],[-97.12445,49.84175],[-97.12077,49.84216],[-97.11945,49.8433],[-97.11959,49.84582],[-97.13094,49.85259],[-97.13378,49.85269],[-97.14085,49.85047],[-97.14415,49.85055],[-97.14516,49.85112],[-97.1451,49.85255],[-97.14248,49.85415],[-97.12997,49.85525],[-97.12225,49.85696],[-97.11966,49.85811],[-97.11578,49.86118],[-97.11281,49.86554],[-97.11257,49.86806],[-97.11525,49.87046],[-97.11703,49.87069],[-97.11329,49.87202]]]}},{"type":"Feature","properties":{"name":"2D"},"geometry":{"type":"Polygon","coordinates":[[[-97.08854,49.8399],[-97.08808,49.84128],[-97.08853,49.84172],[-97.08579,49.84221],[-97.08629,49.84368],[-97.08828,49.8433],[-97.08796,49.84484],[-97.09001,49.84437],[-97.0898,49.84548],[-97.09055,49.84627],[-97.09147,49.84604],[-97.09152,49.84694],[-97.09361,49.8471],[-97.0938,49.84777],[-97.09283,49.84837],[-97.09565,49.84881],[-97.09598,49.85081],[-97.097,49.85196],[-97.09778,49.85128],[-97.09911,49.85149],[-97.09879,49.85233],[-97.09634,49.85281],[-97.09555,49.85367],[-97.09778,49.85388],[-97.09761,49.85495],[-97.09612,49.8559],[-97.09703,49.85741],[-97.09489,49.85764],[-97.09501,49.85819],[-97.09697,49.85851],[-97.0954,49.85969],[-97.09742,49.86058],[-97.09543,49.8625],[-97.09782,49.86307],[-97.09527,49.86376],[-97.09798,49.86429],[-97.09534,49.86486],[-97.09765,49.86537],[-97.09764,49.86692],[-97.09926,49.86688],[-97.09928,49.86826],[-97.10096,49.86766],[-97.10163,49.86984],[-97.10305,49.86991],[-97.10282,49.87161],[-97.10183,49.87193],[-97.10064,49.87139],[-97.10077,49.87237],[-97.10329,49.87333],[-97.1043,49.87293],[-97.10382,49.874],[-97.10258,49.87425],[-97.10386,49.87499],[-97.11329,49.87202],[-97.1102,49.86909],[-97.11028,49.86551],[-97.11181,49.85817],[-97.11141,49.85335],[-97.11241,49.84571],[-97.11188,49.83714],[-97.11473,49.83071],[-97.08854,49.8399]]]}},{"type":"Feature","properties":{"name":"2E"},"geometry":{"type":"Polygon","coordinates":[[[-97.08854,49.8399],[-97.08925,49.83658],[-97.08695,49.83692],[-97.08611,49.83577],[-97.08733,49.8358],[-97.08788,49.83474],[-97.08537,49.83465],[-97.08768,49.83328],[-97.08369,49.83307],[-97.08532,49.8325],[-97.08403,49.83205],[-97.08555,49.83057],[-97.08379,49.829],[-97.08165,49.82839],[-97.0819,49.82709],[-97.08036,49.82699],[-97.08144,49.8254],[-97.09833,49.81969],[-97.09893,49.81818],[-97.09861,49.81749],[-97.1074,49.81583],[-97.10617,49.81702],[-97.10688,49.81801],[-97.11201,49.81653],[-97.11473,49.83071],[-97.08854,49.8399]]]}},{"type":"Feature","properties":{"name":"2F"},"geometry":{"type":"Polygon","coordinates":[[[-97.06626,49.80923],[-97.06752,49.81104],[-97.06897,49.81099],[-97.06801,49.81213],[-97.06935,49.81203],[-97.06876,49.81271],[-97.06965,49.81314],[-97.06828,49.81379],[-97.06937,49.81399],[-97.07254,49.81296],[-97.07246,49.8143],[-97.07129,49.81437],[-97.07184,49.81597],[-97.07323,49.81693],[-97.07358,49.81582],[-97.07549,49.81646],[-97.07495,49.81728],[-97.07531,49.81769],[-97.07654,49.81647],[-97.07701,49.8186],[-97.0763,49.81882],[-97.07763,49.81925],[-97.07673,49.81964],[-97.07846,49.81926],[-97.07827,49.82017],[-97.07715,49.82033],[-97.07773,49.82171],[-97.08151,49.82164],[-97.0803,49.8236],[-97.0824,49.82365],[-97.08144,49.8254],[-97.09833,49.81969],[-97.09893,49.81818],[-97.09861,49.81749],[-97.1074,49.81583],[-97.10617,49.81702],[-97.10688,49.81801],[-97.11201,49.81653],[-97.11142,49.81368],[-97.11538,49.80307],[-97.1138,49.79586],[-97.1149,49.79277],[-97.06626,49.80923]]]}},{"type":"Feature","properties":{"name":"2G"},"geometry":{"type":"Polygon","coordinates":[[[-97.10451,49.87338],[-97.10077,49.87237],[-97.10064,49.87139],[-97.10249,49.87176],[-97.10308,49.87041],[-97.10305,49.86991],[-97.10163,49.86984],[-97.10096,49.86766],[-97.09928,49.86826],[-97.09926,49.86688],[-97.09764,49.86692],[-97.09765,49.86537],[-97.09548,49.86511],[-97.09798,49.86429],[-97.09527,49.86376],[-97.09782,49.86307],[-97.09543,49.8625],[-97.09742,49.86058],[-97.0954,49.85969],[-97.09697,49.85851],[-97.09505,49.85804],[-97.08536,49.85608],[-97.03311,49.85603],[-97.02689,49.85524],[-97.02696,49.88388],[-97.02635,49.88569],[-97.07305,49.88544],[-97.07269,49.87494],[-97.10386,49.87499],[-97.10261,49.87412],[-97.10451,49.87338]]]}},{"type":"Feature","properties":{"name":"2H"},"geometry":{"type":"Polygon","coordinates":[[[-97.09489,49.85764],[-97.09703,49.85741],[-97.09612,49.8559],[-97.09761,49.85495],[-97.09767,49.85349],[-97.09609,49.85403],[-97.09564,49.85352],[-97.09634,49.85281],[-97.09879,49.85233],[-97.09911,49.85149],[-97.09778,49.85128],[-97.097,49.85196],[-97.09598,49.85081],[-97.09565,49.84881],[-97.09283,49.84837],[-97.0938,49.84777],[-97.09361,49.8471],[-97.09152,49.84694],[-97.09147,49.84604],[-97.09055,49.84627],[-97.0898,49.84548],[-97.09001,49.84437],[-97.08796,49.84484],[-97.08828,49.8433],[-97.08629,49.84368],[-97.08579,49.84221],[-97.08853,49.84172],[-97.08808,49.84128],[-97.08854,49.8399],[-97.08432,49.84099],[-97.05732,49.84116],[-97.04964,49.8405],[-97.04962,49.85604],[-97.08536,49.85608],[-97.09241,49.85791],[-97.09505,49.85804],[-97.09489,49.85764]]]}},{"type":"Feature","properties":{"name":"2J"},"geometry":{"type":"Polygon","coordinates":[[[-97.08432,49.84099],[-97.08854,49.8399],[-97.08929,49.83668],[-97.08695,49.83692],[-97.08614,49.83553],[-97.08733,49.8358],[-97.08788,49.83474],[-97.08537,49.83465],[-97.08768,49.83328],[-97.08369,49.83307],[-97.08532,49.8325],[-97.08403,49.83205],[-97.08555,49.83057],[-97.08379,49.829],[-97.08165,49.82839],[-97.0819,49.82709],[-97.08036,49.82699],[-97.08249,49.8238],[-97.08034,49.82378],[-97.08151,49.82164],[-97.07773,49.82171],[-97.07715,49.82033],[-97.07827,49.82017],[-97.07846,49.81926],[-97.07673,49.81964],[-97.07763,49.81925],[-97.0763,49.81882],[-97.07701,49.8186],[-97.07654,49.81647],[-97.07531,49.81769],[-97.07495,49.81728],[-97.07549,49.81646],[-97.07358,49.81582],[-97.07323,49.81693],[-97.07163,49.81565],[-97.07129,49.81437],[-97.07246,49.8143],[-97.07254,49.81296],[-97.06937,49.81399],[-97.06828,49.81379],[-97.06965,49.81314],[-97.06876,49.81271],[-97.06935,49.81203],[-97.06801,49.81213],[-97.06897,49.81099],[-97.06752,49.81104],[-97.06626,49.80923],[-97.04716,49.81559],[-97.04994,49.81891],[-97.05065,49.82139],[-97.04964,49.8405],[-97.05732,49.84116],[-97.08432,49.84099]]]}},{"type":"Feature","properties":{"name":"2K"},"geometry":{"type":"Polygon","coordinates":[[[-97.03311,49.85603],[-97.04962,49.85604],[-97.04964,49.8405],[-97.05065,49.82139],[-97.04994,49.81891],[-97.04716,49.81559],[-97.02684,49.82234],[-97.02689,49.85524],[-97.03311,49.85603]]]}},{"type":"Feature","properties":{"name":"2L"},"geometry":{"type":"Polygon","coordinates":[[[-97.02684,49.82234],[-97.02701,49.87111],[-96.9596,49.87113],[-96.95968,49.83879],[-96.97407,49.8241],[-96.97956,49.82273],[-97.02684,49.82234]]]}},{"type":"Feature","properties":{"name":"2M"},"geometry":{"type":"Polygon","coordinates":[[[-97.13574,49.78518],[-97.13149,49.78127],[-97.13183,49.77965],[-97.13279,49.77883],[-97.14798,49.7769],[-97.15258,49.77502],[-97.15425,49.77268],[-97.1536,49.77076],[-97.15151,49.77055],[-97.14547,49.77372],[-97.1408,49.77417],[-97.13974,49.7732],[-97.13926,49.77102],[-97.1408,49.75743],[-97.13792,49.75364],[-97.12968,49.748],[-97.12768,49.74583],[-97.12835,49.73906],[-97.07836,49.7534],[-97.08561,49.75448],[-97.08548,49.76282],[-97.04442,49.77696],[-97.04444,49.78295],[-97.04905,49.78299],[-97.04981,49.79245],[-97.03825,49.79765],[-97.02659,49.79759],[-97.02684,49.82234],[-97.1149,49.79277],[-97.13574,49.78518]]]}},{"type":"Feature","properties":{"name":"3A"},"geometry":{"type":"Polygon","coordinates":[[[-97.10866,49.90298],[-97.1095,49.90418],[-97.12028,49.9081],[-97.11766,49.90985],[-97.11377,49.91484],[-97.11335,49.91676],[-97.10942,49.92119],[-97.08972,49.91473],[-97.10485,49.9031],[-97.10866,49.90298]]]}},{"type":"Feature","properties":{"name":"3B"},"geometry":{"type":"Polygon","coordinates":[[[-97.10485,49.9031],[-97.09515,49.90078],[-97.07434,49.89718],[-97.0764,49.89553],[-97.07029,49.89477],[-97.06757,49.9011],[-97.06255,49.90647],[-97.05788,49.90862],[-97.0564,49.91071],[-97.06076,49.91082],[-97.08446,49.91881],[-97.10485,49.9031]]]}},{"type":"Feature","properties":{"name":"3C"},"geometry":{"type":"Polygon","coordinates":[[[-97.12028,49.9081],[-97.12527,49.91096],[-97.12737,49.91414],[-97.12442,49.91831],[-97.11376,49.92141],[-97.11034,49.92543],[-97.11112,49.93498],[-97.1096,49.93775],[-97.09673,49.94189],[-97.0962,49.94448],[-97.09862,49.94932],[-97.09723,49.95101],[-97.08329,49.94763],[-97.0936,49.93648],[-97.09874,49.93253],[-97.10942,49.92119],[-97.11335,49.91676],[-97.11377,49.91484],[-97.11766,49.90985],[-97.12028,49.9081]]]}},{"type":"Feature","properties":{"name":"3D"},"geometry":{"type":"Polygon","coordinates":[[[-97.10942,49.92119],[-97.09874,49.93253],[-97.07666,49.925],[-97.08972,49.91473],[-97.10942,49.92119]]]}},{"type":"Feature","properties":{"name":"3E"},"geometry":{"type":"Polygon","coordinates":[[[-97.08446,49.91881],[-97.0713,49.92924],[-97.05656,49.92429],[-97.05343,49.92243],[-97.04812,49.92233],[-97.04853,49.91971],[-97.0494,49.91836],[-97.05408,49.91461],[-97.0564,49.91071],[-97.05818,49.9105],[-97.06076,49.91082],[-97.08446,49.91881]]]}},{"type":"Feature","properties":{"name":"3F"},"geometry":{"type":"Polygon","coordinates":[[[-97.09874,49.93253],[-97.0936,49.93648],[-97.08329,49.94763],[-97.07481,49.94599],[-97.06348,49.94236],[-97.05851,49.9395],[-97.07666,49.925],[-97.09874,49.93253]]]}},{"type":"Feature","properties":{"name":"3G"},"geometry":{"type":"Polygon","coordinates":[[[-97.08371,49.95175],[-97.08683,49.95093],[-97.09453,49.95167],[-97.09723,49.95101],[-97.07481,49.94599],[-97.06348,49.94236],[-97.05851,49.9395],[-97.04404,49.95099],[-97.0699,49.96246],[-97.07421,49.95966],[-97.08371,49.95175]]]}},{"type":"Feature","properties":{"name":"3H"},"geometry":{"type":"Polygon","coordinates":[[[-97.04796,49.92586],[-97.04698,49.92829],[-97.04042,49.93528],[-97.03249,49.94584],[-97.04404,49.95099],[-97.0713,49.92924],[-97.05656,49.92429],[-97.05343,49.92243],[-97.04812,49.92233],[-97.04796,49.92586]]]}},{"type":"Feature","properties":{"name":"3J"},"geometry":{"type":"Polygon","coordinates":[[[-97.04042,49.93528],[-97.04771,49.92692],[-97.04821,49.92073],[-97.0494,49.91836],[-97.05408,49.91461],[-97.0564,49.91071],[-96.97137,49.92438],[-96.97568,49.93203],[-96.97834,49.93442],[-96.9834,49.93676],[-96.99087,49.93813],[-96.991,49.93472],[-96.99672,49.93454],[-96.99652,49.93052],[-96.99811,49.93049],[-97.03248,49.94584],[-97.04042,49.93528]]]}},{"type":"Feature","properties":{"name":"3K"},"geometry":{"type":"Polygon","coordinates":[[[-97.07289,49.89189],[-97.07305,49.88544],[-97.02534,49.88575],[-97.02469,49.88784],[-97.02497,49.90329],[-96.99271,49.91309],[-96.99121,49.91442],[-96.99066,49.92123],[-97.0564,49.91071],[-97.05788,49.90862],[-97.06255,49.90647],[-97.06757,49.9011],[-97.07029,49.89477],[-97.07147,49.89486],[-97.07289,49.89189]]]}},{"type":"Feature","properties":{"name":"3L"},"geometry":{"type":"Polygon","coordinates":[[[-97.02497,49.90329],[-97.02469,49.88784],[-97.02534,49.88575],[-97.00181,49.88558],[-97.00207,49.91006],[-97.02497,49.90329]]]}},{"type":"Feature","properties":{"name":"3M"},"geometry":{"type":"Polygon","coordinates":[[[-97.00181,49.88558],[-97.00207,49.91006],[-96.99408,49.91238],[-96.99121,49.91442],[-96.99066,49.92123],[-96.97137,49.92438],[-96.95985,49.90278],[-96.95972,49.88614],[-97.00181,49.88558]]]}},{"type":"Feature","properties":{"name":"3N"},"geometry":{"type":"Polygon","coordinates":[[[-96.95973,49.88614],[-97.02635,49.88569],[-97.02696,49.88388],[-97.02701,49.87111],[-96.9596,49.87113],[-96.95973,49.88614]]]}},{"type":"Feature","properties":{"name":"3P"},"geometry":{"type":"Polygon","coordinates":[[[-96.99811,49.93049],[-96.99652,49.93052],[-96.99672,49.93454],[-96.991,49.93472],[-96.99038,49.94507],[-97.00188,49.94511],[-97.00158,49.967],[-96.97867,49.96691],[-96.97851,49.97446],[-96.96175,49.97431],[-96.96246,49.98898],[-96.95655,49.98902],[-96.95678,49.99475],[-97.03167,50.02956],[-97.03776,50.02202],[-97.04334,50.01932],[-97.03953,49.99562],[-97.04143,49.99336],[-97.04976,49.99103],[-97.05278,49.98311],[-97.05947,49.97887],[-97.0668,49.96626],[-97.0699,49.96246],[-96.99811,49.93049]]]}},{"type":"Feature","properties":{"name":"4A"},"geometry":{"type":"Polygon","coordinates":[[[-97.12527,49.91096],[-97.12737,49.91414],[-97.12612,49.91592],[-97.13187,49.91763],[-97.12986,49.92003],[-97.15133,49.9271],[-97.15715,49.91936],[-97.17021,49.92355],[-97.17058,49.91688],[-97.1362,49.90603],[-97.11926,49.90353],[-97.10866,49.90298],[-97.1095,49.90418],[-97.12028,49.9081],[-97.12527,49.91096]]]}},{"type":"Feature","properties":{"name":"4B"},"geometry":{"type":"Polygon","coordinates":[[[-97.17021,49.92355],[-97.15715,49.91936],[-97.15133,49.9271],[-97.17115,49.93317],[-97.1673,49.93813],[-97.16646,49.9407],[-97.18163,49.94565],[-97.19494,49.9456],[-97.19455,49.92355],[-97.17058,49.91688],[-97.17021,49.92355]]]}},{"type":"Feature","properties":{"name":"4C"},"geometry":{"type":"Polygon","coordinates":[[[-97.12986,49.92003],[-97.12726,49.92305],[-97.12484,49.92747],[-97.16646,49.9407],[-97.1673,49.93813],[-97.17115,49.93317],[-97.12986,49.92003]]]}},{"type":"Feature","properties":{"name":"4D"},"geometry":{"type":"Polygon","coordinates":[[[-97.12484,49.92747],[-97.12726,49.92305],[-97.13187,49.91763],[-97.12612,49.91592],[-97.12442,49.91831],[-97.11376,49.92141],[-97.11034,49.92543],[-97.11112,49.93498],[-97.1096,49.93775],[-97.10051,49.94072],[-97.11173,49.94409],[-97.1095,49.94681],[-97.10647,49.94902],[-97.11706,49.95327],[-97.14715,49.93458],[-97.12484,49.92747]]]}},{"type":"Feature","properties":{"name":"4E"},"geometry":{"type":"Polygon","coordinates":[[[-97.09234,49.96863],[-97.07421,49.95966],[-97.08371,49.95175],[-97.08683,49.95093],[-97.09453,49.95167],[-97.09723,49.95101],[-97.09862,49.94932],[-97.0962,49.94448],[-97.09673,49.94189],[-97.10051,49.94072],[-97.11173,49.94409],[-97.1095,49.94681],[-97.10647,49.94902],[-97.11706,49.95327],[-97.09234,49.96863]]]}},{"type":"Feature","properties":{"name":"4F"},"geometry":{"type":"Polygon","coordinates":[[[-97.19025,49.96788],[-97.18966,49.96712],[-97.1482,49.9539],[-97.14838,49.95338],[-97.12773,49.94666],[-97.09234,49.96863],[-97.12665,49.9839],[-97.14943,49.9951],[-97.15476,49.99465],[-97.15446,49.99016],[-97.16105,49.98994],[-97.16103,49.97536],[-97.18394,49.97534],[-97.18385,49.97154],[-97.19025,49.96788]]]}},{"type":"Feature","properties":{"name":"4G"},"geometry":{"type":"Polygon","coordinates":[[[-97.12773,49.94666],[-97.14838,49.95338],[-97.15975,49.9406],[-97.16524,49.94216],[-97.16646,49.9407],[-97.14715,49.93458],[-97.12773,49.94666]]]}},{"type":"Feature","properties":{"name":"4H"},"geometry":{"type":"Polygon","coordinates":[[[-97.19025,49.96788],[-97.19482,49.96564],[-97.1882,49.94559],[-97.18163,49.94565],[-97.16646,49.9407],[-97.16524,49.94216],[-97.15975,49.9406],[-97.14838,49.95338],[-97.1482,49.9539],[-97.18966,49.96712],[-97.19025,49.96788]]]}},{"type":"Feature","properties":{"name":"4J"},"geometry":{"type":"Polygon","coordinates":[[[-97.20761,49.92828],[-97.21722,49.93345],[-97.21572,49.93487],[-97.21074,49.93481],[-97.21073,49.93754],[-97.20673,49.93765],[-97.20677,49.94562],[-97.19494,49.9456],[-97.19455,49.92355],[-97.20734,49.92671],[-97.20761,49.92828]]]}},{"type":"Feature","properties":{"name":"4K"},"geometry":{"type":"Polygon","coordinates":[[[-97.22986,49.93294],[-97.20734,49.92671],[-97.20761,49.92828],[-97.20923,49.92939],[-97.21722,49.93345],[-97.21572,49.93487],[-97.21074,49.93481],[-97.21073,49.93754],[-97.20673,49.93765],[-97.20677,49.94562],[-97.22958,49.94564],[-97.22986,49.93294]]]}},{"type":"Feature","properties":{"name":"4L"},"geometry":{"type":"Polygon","coordinates":[[[-97.18427,49.97076],[-97.19482,49.96564],[-97.1882,49.94559],[-97.22998,49.94572],[-97.22998,49.97572],[-97.18394,49.97534],[-97.18427,49.97076]]]}},{"type":"Feature","properties":{"name":"5A"},"geometry":{"type":"Polygon","coordinates":[[[-97.14523,49.90894],[-97.16044,49.91389],[-97.16808,49.90404],[-97.1697,49.88519],[-97.15985,49.88767],[-97.16086,49.87783],[-97.1593,49.87883],[-97.15478,49.87916],[-97.15489,49.88012],[-97.15419,49.88094],[-97.15272,49.88145],[-97.14845,49.8818],[-97.15011,49.8854],[-97.15005,49.88907],[-97.15265,49.8935],[-97.15235,49.89868],[-97.14523,49.90894]]]}},{"type":"Feature","properties":{"name":"5B"},"geometry":{"type":"Polygon","coordinates":[[[-97.16086,49.87783],[-97.15985,49.88767],[-97.1697,49.88519],[-97.18488,49.88309],[-97.20312,49.87965],[-97.20361,49.87672],[-97.19727,49.87835],[-97.19045,49.87809],[-97.18301,49.8796],[-97.1802,49.8791],[-97.17505,49.87621],[-97.1711,49.87625],[-97.16499,49.87858],[-97.16086,49.87783]]]}},{"type":"Feature","properties":{"name":"5C"},"geometry":{"type":"Polygon","coordinates":[[[-97.20312,49.87965],[-97.20092,49.90633],[-97.20015,49.9063],[-97.20003,49.91133],[-97.18977,49.91099],[-97.16815,49.9042],[-97.1697,49.88519],[-97.18488,49.88309],[-97.20312,49.87965]]]}},{"type":"Feature","properties":{"name":"5D"},"geometry":{"type":"Polygon","coordinates":[[[-97.18977,49.91099],[-97.20003,49.91133],[-97.20015,49.9063],[-97.20092,49.90633],[-97.20159,49.89411],[-97.2178,49.89459],[-97.21821,49.89093],[-97.22461,49.88964],[-97.24107,49.8893],[-97.24106,49.88885],[-97.26148,49.8895],[-97.2606,49.89871],[-97.26444,49.89906],[-97.26383,49.9163],[-97.22971,49.91649],[-97.22986,49.93294],[-97.16044,49.91389],[-97.16808,49.90404],[-97.18977,49.91099]]]}},{"type":"Feature","properties":{"name":"5E"},"geometry":{"type":"Polygon","coordinates":[[[-97.24183,49.87493],[-97.24107,49.8893],[-97.22461,49.88964],[-97.21821,49.89093],[-97.2178,49.89459],[-97.20159,49.89411],[-97.20361,49.87672],[-97.20668,49.87697],[-97.20798,49.8764],[-97.20838,49.87429],[-97.20914,49.87385],[-97.21388,49.87447],[-97.22146,49.87313],[-97.22936,49.87554],[-97.23657,49.87567],[-97.24183,49.87493]]]}},{"type":"Feature","properties":{"name":"5F"},"geometry":{"type":"Polygon","coordinates":[[[-97.24106,49.88885],[-97.24183,49.87493],[-97.24427,49.87502],[-97.24527,49.87403],[-97.24923,49.87413],[-97.2606,49.87188],[-97.26569,49.87224],[-97.27206,49.86986],[-97.27837,49.87029],[-97.28041,49.86778],[-97.27741,49.90191],[-97.26431,49.90265],[-97.26444,49.89906],[-97.2606,49.89871],[-97.26148,49.8895],[-97.24106,49.88885]]]}},{"type":"Feature","properties":{"name":"5G"},"geometry":{"type":"Polygon","coordinates":[[[-97.27904,49.87927],[-97.30272,49.88284],[-97.3242,49.88032],[-97.32551,49.86894],[-97.32115,49.87244],[-97.31755,49.87274],[-97.31314,49.87054],[-97.31157,49.86684],[-97.30225,49.86549],[-97.29943,49.86432],[-97.2892,49.86358],[-97.28554,49.85978],[-97.28091,49.85929],[-97.27788,49.86124],[-97.28041,49.86778],[-97.27904,49.87927]]]}},{"type":"Feature","properties":{"name":"5H"},"geometry":{"type":"Polygon","coordinates":[[[-97.3242,49.88032],[-97.32386,49.88548],[-97.32207,49.88837],[-97.32136,49.89923],[-97.27741,49.90191],[-97.27928,49.87931],[-97.30272,49.88284],[-97.3242,49.88032]]]}},{"type":"Feature","properties":{"name":"5J"},"geometry":{"type":"Polygon","coordinates":[[[-97.32136,49.89923],[-97.32043,49.91033],[-97.3187,49.92112],[-97.32047,49.92818],[-97.29825,49.92859],[-97.29828,49.93127],[-97.26264,49.93122],[-97.26431,49.90265],[-97.32136,49.89923]]]}},{"type":"Feature","properties":{"name":"5W"},"geometry":{"type":"Polygon","coordinates":[[[-97.32049,49.92793],[-97.3187,49.92112],[-97.32043,49.91033],[-97.32207,49.88837],[-97.32386,49.88548],[-97.32551,49.86894],[-97.34227,49.86471],[-97.34734,49.86239],[-97.35005,49.8626],[-97.35034,49.86441],[-97.34699,49.86736],[-97.34945,49.86993],[-97.35839,49.87012],[-97.36886,49.86793],[-97.37077,49.86516],[-97.3739,49.86364],[-97.38048,49.86392],[-97.38589,49.86604],[-97.39035,49.86416],[-97.39365,49.8641],[-97.40078,49.86817],[-97.41476,49.87067],[-97.42044,49.87008],[-97.42534,49.86655],[-97.42777,49.86594],[-97.43229,49.86612],[-97.43887,49.86805],[-97.44195,49.87177],[-97.44386,49.87242],[-97.45214,49.86883],[-97.4513,49.92292],[-97.4126,49.92344],[-97.41253,49.92569],[-97.39463,49.92601],[-97.38933,49.92735],[-97.32049,49.92793]]]}},{"type":"Feature","properties":{"name":"9A"},"geometry":{"type":"Polygon","coordinates":[[[-97.10866,49.90298],[-97.1093,49.90139],[-97.11147,49.90051],[-97.12418,49.90135],[-97.13174,49.89763],[-97.12707,49.89122],[-97.1256,49.88768],[-97.1276,49.88602],[-97.13371,49.88561],[-97.14232,49.88243],[-97.14845,49.8818],[-97.15011,49.8854],[-97.15005,49.88907],[-97.15265,49.8935],[-97.15235,49.89868],[-97.14523,49.90894],[-97.1362,49.90603],[-97.11926,49.90353],[-97.10866,49.90298]]]}},{"type":"Feature","properties":{"name":"R02"},"geometry":{"type":"Polygon","coordinates":[[[-96.92234,50.00787],[-96.9268,50.00786],[-96.92673,50.00405],[-96.93059,50.00407],[-96.93101,50.00792],[-96.93966,50.00828],[-96.93976,50.00392],[-96.94536,50.00381],[-96.94547,50.00038],[-96.95085,50.00032],[-96.95096,49.9966],[-96.95678,49.99475],[-97.03312,50.03035],[-97.03051,50.03276],[-97.02351,50.03432],[-97.02146,50.03445],[-97.01465,50.03299],[-97.00765,50.0337],[-97.00498,50.03533],[-97.00251,50.03833],[-97.00114,50.03911],[-96.99192,50.03955],[-96.98773,50.04165],[-96.98985,50.04928],[-96.98935,50.05237],[-96.98564,50.05777],[-96.98015,50.06387],[-96.97764,50.06558],[-96.97482,50.06608],[-96.96436,50.06509],[-96.96058,50.06606],[-96.9529,50.0698],[-96.95165,50.07145],[-96.95122,50.07536],[-96.95002,50.07661],[-96.94085,50.08049],[-96.94124,50.08573],[-96.93848,50.08952],[-96.94101,50.09601],[-96.94039,50.09873],[-96.93834,50.10244],[-96.93352,50.10676],[-96.93168,50.11034],[-96.92786,50.11315],[-96.92143,50.116],[-96.90625,50.11723],[-96.9015,50.12168],[-96.89485,50.12342],[-96.89008,50.12675],[-96.88803,50.12747],[-96.87889,50.12783],[-96.87173,50.12645],[-96.8654,50.12607],[-96.86144,50.12655],[-96.85913,50.12739],[-96.85758,50.12884],[-96.85729,50.13005],[-96.85829,50.1318],[-96.8701,50.13569],[-96.87235,50.13748],[-96.87272,50.1393],[-96.87017,50.1419],[-96.85532,50.14996],[-96.85267,50.1533],[-96.8531,50.15682],[-96.85989,50.1636],[-96.86147,50.16674],[-96.86186,50.16948],[-96.85805,50.17528],[-96.85683,50.17617],[-96.8449,50.18171],[-96.84336,50.18451],[-96.84441,50.18949],[-96.8442,50.19213],[-96.84241,50.19413],[-96.83273,50.20148],[-96.83239,50.20333],[-96.83758,50.21399],[-96.8331,50.22257],[-96.83508,50.23098],[-96.83518,50.23957],[-96.84801,50.25831],[-96.84977,50.27551],[-96.853,50.27998],[-96.86163,50.2862],[-96.86653,50.29301],[-96.86533,50.29504],[-96.86127,50.29803],[-96.8535,50.30006],[-96.84538,50.30123],[-96.83653,50.30948],[-96.826,50.32954],[-96.65114,50.32922],[-96.65286,50.30923],[-96.5563,50.30923],[-96.55634,50.32616],[-96.35318,50.32724],[-96.35296,50.28272],[-96.46786,50.28209],[-96.61556,50.2826],[-96.62827,50.28366],[-96.62797,50.26757],[-96.62902,50.23936],[-96.67993,50.23949],[-96.68035,50.15074],[-96.70307,50.1508],[-96.70472,50.06249],[-96.85374,50.06297],[-96.85369,50.05963],[-96.85957,50.05959],[-96.85957,50.05716],[-96.86527,50.05716],[-96.86503,50.03729],[-96.85371,50.03723],[-96.85372,50.03335],[-96.84242,50.03337],[-96.84247,49.99374],[-96.86052,49.99394],[-96.8606,49.99656],[-96.88763,49.99677],[-96.88765,49.9978],[-96.8903,49.99778],[-96.89054,49.99686],[-96.9049,49.99677],[-96.90496,50.00412],[-96.9223,50.00413],[-96.92234,50.00787]]]}},{"type":"Feature","properties":{"name":"R03"},"geometry":{"type":"Polygon","coordinates":[[[-96.63559,50.06199],[-96.70472,50.06249],[-96.70307,50.1508],[-96.68035,50.15074],[-96.67993,50.23949],[-96.62902,50.23936],[-96.62797,50.26757],[-96.62827,50.28366],[-96.61556,50.2826],[-96.46786,50.28209],[-96.35296,50.28272],[-96.35287,50.2386],[-96.36088,50.2385],[-96.36043,50.15001],[-96.35716,50.13624],[-96.3607,50.12045],[-96.36055,50.03199],[-96.36328,49.97305],[-96.63655,49.97325],[-96.63559,50.06199]]]}},{"type":"Feature","properties":{"name":"R04"},"geometry":{"type":"Polygon","coordinates":[[[-96.86503,50.03729],[-96.86527,50.05716],[-96.85957,50.05716],[-96.85957,50.05959],[-96.85369,50.05963],[-96.85374,50.06297],[-96.63559,50.06199],[-96.63655,49.97325],[-96.36328,49.97305],[-96.36328,49.8849],[-96.3694,49.88491],[-96.3694,49.79629],[-97.02659,49.79759],[-97.02684,49.82234],[-96.97646,49.82312],[-96.97407,49.8241],[-96.96065,49.8374],[-96.95952,49.83953],[-96.95985,49.90278],[-96.97568,49.93203],[-96.97834,49.93442],[-96.9834,49.93676],[-96.99087,49.93813],[-96.99038,49.94507],[-97.00188,49.94511],[-97.00158,49.967],[-96.97867,49.96691],[-96.97851,49.97446],[-96.96175,49.97431],[-96.96246,49.98898],[-96.95655,49.98902],[-96.95684,49.99649],[-96.95096,49.9966],[-96.95085,50.00032],[-96.94547,50.00038],[-96.94536,50.00381],[-96.93976,50.00392],[-96.93966,50.00828],[-96.93101,50.00792],[-96.93059,50.00407],[-96.92673,50.00405],[-96.9268,50.00786],[-96.92234,50.00787],[-96.9223,50.00413],[-96.90496,50.00412],[-96.9049,49.99677],[-96.89054,49.99686],[-96.8903,49.99778],[-96.88765,49.9978],[-96.88763,49.99677],[-96.8606,49.99656],[-96.86052,49.99394],[-96.84247,49.99374],[-96.84242,50.03337],[-96.85372,50.03335],[-96.85371,50.03723],[-96.86503,50.03729]]]}},{"type":"Feature","properties":{"name":"R05"},"geometry":{"type":"Polygon","coordinates":[[[-96.98076,49.66486],[-96.98108,49.79747],[-96.3694,49.79629],[-96.3694,49.70742],[-96.7759,49.70742],[-96.77576,49.67865],[-96.80896,49.67889],[-96.8089,49.66216],[-96.82882,49.66218],[-96.82875,49.66424],[-96.98076,49.66486]]]}},{"type":"Feature","properties":{"name":"R06"},"geometry":{"type":"Polygon","coordinates":[[[-96.7759,49.70742],[-96.77576,49.67865],[-96.71013,49.67806],[-96.68983,49.67409],[-96.65739,49.66184],[-96.6485,49.66186],[-96.63947,49.65741],[-96.63814,49.65549],[-96.62964,49.65358],[-96.62802,49.65367],[-96.62796,49.65484],[-96.62736,49.65505],[-96.62587,49.6549],[-96.62492,49.65602],[-96.62394,49.65948],[-96.62191,49.65942],[-96.62038,49.65866],[-96.62243,49.65598],[-96.62173,49.6552],[-96.61976,49.65383],[-96.61703,49.65302],[-96.61412,49.65335],[-96.61537,49.65244],[-96.61901,49.65193],[-96.61938,49.65142],[-96.61356,49.65103],[-96.61067,49.64887],[-96.61055,49.64957],[-96.60837,49.64931],[-96.60754,49.65011],[-96.60517,49.64958],[-96.60648,49.64804],[-96.60472,49.64683],[-96.6052,49.64641],[-96.60669,49.64717],[-96.60913,49.64665],[-96.60988,49.64592],[-96.60933,49.64445],[-96.60872,49.64482],[-96.60886,49.64429],[-96.60716,49.64238],[-96.60569,49.64293],[-96.60581,49.64218],[-96.60398,49.64265],[-96.60437,49.64119],[-96.60394,49.63977],[-96.60248,49.63895],[-96.60025,49.63939],[-96.60193,49.63865],[-96.6016,49.63664],[-96.59862,49.63548],[-96.5994,49.63518],[-96.59779,49.6351],[-96.59957,49.63454],[-96.59917,49.63408],[-96.59822,49.63376],[-96.59762,49.63446],[-96.59681,49.63428],[-96.59995,49.63119],[-96.59969,49.62682],[-96.59137,49.62574],[-96.5918,49.62428],[-96.58841,49.62433],[-96.57171,49.61994],[-96.3694,49.6187],[-96.3694,49.70742],[-96.7759,49.70742]]]}},{"type":"Feature","properties":{"name":"R07"},"geometry":{"type":"Polygon","coordinates":[[[-97.22191,49.53177],[-97.16559,49.51723],[-97.16559,49.52611],[-97.15883,49.52611],[-97.15883,49.53204],[-97.08014,49.53197],[-97.03665,49.53128],[-96.98036,49.53213],[-96.98108,49.79747],[-97.03825,49.79765],[-97.04981,49.79245],[-97.04905,49.78299],[-97.04444,49.78295],[-97.04442,49.77696],[-97.08548,49.76282],[-97.08561,49.75448],[-97.07836,49.7534],[-97.12835,49.73906],[-97.12768,49.74583],[-97.17931,49.72787],[-97.22008,49.71489],[-97.21997,49.70926],[-97.20897,49.70908],[-97.20855,49.69566],[-97.16279,49.71166],[-97.16267,49.66513],[-97.16832,49.66495],[-97.16831,49.6502],[-97.1627,49.64996],[-97.16266,49.62064],[-97.18482,49.62058],[-97.1848,49.60588],[-97.18542,49.6059],[-97.18547,49.59845],[-97.19088,49.5983],[-97.19116,49.59109],[-97.19659,49.59111],[-97.19674,49.58366],[-97.21358,49.58351],[-97.21398,49.57457],[-97.22443,49.57644],[-97.23754,49.57649],[-97.23832,49.56144],[-97.25399,49.56174],[-97.2541,49.54693],[-97.27626,49.5469],[-97.27669,49.53196],[-97.22191,49.53177]]]}},{"type":"Feature","properties":{"name":"R08"},"geometry":{"type":"Polygon","coordinates":[[[-97.86871,49.53228],[-97.27669,49.53196],[-97.27626,49.5469],[-97.2541,49.54693],[-97.25399,49.56174],[-97.23832,49.56144],[-97.23754,49.57649],[-97.22443,49.57644],[-97.21398,49.57457],[-97.21358,49.58351],[-97.19674,49.58366],[-97.19659,49.59111],[-97.19116,49.59109],[-97.19088,49.5983],[-97.18547,49.59845],[-97.18542,49.6059],[-97.1848,49.60588],[-97.18482,49.62058],[-97.16266,49.62064],[-97.1627,49.64996],[-97.16831,49.6502],[-97.16832,49.66495],[-97.16267,49.66513],[-97.16279,49.71166],[-97.20855,49.69566],[-97.20897,49.70908],[-97.21997,49.70926],[-97.22008,49.71489],[-97.17931,49.72787],[-97.17893,49.76271],[-97.17737,49.76491],[-97.17455,49.7672],[-97.17363,49.7688],[-97.17353,49.77149],[-97.18046,49.76944],[-97.18627,49.76869],[-97.2139,49.7685],[-97.21389,49.79727],[-97.21951,49.79767],[-97.2196,49.81506],[-97.25359,49.8146],[-97.25387,49.81255],[-97.25457,49.81239],[-97.27653,49.81259],[-97.27664,49.81074],[-97.29955,49.81082],[-97.29952,49.8096],[-97.32735,49.80981],[-97.32718,49.81106],[-97.40259,49.81165],[-97.40307,49.80755],[-97.41323,49.80749],[-97.41374,49.79814],[-97.86884,49.79792],[-97.86871,49.53228]]]}},{"type":"Feature","properties":{"name":"R10"},"geometry":{"type":"Polygon","coordinates":[[[-97.45907,49.79815],[-97.86884,49.79792],[-97.86877,49.87179],[-97.87236,49.91573],[-97.87242,50.01922],[-97.87587,50.04802],[-97.87124,50.04579],[-97.87124,50.04222],[-97.86927,50.04016],[-97.86555,50.04039],[-97.85902,50.04609],[-97.85742,50.03812],[-97.8548,50.03685],[-97.85132,50.03778],[-97.84845,50.04266],[-97.84787,50.04613],[-97.84574,50.04851],[-97.84175,50.04815],[-97.83993,50.04375],[-97.8396,50.04054],[-97.8365,50.03911],[-97.83255,50.03934],[-97.82799,50.04305],[-97.82665,50.04288],[-97.82623,50.04253],[-97.82945,50.03953],[-97.83719,50.0365],[-97.83745,50.03341],[-97.83431,50.03131],[-97.82473,50.03209],[-97.82264,50.03126],[-97.82437,50.02809],[-97.83076,50.02484],[-97.83154,50.02245],[-97.82649,50.01919],[-97.82113,50.01753],[-97.81712,50.01229],[-97.81411,50.01199],[-97.80984,50.01435],[-97.80924,50.01411],[-97.81093,50.01124],[-97.81364,50.009],[-97.81268,50.00609],[-97.80967,50.00516],[-97.80613,50.00579],[-97.80401,50.00734],[-97.80002,50.01203],[-97.79524,50.01332],[-97.79186,50.0127],[-97.79076,50.01071],[-97.79169,50.00831],[-97.79965,50.00568],[-97.80288,50.00291],[-97.80061,50.00007],[-97.79535,49.99911],[-97.7792,50.00356],[-97.77532,50.00337],[-97.77535,50.00447],[-97.78122,50.00905],[-97.78263,50.01134],[-97.78104,50.01256],[-97.77602,50.01018],[-97.7721,50.00738],[-97.76858,50.00664],[-97.76326,50.00811],[-97.76016,50.01074],[-97.75768,50.01493],[-97.75635,50.01592],[-97.75496,50.01569],[-97.75396,50.01423],[-97.75347,50.01128],[-97.75181,50.01008],[-97.7444,50.00969],[-97.73757,50.00498],[-97.73316,50.00492],[-97.7296,50.00754],[-97.72742,50.01046],[-97.72408,50.00955],[-97.72316,50.00599],[-97.72819,50.00219],[-97.72692,49.99858],[-97.72212,49.99773],[-97.71346,50.00173],[-97.70154,49.99691],[-97.69559,49.99614],[-97.69548,49.99382],[-97.68926,49.98788],[-97.68724,49.98485],[-97.68707,49.98156],[-97.68843,49.97933],[-97.68365,49.97434],[-97.67904,49.97319],[-97.67032,49.97433],[-97.669,49.97277],[-97.6704,49.96904],[-97.66609,49.96631],[-97.66032,49.9657],[-97.65756,49.9673],[-97.65632,49.96713],[-97.65431,49.9659],[-97.65308,49.96381],[-97.65216,49.95704],[-97.64803,49.95303],[-97.64038,49.95145],[-97.63042,49.95359],[-97.62622,49.95237],[-97.6129,49.95302],[-97.61163,49.95201],[-97.61191,49.94957],[-97.61422,49.9487],[-97.6193,49.9486],[-97.61778,49.94436],[-97.61295,49.94433],[-97.60431,49.94786],[-97.6036,49.94762],[-97.60308,49.94552],[-97.60561,49.94278],[-97.60912,49.94159],[-97.60677,49.93794],[-97.60244,49.93742],[-97.59675,49.93978],[-97.59507,49.93904],[-97.5944,49.93611],[-97.59605,49.93489],[-97.60146,49.93426],[-97.60193,49.93261],[-97.59953,49.93069],[-97.58812,49.93139],[-97.57824,49.9196],[-97.5688,49.91863],[-97.56062,49.91906],[-97.55583,49.91255],[-97.55787,49.91126],[-97.55742,49.90809],[-97.55246,49.90549],[-97.54966,49.90573],[-97.5457,49.90765],[-97.54412,49.90762],[-97.54194,49.90633],[-97.54125,49.90439],[-97.54485,49.90224],[-97.55046,49.90029],[-97.55059,49.89861],[-97.54865,49.89759],[-97.54446,49.89754],[-97.53772,49.90032],[-97.53137,49.89999],[-97.52967,49.8992],[-97.5296,49.89758],[-97.53089,49.89667],[-97.53695,49.89569],[-97.5382,49.89329],[-97.53127,49.88946],[-97.52777,49.88948],[-97.52089,49.89357],[-97.51916,49.89329],[-97.51595,49.88515],[-97.51439,49.88434],[-97.51197,49.88431],[-97.50973,49.88515],[-97.51071,49.88387],[-97.51775,49.88333],[-97.51857,49.88168],[-97.51773,49.88071],[-97.51251,49.87914],[-97.51248,49.8747],[-97.50964,49.87341],[-97.50061,49.87473],[-97.49301,49.87384],[-97.49042,49.86972],[-97.49429,49.86344],[-97.49849,49.8621],[-97.49794,49.86018],[-97.49502,49.85856],[-97.48865,49.85921],[-97.48539,49.86316],[-97.48467,49.87204],[-97.48071,49.87385],[-97.47346,49.87123],[-97.47257,49.8645],[-97.46864,49.86367],[-97.46268,49.86457],[-97.46135,49.86366],[-97.46134,49.86224],[-97.46255,49.86154],[-97.47393,49.86258],[-97.47771,49.86136],[-97.47611,49.8574],[-97.47116,49.85699],[-97.45646,49.86059],[-97.45407,49.86333],[-97.45557,49.86556],[-97.45795,49.86684],[-97.45741,49.86805],[-97.45214,49.86883],[-97.45313,49.83573],[-97.45632,49.80378],[-97.45866,49.80381],[-97.45907,49.79815]]]}},{"type":"Feature","properties":{"name":"R11"},"geometry":{"type":"Polygon","coordinates":[[[-97.18391,50.06387],[-97.72514,50.06382],[-97.73508,50.06638],[-97.73509,50.06382],[-97.81968,50.0638],[-97.83222,50.07439],[-97.83901,50.07863],[-97.8742,50.07861],[-97.87587,50.04802],[-97.87124,50.04579],[-97.87124,50.04222],[-97.86927,50.04016],[-97.86555,50.04039],[-97.85902,50.04609],[-97.85742,50.03812],[-97.8548,50.03685],[-97.85132,50.03778],[-97.84845,50.04266],[-97.84787,50.04613],[-97.84574,50.04851],[-97.84175,50.04815],[-97.83993,50.04375],[-97.8396,50.04054],[-97.8365,50.03911],[-97.83255,50.03934],[-97.82799,50.04305],[-97.82665,50.04288],[-97.82623,50.04253],[-97.82945,50.03953],[-97.83719,50.0365],[-97.83745,50.03341],[-97.83431,50.03131],[-97.82473,50.03209],[-97.82264,50.03126],[-97.82437,50.02809],[-97.83076,50.02484],[-97.83154,50.02245],[-97.82649,50.01919],[-97.82113,50.01753],[-97.81712,50.01229],[-97.81411,50.01199],[-97.80984,50.01435],[-97.80924,50.01411],[-97.81093,50.01124],[-97.81364,50.009],[-97.81268,50.00609],[-97.80967,50.00516],[-97.80613,50.00579],[-97.80401,50.00734],[-97.80002,50.01203],[-97.79524,50.01332],[-97.79186,50.0127],[-97.79076,50.01071],[-97.79169,50.00831],[-97.79965,50.00568],[-97.80288,50.00291],[-97.80061,50.00007],[-97.79535,49.99911],[-97.7792,50.00356],[-97.77532,50.00337],[-97.77535,50.00447],[-97.78122,50.00905],[-97.78263,50.01134],[-97.78104,50.01256],[-97.77602,50.01018],[-97.7721,50.00738],[-97.76858,50.00664],[-97.76326,50.00811],[-97.76016,50.01074],[-97.75768,50.01493],[-97.75635,50.01592],[-97.75496,50.01569],[-97.75396,50.01423],[-97.75347,50.01128],[-97.75181,50.01008],[-97.7444,50.00969],[-97.73757,50.00498],[-97.73316,50.00492],[-97.7296,50.00754],[-97.72742,50.01046],[-97.72408,50.00955],[-97.72316,50.00599],[-97.72819,50.00219],[-97.72692,49.99858],[-97.72212,49.99773],[-97.71346,50.00173],[-97.70154,49.99691],[-97.69559,49.99614],[-97.69548,49.99382],[-97.68926,49.98788],[-97.68724,49.98485],[-97.68707,49.98156],[-97.68843,49.97933],[-97.68365,49.97434],[-97.67904,49.97319],[-97.67032,49.97433],[-97.669,49.97277],[-97.6704,49.96904],[-97.66609,49.96631],[-97.66032,49.9657],[-97.65756,49.9673],[-97.65632,49.96713],[-97.65431,49.9659],[-97.65308,49.96381],[-97.65216,49.95704],[-97.64803,49.95303],[-97.64038,49.95145],[-97.63042,49.95359],[-97.62622,49.95237],[-97.6129,49.95302],[-97.61163,49.95201],[-97.61191,49.94957],[-97.61422,49.9487],[-97.6193,49.9486],[-97.61778,49.94436],[-97.61295,49.94433],[-97.60431,49.94786],[-97.6036,49.94762],[-97.60308,49.94552],[-97.60561,49.94278],[-97.60912,49.94159],[-97.60677,49.93794],[-97.60244,49.93742],[-97.59675,49.93978],[-97.59507,49.93904],[-97.5944,49.93611],[-97.59605,49.93489],[-97.60146,49.93426],[-97.60193,49.93261],[-97.59953,49.93069],[-97.58812,49.93139],[-97.57824,49.9196],[-97.5688,49.91863],[-97.56062,49.91906],[-97.55583,49.91255],[-97.55787,49.91126],[-97.55742,49.90809],[-97.55246,49.90549],[-97.54966,49.90573],[-97.5457,49.90765],[-97.54412,49.90762],[-97.54194,49.90633],[-97.54125,49.90439],[-97.54485,49.90224],[-97.55046,49.90029],[-97.55059,49.89861],[-97.54865,49.89759],[-97.54446,49.89754],[-97.53772,49.90032],[-97.53137,49.89999],[-97.52967,49.8992],[-97.5296,49.89758],[-97.53089,49.89667],[-97.53695,49.89569],[-97.5382,49.89329],[-97.53127,49.88946],[-97.52777,49.88948],[-97.52089,49.89357],[-97.51916,49.89329],[-97.51595,49.88515],[-97.51439,49.88434],[-97.51197,49.88431],[-97.50973,49.88515],[-97.51071,49.88387],[-97.51775,49.88333],[-97.51857,49.88168],[-97.51773,49.88071],[-97.51251,49.87914],[-97.51248,49.8747],[-97.50964,49.87341],[-97.50061,49.87473],[-97.49301,49.87384],[-97.49042,49.86972],[-97.49429,49.86344],[-97.49849,49.8621],[-97.49794,49.86018],[-97.49502,49.85856],[-97.48865,49.85921],[-97.48539,49.86316],[-97.48467,49.87204],[-97.48071,49.87385],[-97.47346,49.87123],[-97.47257,49.8645],[-97.46864,49.86367],[-97.46268,49.86457],[-97.46135,49.86366],[-97.46134,49.86224],[-97.46255,49.86154],[-97.47393,49.86258],[-97.47771,49.86136],[-97.47611,49.8574],[-97.47116,49.85699],[-97.45646,49.86059],[-97.45407,49.86333],[-97.45557,49.86556],[-97.45795,49.86684],[-97.45741,49.86805],[-97.45214,49.86883],[-97.4513,49.92292],[-97.4126,49.92344],[-97.41253,49.92569],[-97.39463,49.92601],[-97.38933,49.92735],[-97.29825,49.92859],[-97.29828,49.93127],[-97.26264,49.93122],[-97.26383,49.9163],[-97.22971,49.91649],[-97.22998,49.97572],[-97.18394,49.97534],[-97.18391,50.06387]]]}},{"type":"Feature","properties":{"name":"R12"},"geometry":{"type":"Polygon","coordinates":[[[-97.72514,50.06382],[-97.11508,50.06387],[-97.11721,50.25007],[-97.11339,50.25009],[-97.11271,50.3303],[-97.8755,50.3295],[-97.87586,50.24105],[-97.87293,50.24107],[-97.87273,50.09329],[-97.87292,50.08209],[-97.87421,50.08072],[-97.87873,50.0786],[-97.83901,50.07863],[-97.83222,50.07439],[-97.81968,50.0638],[-97.73509,50.06382],[-97.73508,50.06638],[-97.72514,50.06382]]]}},{"type":"Feature","properties":{"name":"R13"},"geometry":{"type":"Polygon","coordinates":[[[-96.85444,50.15841],[-96.85989,50.1636],[-96.86147,50.16674],[-96.86186,50.16948],[-96.85805,50.17528],[-96.85683,50.17617],[-96.8449,50.18171],[-96.84336,50.18451],[-96.84441,50.18949],[-96.8442,50.19213],[-96.84241,50.19413],[-96.83273,50.20148],[-96.83239,50.20333],[-96.83758,50.21399],[-96.8331,50.22257],[-96.83508,50.23098],[-96.83518,50.23957],[-96.84801,50.25831],[-96.84977,50.27551],[-96.853,50.27998],[-96.86163,50.2862],[-96.86653,50.29301],[-96.86533,50.29504],[-96.86127,50.29803],[-96.8535,50.30006],[-96.84538,50.30123],[-96.83653,50.30948],[-96.826,50.32954],[-97.11272,50.32978],[-97.11339,50.25009],[-97.11721,50.25007],[-97.11508,50.06387],[-97.09999,50.06392],[-97.03312,50.03035],[-97.03051,50.03276],[-97.02351,50.03432],[-97.02146,50.03445],[-97.01465,50.03299],[-97.00765,50.0337],[-97.00498,50.03533],[-97.00251,50.03833],[-97.00114,50.03911],[-96.99192,50.03955],[-96.98773,50.04165],[-96.98985,50.04928],[-96.98935,50.05237],[-96.98564,50.05777],[-96.97866,50.06499],[-96.97482,50.06608],[-96.96436,50.06509],[-96.96058,50.06606],[-96.9529,50.0698],[-96.95165,50.07145],[-96.95122,50.07536],[-96.95002,50.07661],[-96.94085,50.08049],[-96.94124,50.08573],[-96.93848,50.08952],[-96.94101,50.09601],[-96.94039,50.09873],[-96.93834,50.10244],[-96.9341,50.10601],[-96.93115,50.11088],[-96.92476,50.11486],[-96.92143,50.116],[-96.90625,50.11723],[-96.90477,50.11809],[-96.90233,50.12111],[-96.89975,50.12245],[-96.9109,50.12247],[-96.9418,50.13611],[-96.90514,50.15905],[-96.92282,50.16659],[-96.89615,50.16657],[-96.89529,50.16701],[-96.89209,50.17307],[-96.85444,50.15841]]]}},{"type":"Feature","properties":{"name":"R14"},"geometry":{"type":"Polygon","coordinates":[[[-96.9109,50.12247],[-96.9418,50.13611],[-96.90514,50.15905],[-96.92282,50.16659],[-96.89615,50.16657],[-96.89529,50.16701],[-96.89209,50.17307],[-96.85444,50.15841],[-96.8531,50.15682],[-96.85267,50.1533],[-96.85532,50.14996],[-96.87017,50.1419],[-96.87272,50.1393],[-96.87235,50.13748],[-96.8701,50.13569],[-96.85829,50.1318],[-96.85732,50.12963],[-96.85913,50.12739],[-96.86306,50.12627],[-96.86702,50.12607],[-96.8654,50.12607],[-96.86702,50.12607],[-96.86836,50.12611],[-96.87173,50.12645],[-96.87889,50.12783],[-96.88419,50.12801],[-96.88893,50.12724],[-96.89627,50.12296],[-96.9109,50.12247]]]}},{"type":"Feature","properties":{"name":"R15"},"geometry":{"type":"Polygon","coordinates":[[[-97.16105,49.98994],[-97.15446,49.99016],[-97.15476,49.99465],[-97.14943,49.9951],[-97.12665,49.9839],[-97.09234,49.96863],[-97.07421,49.95966],[-97.0668,49.96626],[-97.05947,49.97887],[-97.05278,49.98311],[-97.04976,49.99103],[-97.04143,49.99336],[-97.03953,49.99562],[-97.04334,50.01932],[-97.03776,50.02202],[-97.03167,50.02956],[-97.09999,50.06392],[-97.18391,50.06387],[-97.18394,49.97534],[-97.16103,49.97536],[-97.16105,49.98994]]]}},{"type":"Feature","properties":{"name":"R16"},"geometry":{"type":"Polygon","coordinates":[[[-96.71242,49.67819],[-96.68983,49.67409],[-96.65739,49.66184],[-96.6485,49.66186],[-96.63947,49.65741],[-96.63814,49.65549],[-96.62964,49.65358],[-96.62802,49.65367],[-96.62796,49.65484],[-96.62736,49.65505],[-96.62587,49.6549],[-96.62492,49.65602],[-96.62394,49.65948],[-96.62191,49.65942],[-96.62038,49.65866],[-96.62243,49.65598],[-96.62173,49.6552],[-96.61976,49.65383],[-96.61703,49.65302],[-96.61412,49.65335],[-96.61537,49.65244],[-96.61901,49.65193],[-96.61938,49.65142],[-96.61356,49.65103],[-96.61067,49.64887],[-96.61055,49.64957],[-96.60837,49.64931],[-96.60754,49.65011],[-96.60517,49.64958],[-96.60648,49.64804],[-96.6047,49.64725],[-96.6052,49.64641],[-96.60669,49.64717],[-96.60913,49.64665],[-96.60988,49.64592],[-96.60933,49.64445],[-96.60872,49.64482],[-96.60886,49.64429],[-96.60716,49.64238],[-96.60569,49.64293],[-96.60581,49.64218],[-96.60398,49.64265],[-96.60437,49.64119],[-96.60394,49.63977],[-96.60248,49.63895],[-96.60025,49.63939],[-96.60193,49.63865],[-96.60206,49.63775],[-96.60072,49.63602],[-96.59862,49.63548],[-96.5994,49.63518],[-96.59779,49.6351],[-96.59957,49.63454],[-96.59917,49.63408],[-96.59822,49.63376],[-96.59762,49.63446],[-96.59681,49.63428],[-96.59995,49.63119],[-96.59969,49.62682],[-96.59137,49.62574],[-96.5918,49.62428],[-96.58841,49.62433],[-96.57171,49.61994],[-96.3694,49.6187],[-96.3694,49.53243],[-96.3749,49.53243],[-96.37467,49.38494],[-96.91657,49.38494],[-96.91657,49.53213],[-96.98036,49.53213],[-96.98076,49.66486],[-96.82875,49.66424],[-96.82882,49.66218],[-96.8089,49.66216],[-96.80896,49.67889],[-96.71242,49.67819]]]}},{"type":"Feature","properties":{"name":"R17"},"geometry":{"type":"Polygon","coordinates":[[[-97.43648,49.5322],[-97.22224,49.5318],[-97.16559,49.51723],[-97.16559,49.52611],[-97.15883,49.52611],[-97.15883,49.53204],[-97.08014,49.53197],[-97.03665,49.53128],[-96.98036,49.53213],[-96.91657,49.53213],[-96.91657,49.38494],[-96.37467,49.38494],[-96.37467,49.39979],[-95.72607,49.39969],[-95.72607,49.53375],[-95.39423,49.53475],[-95.39423,49.6654],[-95.15933,49.6654],[-95.15383,49.53375],[-95.15553,49.00062],[-97.43732,49.00061],[-97.43648,49.5322]]]}},{"type":"Feature","properties":{"name":"R18"},"geometry":{"type":"Polygon","coordinates":[[[-96.3749,49.53243],[-96.3694,49.53243],[-96.3694,49.88491],[-96.36328,49.8849],[-96.36328,49.97305],[-96.36055,50.03199],[-96.36047,50.06127],[-96.07266,50.06164],[-96.0718,50.06213],[-96.07165,50.09258],[-96.0696,50.09512],[-96.06479,50.09827],[-96.0635,50.14003],[-96.05797,50.14019],[-96.039,50.14529],[-95.95838,50.14545],[-95.95838,50.10538],[-95.68539,50.10528],[-95.68604,49.91685],[-95.66336,49.91678],[-95.66321,49.90238],[-95.64049,49.90194],[-95.63986,49.88725],[-95.55428,49.88607],[-95.55311,49.88456],[-95.54266,49.88376],[-95.53873,49.88555],[-95.53673,49.89265],[-95.5271,49.90178],[-95.49907,49.90164],[-95.49897,49.8533],[-95.52303,49.85086],[-95.52163,49.84401],[-95.52877,49.83995],[-95.53467,49.83823],[-95.54142,49.83862],[-95.54457,49.84148],[-95.55552,49.84119],[-95.55554,49.82996],[-95.54484,49.83001],[-95.54394,49.66608],[-95.39423,49.6654],[-95.39423,49.53475],[-95.72607,49.53375],[-95.72607,49.39969],[-96.37467,49.39979],[-96.3749,49.53243]]]}},{"type":"Feature","properties":{"name":"R19"},"geometry":{"type":"Polygon","coordinates":[[[-99.97712,53.01702],[-99.95994,52.65617],[-100.03673,52.3165],[-99.90863,52.08081],[-99.88074,51.71539],[-99.64489,51.65433],[-99.46458,51.65208],[-99.39975,51.69396],[-99.31002,51.69153],[-99.24934,51.58351],[-99.07732,51.56811],[-98.96284,51.3154],[-98.84804,51.30449],[-98.75678,51.27115],[-98.75518,51.16106],[-98.7683,51.09971],[-98.81274,51.05943],[-98.8147,50.98735],[-98.79469,50.88738],[-98.69321,50.80188],[-98.38122,50.41125],[-98.53736,50.24073],[-98.40952,50.18658],[-98.36676,50.18744],[-98.34712,50.16594],[-98.26292,50.15474],[-98.12806,50.19612],[-98.08041,50.26982],[-98.03851,50.2773],[-98.0072,50.1233],[-98.00678,50.05265],[-97.94962,50.06308],[-97.94861,50.0326],[-97.87395,50.0319],[-97.87587,50.04802],[-97.8742,50.07861],[-97.87873,50.0786],[-97.87421,50.08072],[-97.87292,50.08209],[-97.87273,50.09329],[-97.87293,50.24107],[-97.87586,50.24105],[-97.8755,50.3295],[-97.11271,50.3303],[-97.11462,50.59572],[-97.11108,50.59573],[-97.11146,50.77274],[-97.11038,50.83132],[-97.01858,50.83171],[-97.01874,50.90523],[-96.62498,50.90523],[-96.58231,51.20762],[-96.65368,51.54038],[-96.8287,51.75237],[-97.00089,51.82483],[-97.40138,52.22228],[-97.54953,52.2199],[-98.02043,53.02173],[-99.97712,53.01702]]]}},{"type":"Feature","properties":{"name":"R21"},"geometry":{"type":"Polygon","coordinates":[[[-95.16606,51.45198],[-95.64559,51.45968],[-95.65828,51.4668],[-95.68662,51.45782],[-95.71265,51.41751],[-95.72787,51.41432],[-95.72801,51.40626],[-95.75113,51.39507],[-95.7738,51.38633],[-95.78489,51.38933],[-95.7869,51.39755],[-95.79926,51.4095],[-95.8121,51.40588],[-95.81252,51.40684],[-95.81847,51.4069],[-95.81895,51.40999],[-95.82148,51.41314],[-95.82347,51.41347],[-95.82692,51.41196],[-95.83725,51.41612],[-95.84269,51.41515],[-95.84349,51.41704],[-95.85588,51.425],[-95.85673,51.42999],[-95.86098,51.43223],[-95.86136,51.43718],[-95.86784,51.44027],[-95.87728,51.43787],[-95.88024,51.44027],[-95.89779,51.44106],[-95.89739,51.4338],[-95.89968,51.43135],[-95.90166,51.43248],[-95.90667,51.43003],[-95.9178,51.43188],[-95.91874,51.43485],[-95.92123,51.43556],[-95.92208,51.43704],[-95.92463,51.43722],[-95.92567,51.43993],[-95.93733,51.44239],[-95.9379,51.45021],[-95.93579,51.45101],[-95.93907,51.45561],[-95.9439,51.45568],[-95.94697,51.45908],[-95.92551,51.47312],[-95.92266,51.47801],[-95.91757,51.47868],[-95.9115,51.47599],[-95.88244,51.49562],[-95.87918,51.50382],[-95.86938,51.51312],[-95.86828,51.52925],[-95.89964,51.53572],[-95.90122,51.54566],[-95.91939,51.54703],[-95.9265,51.53746],[-95.93456,51.53996],[-95.9404,51.53836],[-95.94991,51.52539],[-95.9541,51.52804],[-95.96076,51.5272],[-95.96469,51.5293],[-95.98024,51.52126],[-95.98287,51.52723],[-95.9783,51.53786],[-95.98441,51.54303],[-95.98721,51.54311],[-95.99045,51.54038],[-96.01082,51.54214],[-96.01358,51.54053],[-96.01404,51.54192],[-96.02257,51.54248],[-96.02655,51.53914],[-96.02726,51.53644],[-96.03514,51.53337],[-96.03608,51.53688],[-96.04865,51.52999],[-96.053,51.53044],[-96.06222,51.52096],[-96.06172,51.51865],[-96.05626,51.51773],[-96.05578,51.51482],[-96.05711,51.51353],[-96.0457,51.51031],[-96.04158,51.50758],[-96.03918,51.50303],[-96.04346,51.4998],[-96.05344,51.49931],[-96.06978,51.49567],[-96.07225,51.49982],[-96.07836,51.49592],[-96.07719,51.4939],[-96.0785,51.49169],[-96.09172,51.48898],[-96.10025,51.49253],[-96.10337,51.49233],[-96.10513,51.49311],[-96.10617,51.49518],[-96.11194,51.49475],[-96.11017,51.49598],[-96.11307,51.49756],[-96.12908,51.49832],[-96.1325,51.49437],[-96.14369,51.49139],[-96.14479,51.49207],[-96.15072,51.49148],[-96.17483,51.49652],[-96.17685,51.5005],[-96.18165,51.49584],[-96.20224,51.49234],[-96.21463,51.49245],[-96.22888,51.48955],[-96.23246,51.49217],[-96.2304,51.49472],[-96.23351,51.49782],[-96.22339,51.50545],[-96.25535,51.50214],[-96.26163,51.49964],[-96.26739,51.50043],[-96.27145,51.49933],[-96.27307,51.49631],[-96.27653,51.49818],[-96.27891,51.49715],[-96.27869,51.49879],[-96.28357,51.50003],[-96.27704,51.50387],[-96.27477,51.50814],[-96.27046,51.51023],[-96.27112,51.51122],[-96.28245,51.5098],[-96.2838,51.51161],[-96.28527,51.51566],[-96.27822,51.52363],[-96.28914,51.52949],[-96.29036,51.53178],[-96.28759,51.53568],[-96.28456,51.53649],[-96.28347,51.53885],[-96.29144,51.54888],[-96.29567,51.5508],[-96.28847,51.55617],[-96.29062,51.56478],[-96.2889,51.56639],[-96.28969,51.57005],[-96.38094,51.63393],[-96.41994,51.61549],[-96.46183,51.61924],[-96.46305,51.62701],[-96.49768,51.62522],[-96.49991,51.65381],[-96.57923,51.6534],[-96.58125,51.66594],[-96.60141,51.66473],[-96.60383,51.71133],[-96.68558,51.71358],[-96.68749,51.74473],[-96.7195,51.78825],[-96.8136,51.82567],[-96.95044,51.82464],[-97.00089,51.82483],[-97.40138,52.22228],[-97.54953,52.2199],[-98.02043,53.02173],[-94.87339,53.0117],[-95.16174,52.82924],[-95.16917,52.82172],[-95.16606,51.45198]]]}},{"type":"Feature","properties":{"name":"R26"},"geometry":{"type":"Polygon","coordinates":[[[-97.11272,50.32978],[-97.11462,50.59572],[-97.11108,50.59573],[-97.11146,50.77274],[-97.11038,50.83132],[-97.01858,50.83171],[-97.01874,50.90523],[-96.62498,50.90523],[-96.81335,50.39748],[-96.81115,50.39487],[-96.81102,50.39137],[-96.81696,50.38892],[-96.83505,50.37775],[-96.84441,50.36185],[-96.84288,50.35169],[-96.84316,50.34602],[-96.8397,50.34236],[-96.83119,50.3375],[-96.826,50.32954],[-97.11272,50.32978]]]}},{"type":"Feature","properties":{"name":"R27"},"geometry":{"type":"Polygon","coordinates":[[[-96.64997,50.83851],[-96.81335,50.39748],[-96.81115,50.39487],[-96.81102,50.39137],[-96.81696,50.38892],[-96.83505,50.37775],[-96.84441,50.36185],[-96.84288,50.35169],[-96.84316,50.34602],[-96.8397,50.34236],[-96.83119,50.3375],[-96.826,50.32954],[-96.65114,50.32922],[-96.65286,50.30923],[-96.5563,50.30923],[-96.55634,50.32616],[-96.35318,50.32724],[-96.35318,50.59768],[-96.37624,50.59768],[-96.37624,50.65999],[-96.37187,50.66098],[-96.43079,50.71015],[-96.5012,50.80623],[-96.64997,50.83851]]]}},{"type":"Feature","properties":{"name":"R28"},"geometry":{"type":"Polygon","coordinates":[[[-95.64559,51.45968],[-95.65828,51.4668],[-95.68662,51.45782],[-95.71265,51.41751],[-95.72787,51.41432],[-95.72801,51.40626],[-95.75113,51.39507],[-95.7738,51.38633],[-95.78489,51.38933],[-95.7869,51.39755],[-95.79926,51.4095],[-95.8121,51.40588],[-95.81252,51.40684],[-95.81847,51.4069],[-95.81895,51.40999],[-95.82148,51.41314],[-95.82347,51.41347],[-95.82692,51.41196],[-95.83725,51.41612],[-95.84269,51.41515],[-95.84349,51.41704],[-95.85588,51.425],[-95.85673,51.42999],[-95.86098,51.43223],[-95.86136,51.43718],[-95.86784,51.44027],[-95.87728,51.43787],[-95.88024,51.44027],[-95.89779,51.44106],[-95.89739,51.4338],[-95.89968,51.43135],[-95.90166,51.43248],[-95.90667,51.43003],[-95.9178,51.43188],[-95.91874,51.43485],[-95.92123,51.43556],[-95.92208,51.43704],[-95.92463,51.43722],[-95.92567,51.43993],[-95.93733,51.44239],[-95.9379,51.45021],[-95.93579,51.45101],[-95.93907,51.45561],[-95.9439,51.45568],[-95.94697,51.45908],[-95.92551,51.47312],[-95.92266,51.47801],[-95.91757,51.47868],[-95.9115,51.47599],[-95.88244,51.49562],[-95.87918,51.50382],[-95.86938,51.51312],[-95.86828,51.52925],[-95.89964,51.53572],[-95.90122,51.54566],[-95.91939,51.54703],[-95.9265,51.53746],[-95.93456,51.53996],[-95.9404,51.53836],[-95.94991,51.52539],[-95.9541,51.52804],[-95.96076,51.5272],[-95.96469,51.5293],[-95.98024,51.52126],[-95.98287,51.52723],[-95.9783,51.53786],[-95.98441,51.54303],[-95.98721,51.54311],[-95.99045,51.54038],[-96.01082,51.54214],[-96.01358,51.54053],[-96.01404,51.54192],[-96.02257,51.54248],[-96.02655,51.53914],[-96.02726,51.53644],[-96.03514,51.53337],[-96.03608,51.53688],[-96.04865,51.52999],[-96.053,51.53044],[-96.06222,51.52096],[-96.06172,51.51865],[-96.05626,51.51773],[-96.05578,51.51482],[-96.05711,51.51353],[-96.0457,51.51031],[-96.04158,51.50758],[-96.03918,51.50303],[-96.04346,51.4998],[-96.05344,51.49931],[-96.06978,51.49567],[-96.07225,51.49982],[-96.07836,51.49592],[-96.07719,51.4939],[-96.0785,51.49169],[-96.09172,51.48898],[-96.10025,51.49253],[-96.10337,51.49233],[-96.10513,51.49311],[-96.10617,51.49518],[-96.11194,51.49475],[-96.11017,51.49598],[-96.11307,51.49756],[-96.12908,51.49832],[-96.1325,51.49437],[-96.14369,51.49139],[-96.14479,51.49207],[-96.15072,51.49148],[-96.17483,51.49652],[-96.17685,51.5005],[-96.18165,51.49584],[-96.20224,51.49234],[-96.21463,51.49245],[-96.22888,51.48955],[-96.23246,51.49217],[-96.2304,51.49472],[-96.23351,51.49782],[-96.22339,51.50545],[-96.25535,51.50214],[-96.26163,51.49964],[-96.26739,51.50043],[-96.27145,51.49933],[-96.27307,51.49631],[-96.27653,51.49818],[-96.27891,51.49715],[-96.27869,51.49879],[-96.28357,51.50003],[-96.27704,51.50387],[-96.27477,51.50814],[-96.27046,51.51023],[-96.27112,51.51122],[-96.28245,51.5098],[-96.2838,51.51161],[-96.28527,51.51566],[-96.27822,51.52363],[-96.28914,51.52949],[-96.29036,51.53178],[-96.28759,51.53568],[-96.28456,51.53649],[-96.28347,51.53885],[-96.29144,51.54888],[-96.29567,51.5508],[-96.28847,51.55617],[-96.29062,51.56478],[-96.2889,51.56639],[-96.28969,51.57005],[-96.38094,51.63393],[-96.41994,51.61549],[-96.46183,51.61924],[-96.46305,51.62701],[-96.49768,51.62522],[-96.49991,51.65381],[-96.57923,51.6534],[-96.58125,51.66594],[-96.60141,51.66473],[-96.60383,51.71133],[-96.68558,51.71358],[-96.68749,51.74473],[-96.7195,51.78825],[-96.8136,51.82567],[-96.95044,51.82464],[-97.00089,51.82483],[-96.65368,51.54038],[-96.58231,51.20762],[-96.62498,50.90523],[-96.64997,50.83851],[-96.5012,50.80623],[-96.43079,50.71015],[-96.37187,50.66098],[-96.37624,50.65999],[-96.37624,50.59768],[-96.35318,50.59768],[-96.35287,50.2386],[-96.36088,50.2385],[-96.36043,50.15001],[-96.35716,50.13624],[-96.3607,50.12045],[-96.36047,50.06127],[-96.07266,50.06164],[-96.0718,50.06213],[-96.07165,50.09258],[-96.0696,50.09512],[-96.06479,50.09827],[-96.0635,50.14003],[-96.05797,50.14019],[-96.039,50.14529],[-95.95503,50.14564],[-95.87299,50.15682],[-95.86658,50.16052],[-95.85933,50.16229],[-95.85563,50.16424],[-95.84092,50.16411],[-95.82121,50.15308],[-95.82124,50.19261],[-95.64062,50.19349],[-95.63992,50.22176],[-95.60296,50.22208],[-95.60327,50.33795],[-95.5119,50.33794],[-95.49205,50.35799],[-95.4558,50.36464],[-95.43525,50.36619],[-95.4238,50.37116],[-95.41681,50.37181],[-95.4145,50.3733],[-95.41205,50.37275],[-95.37471,50.37606],[-95.37074,50.37494],[-95.35592,50.37313],[-95.33921,50.37322],[-95.32165,50.36535],[-95.30266,50.35838],[-95.27773,50.36123],[-95.23906,50.35979],[-95.20974,50.36505],[-95.20731,50.36379],[-95.19715,50.34547],[-95.18229,50.32938],[-95.15933,50.32957],[-95.16606,51.45198],[-95.64559,51.45968]]]}},{"type":"Feature","properties":{"name":"R29"},"geometry":{"type":"Polygon","coordinates":[[[-95.95838,50.14545],[-95.87299,50.15682],[-95.86658,50.16052],[-95.85933,50.16229],[-95.85563,50.16424],[-95.84092,50.16411],[-95.82121,50.15308],[-95.82124,50.19261],[-95.64062,50.19349],[-95.63992,50.22176],[-95.60296,50.22208],[-95.60327,50.33795],[-95.5119,50.33794],[-95.49205,50.35799],[-95.4558,50.36464],[-95.43525,50.36619],[-95.4238,50.37116],[-95.41681,50.37181],[-95.4145,50.3733],[-95.41205,50.37275],[-95.37471,50.37606],[-95.37074,50.37494],[-95.35592,50.37313],[-95.33921,50.37322],[-95.32165,50.36535],[-95.30266,50.35838],[-95.27773,50.36123],[-95.23906,50.35979],[-95.20974,50.36505],[-95.20731,50.36379],[-95.19715,50.34547],[-95.18229,50.32938],[-95.15933,50.32957],[-95.15933,49.6654],[-95.39423,49.6654],[-95.54394,49.66608],[-95.54484,49.83001],[-95.55554,49.82996],[-95.55552,49.84119],[-95.54457,49.84148],[-95.54142,49.83862],[-95.53467,49.83823],[-95.52877,49.83995],[-95.52163,49.84401],[-95.52303,49.85086],[-95.49897,49.8533],[-95.49907,49.90164],[-95.5271,49.90178],[-95.53673,49.89265],[-95.53873,49.88555],[-95.54266,49.88376],[-95.55311,49.88456],[-95.55428,49.88607],[-95.63986,49.88725],[-95.64049,49.90194],[-95.66321,49.90238],[-95.66336,49.91678],[-95.68604,49.91685],[-95.68539,50.10528],[-95.95838,50.10538],[-95.95838,50.14545]]]}},{"type":"Feature","properties":{"name":"R30"},"geometry":{"type":"Polygon","coordinates":[[[-99.83475,50.86112],[-99.83431,50.94855],[-99.87333,50.94878],[-99.87386,50.99696],[-100.03967,50.99642],[-100.03968,51.02219],[-100.14068,51.02226],[-100.14071,50.9947],[-100.18436,50.99469],[-100.18489,50.9818],[-100.25044,50.98132],[-100.25643,50.97781],[-100.25585,50.97679],[-100.25633,50.9749],[-100.25935,50.97082],[-100.26222,50.9692],[-100.26255,50.96839],[-100.26226,50.96449],[-100.26326,50.96183],[-100.26348,50.95887],[-100.25953,50.95081],[-100.26019,50.94928],[-100.30567,50.94975],[-100.30565,50.99538],[-100.35218,50.99532],[-100.35225,51.00463],[-100.50133,51.00532],[-100.50177,51.013],[-100.692,51.01172],[-100.69195,50.98538],[-100.884,50.98553],[-100.88472,50.99596],[-100.95423,50.99546],[-100.95423,51.22875],[-100.85953,51.22868],[-100.85953,51.27293],[-100.95423,51.27293],[-100.95423,51.36208],[-100.2528,51.36202],[-100.25262,51.44921],[-99.87737,51.44889],[-99.87737,51.42033],[-99.73842,51.27293],[-99.55642,51.18493],[-99.52426,51.18475],[-99.52411,51.14046],[-99.5709,51.14046],[-99.57115,50.9488],[-99.55487,50.94871],[-99.55555,50.81642],[-99.62403,50.81569],[-99.62441,50.83784],[-99.63523,50.83766],[-99.63569,50.84509],[-99.67023,50.84511],[-99.67005,50.8527],[-99.68196,50.85267],[-99.68219,50.8606],[-99.83475,50.86112]]]}},{"type":"Feature","properties":{"name":"R31"},"geometry":{"type":"Polygon","coordinates":[[[-100.95423,51.36208],[-100.95423,51.27293],[-100.85953,51.27293],[-100.85953,51.22868],[-100.95423,51.22875],[-100.95423,50.99546],[-100.97651,50.99509],[-100.97641,50.98514],[-101.08933,50.98493],[-101.09004,50.85982],[-101.51037,50.86114],[-101.51142,50.94917],[-101.53762,50.94861],[-101.53979,51.30162],[-101.56939,51.30211],[-101.57033,51.6552],[-101.57778,51.65517],[-101.57794,51.96865],[-101.60769,51.96931],[-101.60824,52.31809],[-101.63767,52.31856],[-101.6379,52.66717],[-101.67077,52.66689],[-101.67193,53.01139],[-101.48335,53.01311],[-101.29798,53.01294],[-100.96467,53.00936],[-99.97712,53.01702],[-99.95994,52.65617],[-100.03673,52.3165],[-99.90863,52.08081],[-99.88074,51.71539],[-99.64489,51.65433],[-99.46458,51.65208],[-99.39975,51.69396],[-99.31002,51.69153],[-99.24934,51.58351],[-99.07732,51.56811],[-98.96284,51.3154],[-98.84804,51.30449],[-98.75678,51.27115],[-98.73058,51.15804],[-98.80742,51.06697],[-98.79553,51.00457],[-98.81592,50.93332],[-98.79469,50.88738],[-98.69321,50.80188],[-99.08979,50.8013],[-99.0896,50.77185],[-99.27744,50.77191],[-99.28057,50.81628],[-99.55555,50.81642],[-99.55487,50.94871],[-99.57115,50.9488],[-99.5709,51.14046],[-99.52411,51.14046],[-99.52426,51.18475],[-99.55642,51.18493],[-99.73842,51.27293],[-99.87737,51.42033],[-99.87737,51.44889],[-100.25262,51.44921],[-100.2528,51.36202],[-100.95423,51.36208]]]}},{"type":"Feature","properties":{"name":"R32"},"geometry":{"type":"Polygon","coordinates":[[[-100.97651,50.99509],[-100.88472,50.99596],[-100.884,50.98553],[-100.69195,50.98538],[-100.692,51.01172],[-100.50177,51.013],[-100.50133,51.00532],[-100.35225,51.00463],[-100.35218,50.99532],[-100.30565,50.99538],[-100.30567,50.94975],[-100.26019,50.94928],[-100.25953,50.95081],[-100.26348,50.95887],[-100.26326,50.96183],[-100.26226,50.96449],[-100.26255,50.96839],[-100.26222,50.9692],[-100.25935,50.97082],[-100.25633,50.9749],[-100.25585,50.97679],[-100.25643,50.97781],[-100.25044,50.98132],[-100.18489,50.9818],[-100.18436,50.99469],[-100.14071,50.9947],[-100.14068,51.02226],[-100.06309,51.02224],[-100.06316,51.021],[-100.06072,51.01723],[-100.06019,51.01275],[-100.06306,51.00892],[-100.06321,51.00147],[-100.06665,50.99615],[-100.06801,50.99048],[-100.06447,50.98379],[-100.06521,50.97852],[-100.06229,50.97329],[-100.05927,50.97059],[-100.05463,50.96929],[-100.05218,50.96687],[-100.05372,50.96036],[-100.0485,50.95743],[-100.03859,50.94359],[-100.04187,50.93665],[-100.04103,50.93222],[-100.0513,50.9258],[-100.05569,50.92044],[-100.0535,50.90877],[-100.05423,50.90004],[-100.0621,50.88308],[-100.05789,50.87328],[-100.04683,50.87227],[-100.03962,50.8648],[-100.02992,50.86007],[-100.02746,50.84404],[-100.01564,50.8364],[-99.9942,50.79932],[-99.99232,50.7844],[-99.99994,50.77742],[-100.00151,50.74588],[-100.00554,50.74284],[-100.00838,50.71112],[-100.25337,50.71245],[-100.2534,50.68523],[-100.2542,50.68293],[-100.36887,50.68295],[-100.36905,50.72657],[-100.53204,50.72713],[-100.53167,50.62418],[-100.25424,50.62331],[-100.25998,50.23709],[-100.23452,50.23841],[-100.23404,50.13636],[-100.4625,50.13702],[-100.46232,50.01936],[-100.47318,50.01958],[-100.4629,49.78377],[-100.4714,49.78287],[-100.48577,49.77313],[-100.50419,49.77101],[-100.60369,49.76903],[-100.62023,49.7727],[-100.63329,49.77476],[-100.65369,49.76924],[-100.70741,49.76929],[-100.76694,49.78274],[-100.78908,49.79201],[-100.83121,49.79955],[-100.92322,49.85794],[-100.96366,49.87102],[-101.12701,49.93862],[-101.16908,49.94601],[-101.1867,49.94696],[-101.21335,49.96096],[-101.24017,49.98416],[-101.25999,49.98682],[-101.3082,50.00921],[-101.32332,50.012],[-101.34697,50.01975],[-101.35899,50.02998],[-101.38129,50.03313],[-101.44542,50.05732],[-101.44606,50.24034],[-101.47743,50.24024],[-101.47609,50.58685],[-101.5116,50.59574],[-101.51037,50.86114],[-101.09004,50.85982],[-101.08933,50.98493],[-100.97641,50.98514],[-100.97651,50.99509]]]}},{"type":"Feature","properties":{"name":"R33"},"geometry":{"type":"Polygon","coordinates":[[[-99.96183,49.70952],[-99.96176,49.53716],[-99.96265,49.5344],[-99.97738,49.51651],[-99.9801,49.51407],[-99.99073,49.50931],[-99.99323,49.50668],[-99.99704,49.49932],[-100.00695,49.49444],[-100.01372,49.48841],[-100.01414,49.27178],[-100.01634,49.26877],[-100.02168,49.26706],[-100.05265,49.26718],[-100.05683,49.26548],[-100.05951,49.26173],[-100.05947,49.1746],[-100.06422,49.16598],[-100.06327,49.08985],[-100.06146,49.08556],[-100.05981,49.04518],[-100.05838,49.04276],[-100.0528,49.03938],[-100.05127,49.0366],[-100.05357,49.02578],[-100.05233,48.99926],[-101.36694,49.00017],[-101.36308,49.1785],[-101.39387,49.17942],[-101.39515,49.53356],[-101.41983,49.53506],[-101.42065,49.88756],[-101.44843,49.88906],[-101.44542,50.05732],[-101.38129,50.03313],[-101.35899,50.02998],[-101.34697,50.01975],[-101.32332,50.012],[-101.3082,50.00921],[-101.25999,49.98682],[-101.24017,49.98416],[-101.21335,49.96096],[-101.1867,49.94696],[-101.16908,49.94601],[-101.12701,49.93862],[-100.96366,49.87102],[-100.92322,49.85794],[-100.83121,49.79955],[-100.78908,49.79201],[-100.76694,49.78274],[-100.70741,49.76929],[-100.65369,49.76924],[-100.63329,49.77476],[-100.62023,49.7727],[-100.60369,49.76903],[-100.50419,49.77101],[-100.48577,49.77313],[-100.4714,49.78287],[-100.4629,49.78377],[-100.4629,49.70952],[-99.96183,49.70952]]]}},{"type":"Feature","properties":{"name":"R34"},"geometry":{"type":"Polygon","coordinates":[[[-98.93771,49.00003],[-98.94062,49.00284],[-98.9421,49.14904],[-98.90047,49.19305],[-98.88984,49.20031],[-98.8845,49.20952],[-98.86522,49.22104],[-98.86165,49.22171],[-98.83911,49.22166],[-98.84,49.5273],[-98.84184,49.53039],[-98.84668,49.53219],[-98.86038,49.53227],[-98.86531,49.53344],[-98.86801,49.5361],[-98.87095,49.54403],[-98.87004,49.54895],[-98.87032,49.67495],[-98.87153,49.67737],[-98.8761,49.67947],[-98.88636,49.67966],[-98.89028,49.6803],[-98.89724,49.68463],[-98.89811,49.68675],[-98.89787,49.69495],[-98.90272,49.70212],[-98.90461,49.71883],[-98.90488,49.75736],[-98.91557,49.77573],[-98.91605,49.78318],[-99.1305,49.78318],[-99.13028,49.75733],[-99.20985,49.75713],[-99.21007,49.78318],[-99.59076,49.78318],[-99.59076,49.60621],[-99.73431,49.60602],[-99.73447,49.63551],[-99.82703,49.63563],[-99.82543,49.70986],[-99.96183,49.70952],[-99.96176,49.53716],[-99.96265,49.5344],[-99.97738,49.51651],[-99.9801,49.51407],[-99.99073,49.50931],[-99.99323,49.50668],[-99.99704,49.49932],[-100.00695,49.49444],[-100.01372,49.48841],[-100.01414,49.27178],[-100.01634,49.26877],[-100.02168,49.26706],[-100.05265,49.26718],[-100.05683,49.26548],[-100.05951,49.26173],[-100.05947,49.1746],[-100.06422,49.16598],[-100.06327,49.08985],[-100.06146,49.08556],[-100.05981,49.04518],[-100.05838,49.04276],[-100.0528,49.03938],[-100.05127,49.0366],[-100.05357,49.02578],[-100.05233,48.99926],[-98.93771,49.00003]]]}},{"type":"Feature","properties":{"name":"R35"},"geometry":{"type":"Polygon","coordinates":[[[-97.43648,49.53221],[-97.43732,49.00061],[-98.93771,49.00003],[-98.94062,49.00284],[-98.9421,49.14904],[-98.90047,49.19305],[-98.88984,49.20031],[-98.8845,49.20952],[-98.86522,49.22104],[-98.86165,49.22171],[-98.83911,49.22166],[-98.83979,49.39932],[-98.6359,49.39957],[-98.63078,49.39838],[-98.61285,49.38616],[-98.60789,49.38467],[-98.36757,49.38438],[-98.3629,49.38325],[-98.347,49.37089],[-98.3425,49.36953],[-97.95225,49.36959],[-97.94751,49.36773],[-97.93841,49.35908],[-97.92762,49.35554],[-97.92429,49.35499],[-97.86604,49.35491],[-97.86871,49.53228],[-97.43648,49.53221]]]}},{"type":"Feature","properties":{"name":"R36"},"geometry":{"type":"Polygon","coordinates":[[[-99.27744,50.77191],[-99.27552,50.59478],[-99.26186,50.59475],[-99.24859,50.24075],[-99.2478,50.24073],[-99.2478,49.87161],[-99.21174,49.87161],[-99.21007,49.78318],[-99.59076,49.78318],[-99.59003,49.87637],[-99.5943,49.87678],[-99.59369,49.90151],[-99.47524,49.90166],[-99.47729,50.09193],[-99.47927,50.12265],[-99.63728,50.12242],[-99.63723,50.13899],[-99.88978,50.14038],[-99.88975,50.12213],[-100.03761,50.12143],[-100.03865,50.13393],[-100.04037,50.13598],[-100.04427,50.13735],[-100.23404,50.13636],[-100.23452,50.23841],[-100.25998,50.23709],[-100.25424,50.62331],[-100.53167,50.62418],[-100.53204,50.72713],[-100.36905,50.72657],[-100.36887,50.68295],[-100.2542,50.68293],[-100.2534,50.68523],[-100.25337,50.71245],[-100.00838,50.71112],[-100.00554,50.74284],[-100.00151,50.74588],[-99.99994,50.77742],[-99.99232,50.7844],[-99.9942,50.79932],[-100.01564,50.8364],[-100.02746,50.84404],[-100.02992,50.86007],[-100.03962,50.8648],[-100.04683,50.87227],[-100.05789,50.87328],[-100.0621,50.88308],[-100.05423,50.90004],[-100.0535,50.90877],[-100.05569,50.92044],[-100.0513,50.9258],[-100.04103,50.93222],[-100.04187,50.93665],[-100.03859,50.94359],[-100.0485,50.95743],[-100.05372,50.96036],[-100.05218,50.96687],[-100.05463,50.96929],[-100.05927,50.97059],[-100.06229,50.97329],[-100.06521,50.97852],[-100.06447,50.98379],[-100.06801,50.99048],[-100.06665,50.99615],[-100.06321,51.00147],[-100.06306,51.00892],[-100.06019,51.01275],[-100.06072,51.01723],[-100.06316,51.021],[-100.06309,51.02224],[-100.03968,51.02219],[-100.03967,50.99642],[-99.87386,50.99696],[-99.87333,50.94878],[-99.83431,50.94855],[-99.83475,50.86112],[-99.68219,50.8606],[-99.68196,50.85267],[-99.67005,50.8527],[-99.67023,50.84511],[-99.63569,50.84509],[-99.63523,50.83766],[-99.62441,50.83784],[-99.62403,50.81569],[-99.55555,50.81642],[-99.28057,50.81628],[-99.27744,50.77191]]]}},{"type":"Feature","properties":{"name":"R37"},"geometry":{"type":"Polygon","coordinates":[[[-99.1305,49.78318],[-98.52899,49.78318],[-98.52913,49.88137],[-98.53736,49.88696],[-98.53736,50.24073],[-99.2478,50.24073],[-99.2478,49.87161],[-99.21174,49.87161],[-99.20985,49.75713],[-99.13028,49.75733],[-99.1305,49.78318]]]}},{"type":"Feature","properties":{"name":"R39"},"geometry":{"type":"Polygon","coordinates":[[[-98.6359,49.39957],[-98.63078,49.39838],[-98.61285,49.38616],[-98.60789,49.38467],[-98.36757,49.38438],[-98.3629,49.38325],[-98.347,49.37089],[-98.3425,49.36953],[-97.95225,49.36959],[-97.94751,49.36773],[-97.93841,49.35908],[-97.92762,49.35554],[-97.92429,49.35499],[-97.86604,49.35491],[-97.86894,49.54703],[-97.86891,49.78318],[-98.91605,49.78318],[-98.91557,49.77573],[-98.90488,49.75736],[-98.90461,49.71883],[-98.90272,49.70212],[-98.89787,49.69495],[-98.89811,49.68675],[-98.89724,49.68463],[-98.89028,49.6803],[-98.88636,49.67966],[-98.8761,49.67947],[-98.87153,49.67737],[-98.87032,49.67495],[-98.87004,49.54895],[-98.87095,49.54403],[-98.86801,49.5361],[-98.86531,49.53344],[-98.86038,49.53227],[-98.84668,49.53219],[-98.84184,49.53039],[-98.84,49.5273],[-98.83979,49.39932],[-98.6359,49.39957]]]}},{"type":"Feature","properties":{"name":"R40"},"geometry":{"type":"Polygon","coordinates":[[[-98.53736,50.24073],[-99.24859,50.24075],[-99.26186,50.59475],[-99.27552,50.59478],[-99.27744,50.77191],[-99.0896,50.77185],[-99.08979,50.8013],[-98.69321,50.80188],[-98.38122,50.41125],[-98.53736,50.24073]]]}},{"type":"Feature","properties":{"name":"R41"},"geometry":{"type":"Polygon","coordinates":[[[-101.73763,53.36677],[-101.73509,53.58986],[-101.72468,53.61058],[-101.68743,53.60689],[-101.65592,53.62124],[-101.63773,53.60949],[-101.59456,53.60949],[-101.57351,53.60365],[-101.56417,53.59617],[-101.56172,53.57446],[-101.41182,53.57446],[-101.4151,53.58992],[-101.41353,53.59499],[-101.40158,53.60128],[-101.39228,53.6126],[-101.37549,53.62038],[-101.3603,53.63136],[-101.31631,53.65201],[-101.27071,53.67123],[-101.26033,53.67615],[-101.24997,53.6841],[-101.2173,53.71629],[-101.21269,53.724],[-101.19177,53.72398],[-101.19177,53.79733],[-101.05414,53.79733],[-101.03737,53.878],[-101.0347,53.88201],[-101.03384,53.88564],[-101.03987,53.88791],[-101.05052,53.88804],[-101.13998,53.88502],[-101.14041,53.88766],[-101.13996,53.89684],[-101.15586,53.89532],[-101.15562,53.90129],[-101.37267,53.90129],[-101.355,53.83525],[-101.42067,53.83837],[-101.44261,53.84325],[-101.44836,53.84334],[-101.45144,53.84056],[-101.45854,53.84507],[-101.46585,53.82131],[-101.49984,53.79766],[-101.55814,53.7818],[-101.60652,53.79276],[-101.63901,53.7959],[-101.64752,53.80338],[-101.65922,53.80178],[-101.67278,53.76102],[-101.73208,53.73318],[-101.76837,53.73806],[-101.76642,54.05763],[-101.80734,54.0572],[-101.80679,54.40202],[-101.83636,54.40794],[-101.83729,54.57641],[-101.37222,54.58274],[-101.38021,54.58977],[-101.37571,54.5949],[-101.37508,54.60285],[-101.38736,54.61027],[-101.38998,54.61735],[-101.3937,54.61724],[-101.3939,54.67529],[-101.37564,54.67554],[-101.35461,54.69039],[-101.34925,54.69724],[-101.3291,54.7065],[-101.30894,54.72049],[-101.30208,54.72137],[-101.28179,54.73231],[-101.26911,54.74],[-101.2589,54.74927],[-101.24813,54.74999],[-101.23805,54.76243],[-101.1804,54.8705],[-101.11966,54.92262],[-101.08036,54.98144],[-101.10444,55.02167],[-101.10114,55.05065],[-101.12179,55.09647],[-101.90936,55.10437],[-101.92248,55.45227],[-101.95639,55.45906],[-101.95914,55.79694],[-102.00238,55.79804],[-102.00035,60.0],[-94.81166,60.0001],[-88.97884,56.8533],[-93.67555,53.72028],[-94.87339,53.0117],[-98.02043,53.02173],[-99.97712,53.01702],[-100.96467,53.00936],[-101.29798,53.01294],[-101.48335,53.01311],[-101.67193,53.01139],[-101.70168,53.01287],[-101.7023,53.36438],[-101.73763,53.36677]]]}},{"type":"Feature","properties":{"name":"R43"},"geometry":{"type":"Polygon","coordinates":[[[-101.73509,53.58986],[-101.74286,53.70992],[-101.73117,53.71064],[-101.73208,53.73318],[-101.67278,53.76102],[-101.65922,53.80178],[-101.64752,53.80338],[-101.63901,53.7959],[-101.60652,53.79276],[-101.55814,53.7818],[-101.49984,53.79766],[-101.46585,53.82131],[-101.45854,53.84507],[-101.45099,53.8404],[-101.45144,53.84056],[-101.44836,53.84334],[-101.44261,53.84325],[-101.42067,53.83837],[-101.355,53.83525],[-101.37267,53.90129],[-101.15562,53.90129],[-101.15586,53.89532],[-101.13996,53.89684],[-101.14041,53.88766],[-101.13998,53.88502],[-101.05052,53.88804],[-101.03987,53.88791],[-101.03384,53.88564],[-101.0347,53.88201],[-101.03737,53.878],[-101.05414,53.79733],[-101.19177,53.79733],[-101.19177,53.72398],[-101.21269,53.724],[-101.2173,53.71629],[-101.24997,53.6841],[-101.26033,53.67615],[-101.27071,53.67123],[-101.31631,53.65201],[-101.3603,53.63136],[-101.37549,53.62038],[-101.39228,53.6126],[-101.40158,53.60128],[-101.41353,53.59499],[-101.4151,53.58992],[-101.41182,53.57446],[-101.56172,53.57446],[-101.56417,53.59617],[-101.57351,53.60365],[-101.59456,53.60949],[-101.63773,53.60949],[-101.65592,53.62124],[-101.68743,53.60689],[-101.72468,53.61058],[-101.73509,53.58986]]]}},{"type":"Feature","properties":{"name":"R44"},"geometry":{"type":"Polygon","coordinates":[[[-101.83729,54.57641],[-101.83656,54.7474],[-101.84587,54.75561],[-101.84743,54.76345],[-101.85489,54.76326],[-101.85662,54.76073],[-101.86092,54.76267],[-101.8836,54.76202],[-101.88549,54.78007],[-101.87379,55.0996],[-101.90936,55.10437],[-101.12179,55.09647],[-101.10114,55.05065],[-101.10444,55.02167],[-101.08036,54.98144],[-101.11966,54.92262],[-101.1804,54.8705],[-101.23805,54.76243],[-101.24813,54.74999],[-101.2589,54.74927],[-101.26911,54.74],[-101.28179,54.73231],[-101.30208,54.72137],[-101.30894,54.72049],[-101.3291,54.7065],[-101.34925,54.69724],[-101.35461,54.69039],[-101.37564,54.67554],[-101.3939,54.67529],[-101.3937,54.61724],[-101.38998,54.61735],[-101.38736,54.61027],[-101.37508,54.60285],[-101.37571,54.5949],[-101.38021,54.58977],[-101.37222,54.58274],[-101.83729,54.57641]]]}},{"type":"Feature","properties":{"name":"P01"},"geometry":{"type":"Polygon","coordinates":[[[-98.27339,49.93368],[-98.27339,49.9667],[-98.30441,49.9667],[-98.30441,49.93368],[-98.27339,49.93368]]]}},{"type":"Feature","properties":{"name":"P02"},"geometry":{"type":"Polygon","coordinates":[[[-98.32501,49.96221],[-98.32501,49.97627],[-98.28096,49.97627],[-98.28096,49.9667],[-98.30441,49.9667],[-98.30441,49.96221],[-98.32501,49.96221]]]}},{"type":"Feature","properties":{"name":"P03"},"geometry":{"type":"Polygon","coordinates":[[[-98.27431,49.9754],[-98.27431,49.9667],[-98.28096,49.9667],[-98.28096,49.9754],[-98.27431,49.9754]]]}},{"type":"Feature","properties":{"name":"P04"},"geometry":{"type":"Polygon","coordinates":[[[-98.3208,49.98022],[-98.28706,49.98022],[-98.28706,49.97627],[-98.3208,49.97627],[-98.3208,49.98022]]]}},{"type":"Feature","properties":{"name":"P05"},"geometry":{"type":"Polygon","coordinates":[[[-98.28706,49.99202],[-98.28706,49.98022],[-98.31756,49.98022],[-98.31756,49.99202],[-98.28706,49.99202]]]}},{"type":"Feature","properties":{"name":"P06"},"geometry":{"type":"Polygon","coordinates":[[[-98.27338,49.9698],[-98.27431,49.9698],[-98.27431,49.9754],[-98.28096,49.9754],[-98.28096,49.97627],[-98.28706,49.97627],[-98.28706,49.97992],[-98.27338,49.97992],[-98.27338,49.9698]]]}},{"type":"Feature","properties":{"name":"P07"},"geometry":{"type":"Polygon","coordinates":[[[-98.27338,49.97601],[-98.27338,49.97992],[-98.28706,49.97992],[-98.28706,49.99202],[-98.29306,49.99202],[-98.29306,49.99627],[-98.24742,49.99627],[-98.24742,49.97601],[-98.27338,49.97601]]]}},{"type":"Feature","properties":{"name":"R38"},"geometry":{"type":"Polygon","coordinates":[[[-97.86891,49.78318],[-98.52899,49.78318],[-98.52913,49.88137],[-98.53736,49.88696],[-98.53736,50.24073],[-98.40952,50.18658],[-98.36676,50.18744],[-98.34712,50.16594],[-98.26292,50.15474],[-98.12806,50.19612],[-98.08041,50.26982],[-98.03851,50.2773],[-98.0072,50.1233],[-98.00678,50.05265],[-97.94962,50.06308],[-97.94861,50.0326],[-97.87395,50.0319],[-97.87242,50.01922],[-97.87236,49.91573],[-97.86877,49.87179],[-97.86891,49.78318]],[[-98.27339,49.9667],[-98.27431,49.9667],[-98.27431,49.9698],[-98.27338,49.9698],[-98.27338,49.97601],[-98.24742,49.97601],[-98.24742,49.99627],[-98.29306,49.99627],[-98.29306,49.99202],[-98.31756,49.99202],[-98.31756,49.98022],[-98.3208,49.98022],[-98.3208,49.97627],[-98.32501,49.97627],[-98.32501,49.96221],[-98.30441,49.96221],[-98.30441,49.93368],[-98.27339,49.93368],[-98.27339,49.9667]]]}},{"type":"Feature","properties":{"name":"A01"},"geometry":{"type":"Polygon","coordinates":[[[-99.96112,49.86633],[-99.96112,49.88027],[-99.97617,49.88027],[-99.97617,49.86633],[-99.96112,49.86633]]]}},{"type":"Feature","properties":{"name":"A02"},"geometry":{"type":"Polygon","coordinates":[[[-99.95861,49.84672],[-99.95861,49.85863],[-99.98658,49.85863],[-99.98658,49.84672],[-99.95861,49.84672]]]}},{"type":"Feature","properties":{"name":"A03"},"geometry":{"type":"Polygon","coordinates":[[[-99.9819,49.83912],[-100.01009,49.83912],[-100.01009,49.85256],[-99.98658,49.85256],[-99.98658,49.84672],[-99.9819,49.84672],[-99.9819,49.83912]]]}},{"type":"Feature","properties":{"name":"A04"},"geometry":{"type":"MultiPolygon","coordinates":[[[[-99.9819,49.83955],[-99.9819,49.84672],[-99.97038,49.84672],[-99.97038,49.83955],[-99.9819,49.83955]]],[[[-99.98805,49.85516],[-99.98658,49.85516],[-99.98658,49.85256],[-99.98805,49.85256],[-99.98805,49.85516]]]]}},{"type":"Feature","properties":{"name":"A05"},"geometry":{"type":"Polygon","coordinates":[[[-99.95062,49.83941],[-99.97986,49.83941],[-99.97986,49.83955],[-99.97038,49.83955],[-99.97038,49.84672],[-99.95861,49.84672],[-99.95861,49.85168],[-99.95062,49.85168],[-99.95062,49.83941]]]}},{"type":"Feature","properties":{"name":"B06"},"geometry":{"type":"Polygon","coordinates":[[[-99.9819,49.83912],[-99.9819,49.83955],[-99.95861,49.83941],[-99.95861,49.81741],[-99.99004,49.81741],[-99.99004,49.83912],[-99.9819,49.83912]]]}},{"type":"Feature","properties":{"name":"B07"},"geometry":{"type":"Polygon","coordinates":[[[-99.97774,49.83701],[-99.97874,49.83601],[-99.97974,49.83701],[-99.97874,49.83801],[-99.97774,49.83701]]]}},{"type":"Feature","properties":{"name":"B08"},"geometry":{"type":"Polygon","coordinates":[[[-99.98252,49.81739],[-99.99968,49.81739],[-99.99968,49.8302],[-99.99004,49.8302],[-99.99004,49.81741],[-99.98252,49.81739]]]}},{"type":"Feature","properties":{"name":"B09"},"geometry":{"type":"Polygon","coordinates":[[[-99.99869,49.83912],[-99.99004,49.83912],[-99.99004,49.8302],[-99.99869,49.8302],[-99.99869,49.83912]]]}},{"type":"Feature","properties":{"name":"B10"},"geometry":{"type":"MultiPolygon","coordinates":[[[[-99.99892,49.81739],[-99.97669,49.81741],[-99.97669,49.8157],[-99.99892,49.8157],[-99.99892,49.81739]]],[[[-99.99892,49.83445],[-99.99869,49.8302],[-99.99892,49.8302],[-99.99892,49.83445]]]]}},{"type":"Feature","properties":{"name":"B11"},"geometry":{"type":"Polygon","coordinates":[[[-99.97748,49.83011],[-99.97848,49.82911],[-99.97948,49.83011],[-99.97848,49.83111],[-99.97748,49.83011]]]}},{"type":"Feature","properties":{"name":"B12"},"geometry":{"type":"Polygon","coordinates":[[[-99.96212,49.81215],[-99.97649,49.81215],[-99.97649,49.81741],[-99.96212,49.81741],[-99.96212,49.81215]]]}},{"type":"Feature","properties":{"name":"B13"},"geometry":{"type":"Polygon","coordinates":[[[-99.9834,49.82383],[-99.9844,49.82283],[-99.9854,49.82383],[-99.9844,49.82483],[-99.9834,49.82383]]]}},{"type":"Feature","properties":{"name":"B14"},"geometry":{"type":"MultiPolygon","coordinates":[[[[-99.98545,49.8157],[-99.97669,49.8157],[-99.97649,49.81741],[-99.97649,49.81215],[-99.96212,49.81215],[-99.96212,49.81741],[-99.96088,49.81741],[-99.96088,49.81061],[-99.98545,49.81061],[-99.98545,49.8157]]],[[[-99.98545,49.81741],[-99.98252,49.81739],[-99.98545,49.81739],[-99.98545,49.81741]]]]}},{"type":"Feature","properties":{"name":"C15"},"geometry":{"type":"Polygon","coordinates":[[[-99.96418,49.80922],[-99.96418,49.81061],[-99.96088,49.81061],[-99.96088,49.81741],[-99.95861,49.81741],[-99.95861,49.82611],[-99.93759,49.82611],[-99.93759,49.80922],[-99.96418,49.80922]]]}},{"type":"Feature","properties":{"name":"C16"},"geometry":{"type":"Polygon","coordinates":[[[-99.93705,49.81708],[-99.93759,49.81708],[-99.93759,49.82611],[-99.95861,49.82611],[-99.95861,49.83698],[-99.93705,49.83698],[-99.93705,49.81708]]]}},{"type":"Feature","properties":{"name":"C17"},"geometry":{"type":"Polygon","coordinates":[[[-99.95861,49.83941],[-99.95062,49.83941],[-99.95062,49.84325],[-99.93136,49.84325],[-99.93136,49.8229],[-99.93705,49.8229],[-99.93705,49.83698],[-99.95861,49.83698],[-99.95861,49.83941]]]}},{"type":"Feature","properties":{"name":"C18"},"geometry":{"type":"Polygon","coordinates":[[[-99.92119,49.82478],[-99.93136,49.82478],[-99.93136,49.84325],[-99.94248,49.84325],[-99.94248,49.87148],[-99.92119,49.87148],[-99.92119,49.82478]]]}},{"type":"Feature","properties":{"name":"C19"},"geometry":{"type":"Polygon","coordinates":[[[-99.93102,49.8417],[-99.93202,49.8407],[-99.93302,49.8417],[-99.93202,49.8427],[-99.93102,49.8417]]]}},{"type":"Feature","properties":{"name":"C20"},"geometry":{"type":"Polygon","coordinates":[[[-99.94248,49.84771],[-99.94248,49.84325],[-99.95062,49.84325],[-99.95062,49.84771],[-99.94248,49.84771]]]}},{"type":"Feature","properties":{"name":"D21"},"geometry":{"type":"Polygon","coordinates":[[[-99.94248,49.84771],[-99.95062,49.84771],[-99.95062,49.85111],[-99.94248,49.85111],[-99.94248,49.84771]]]}},{"type":"Feature","properties":{"name":"D22"},"geometry":{"type":"Polygon","coordinates":[[[-99.91369,49.85166],[-99.91369,49.83722],[-99.92119,49.83722],[-99.92119,49.85166],[-99.91369,49.85166]]]}},{"type":"Feature","properties":{"name":"D23"},"geometry":{"type":"MultiPolygon","coordinates":[[[[-99.95861,49.85168],[-99.95861,49.85863],[-99.96461,49.85863],[-99.96461,49.86633],[-99.96112,49.86633],[-99.96112,49.86788],[-99.94248,49.86788],[-99.94248,49.85111],[-99.95861,49.85168]]],[[[-99.94248,49.84771],[-99.95062,49.84765],[-99.95062,49.84771],[-99.94248,49.84771]]]]}},{"type":"Feature","properties":{"name":"D24"},"geometry":{"type":"Polygon","coordinates":[[[-99.95893,49.88177],[-99.93643,49.88177],[-99.93643,49.87148],[-99.94248,49.87148],[-99.94248,49.86788],[-99.95893,49.86788],[-99.95893,49.88177]]]}},{"type":"Feature","properties":{"name":"D25"},"geometry":{"type":"Polygon","coordinates":[[[-99.96112,49.86788],[-99.96112,49.88027],[-99.96407,49.88027],[-99.96407,49.89172],[-99.93736,49.89172],[-99.93736,49.88177],[-99.95893,49.88177],[-99.95893,49.86788],[-99.96112,49.86788]]]}},{"type":"Feature","properties":{"name":"ANW"},"geometry":{"type":"Polygon","coordinates":[[[-100.46562,49.8461],[-100.47318,50.01958],[-100.46232,50.01936],[-100.4625,50.13702],[-100.23404,50.13636],[-100.04427,50.13735],[-100.04037,50.13598],[-100.03865,50.13393],[-100.03761,50.12143],[-99.94767,50.12185],[-99.94767,49.89172],[-99.96407,49.89172],[-99.96407,49.88027],[-99.97617,49.88027],[-99.97617,49.86633],[-99.96461,49.86633],[-99.96461,49.85863],[-99.98658,49.85863],[-99.98658,49.85516],[-99.98805,49.85516],[-99.98805,49.85256],[-100.01009,49.85256],[-100.01009,49.8461],[-100.46562,49.8461]]]}},{"type":"Feature","properties":{"name":"BSW"},"geometry":{"type":"Polygon","coordinates":[[[-99.94767,49.70956],[-100.45742,49.70952],[-100.45742,49.8461],[-100.01009,49.8461],[-100.01009,49.83912],[-99.99869,49.83912],[-99.99892,49.8302],[-99.99968,49.8302],[-99.99968,49.81739],[-99.99892,49.81739],[-99.99892,49.8157],[-99.98545,49.8157],[-99.98545,49.81061],[-99.96418,49.81061],[-99.96418,49.80922],[-99.94767,49.80922],[-99.94767,49.70956]]]}},{"type":"Feature","properties":{"name":"CSE"},"geometry":{"type":"Polygon","coordinates":[[[-99.59409,49.84741],[-99.59409,49.60621],[-99.73431,49.60602],[-99.73447,49.63551],[-99.82703,49.63563],[-99.82543,49.70986],[-99.94767,49.70956],[-99.94767,49.80922],[-99.93759,49.80922],[-99.93705,49.8229],[-99.93136,49.8229],[-99.93136,49.82478],[-99.92119,49.82478],[-99.92119,49.83722],[-99.91369,49.83722],[-99.91369,49.84741],[-99.59409,49.84741]]]}},{"type":"Feature","properties":{"name":"DNE"},"geometry":{"type":"Polygon","coordinates":[[[-99.59369,49.90151],[-99.5943,49.87678],[-99.59003,49.87637],[-99.59026,49.84741],[-99.91369,49.84741],[-99.91369,49.85166],[-99.92119,49.85166],[-99.92119,49.87148],[-99.93643,49.87148],[-99.93643,49.88177],[-99.93736,49.88177],[-99.93736,49.89172],[-99.94767,49.89172],[-99.94767,50.12185],[-99.88975,50.12213],[-99.88978,50.14038],[-99.63723,50.13899],[-99.63728,50.12242],[-99.51008,50.1226],[-99.51008,49.90161],[-99.59369,49.90151]]]}}]}