{"type":"FeatureCollection","features":[{"type":"Feature","properties":{"name":"Agassiz"},"geometry":{"type":"Polygon","coordinates":[[[-97.14272,49.82164],[-97.14123,49.81497],[-97.13692,49.81301],[-97.144,49.81059],[-97.14546,49.81176],[-97.14789,49.81609],[-97.15241,49.81852],[-97.15276,49.81987],[-97.14272,49.82164]]]}},{"type":"Feature","properties":{"name":"Airport"},"geometry":{"type":"Polygon","coordinates":[[[-97.2253,49.91644],[-97.21799,49.91645],[-97.21799,49.91295],[-97.2114,49.91289],[-97.21256,49.90163],[-97.21415,49.90168],[-97.21431,49.89976],[-97.217,49.89985],[-97.21782,49.89106],[-97.2225,49.88996],[-97.22267,49.88812],[-97.25918,49.88957],[-97.25865,49.89555],[-97.25498,49.89541],[-97.25467,49.89887],[-97.26493,49.89908],[-97.26355,49.91657],[-97.22986,49.91658],[-97.22986,49.91983],[-97.2253,49.91644]]]}},{"type":"Feature","properties":{"name":"Alpine Place"},"geometry":{"type":"Polygon","coordinates":[[[-97.09903,49.84884],[-97.10393,49.8553],[-97.09763,49.8578],[-97.09486,49.85782],[-97.09722,49.85753],[-97.096,49.85596],[-97.09773,49.85442],[-97.09751,49.85356],[-97.0964,49.85414],[-97.09551,49.85363],[-97.09908,49.85174],[-97.0985,49.85113],[-97.09692,49.85197],[-97.0957,49.84998],[-97.09903,49.84884]]]}},{"type":"Feature","properties":{"name":"Amber Trails"},"geometry":{"type":"Polygon","coordinates":[[[-97.18357,49.97196],[-97.17583,49.97263],[-97.16102,49.9681],[-97.16102,49.95767],[-97.18852,49.96659],[-97.19068,49.96802],[-97.18357,49.97196]]]}},{"type":"Feature","properties":{"name":"Archwood"},"geometry":{"type":"Polygon","coordinates":[[[-97.10242,49.87413],[-97.10494,49.8756],[-97.10122,49.87632],[-97.1019,49.87773],[-97.10081,49.878],[-97.1023,49.87859],[-97.10473,49.87807],[-97.10422,49.87947],[-97.10566,49.8802],[-97.10299,49.88059],[-97.10499,49.88135],[-97.10488,49.88213],[-97.09879,49.88192],[-97.09121,49.86724],[-97.09936,49.86723],[-97.09965,49.86845],[-97.1011,49.86758],[-97.1016,49.8698],[-97.10313,49.87008],[-97.10276,49.87171],[-97.10067,49.87139],[-97.10093,49.87268],[-97.10287,49.87269],[-97.1033,49.87342],[-97.10451,49.87295],[-97.10408,49.87382],[-97.10242,49.87413]]]}},{"type":"Feature","properties":{"name":"Armstrong Point"},"geometry":{"type":"Polygon","coordinates":[[[-97.15236,49.8756],[-97.15388,49.87394],[-97.15703,49.87403],[-97.1617,49.8782],[-97.15483,49.87908],[-97.15236,49.8756]]]}},{"type":"Feature","properties":{"name":"Assiniboia Downs"},"geometry":{"type":"Polygon","coordinates":[[[-97.32574,49.88525],[-97.32742,49.86892],[-97.32651,49.86867],[-97.33894,49.86561],[-97.33759,49.87928],[-97.34351,49.87857],[-97.34154,49.89843],[-97.32267,49.89884],[-97.32361,49.88939],[-97.32574,49.88525]]]}},{"type":"Feature","properties":{"name":"Assiniboine Park"},"geometry":{"type":"Polygon","coordinates":[[[-97.25191,49.84433],[-97.2492,49.87399],[-97.2458,49.87397],[-97.24386,49.87507],[-97.23127,49.87561],[-97.22307,49.87325],[-97.21958,49.87342],[-97.22021,49.86673],[-97.2383,49.8674],[-97.2392,49.85823],[-97.23045,49.85791],[-97.23169,49.84533],[-97.24544,49.84405],[-97.25191,49.84433]]]}},{"type":"Feature","properties":{"name":"Beaumont"},"geometry":{"type":"Polygon","coordinates":[[[-97.16455,49.83799],[-97.1708,49.84575],[-97.15201,49.85264],[-97.15346,49.84166],[-97.16455,49.83799]]]}},{"type":"Feature","properties":{"name":"Betsworth"},"geometry":{"type":"Polygon","coordinates":[[[-97.31276,49.84702],[-97.31111,49.8628],[-97.29274,49.85944],[-97.2934,49.8582],[-97.2928,49.85809],[-97.29396,49.84619],[-97.31276,49.84702]]]}},{"type":"Feature","properties":{"name":"Birchwood"},"geometry":{"type":"Polygon","coordinates":[[[-97.2658,49.87196],[-97.26639,49.87277],[-97.26976,49.87349],[-97.2712,49.87609],[-97.27405,49.87722],[-97.27507,49.87854],[-97.26078,49.8748],[-97.22976,49.87754],[-97.22995,49.87546],[-97.24386,49.87507],[-97.2458,49.87397],[-97.25257,49.87357],[-97.25967,49.87176],[-97.2658,49.87196]]]}},{"type":"Feature","properties":{"name":"Booth"},"geometry":{"type":"Polygon","coordinates":[[[-97.27906,49.87948],[-97.27774,49.89386],[-97.26167,49.88966],[-97.26293,49.87539],[-97.27906,49.87948]]]}},{"type":"Feature","properties":{"name":"Bridgwater Centre"},"geometry":{"type":"Polygon","coordinates":[[[-97.19402,49.8],[-97.19369,49.78703],[-97.2003,49.79107],[-97.20178,49.79385],[-97.20189,49.79614],[-97.19979,49.799],[-97.19231,49.80315],[-97.19402,49.8]]]}},{"type":"Feature","properties":{"name":"Bridgwater Forest"},"geometry":{"type":"Polygon","coordinates":[[[-97.19033,49.80779],[-97.19101,49.80864],[-97.17698,49.81332],[-97.17376,49.80846],[-97.17365,49.80208],[-97.1778,49.80246],[-97.18376,49.80045],[-97.18752,49.79768],[-97.19394,49.79551],[-97.19381,49.80078],[-97.19098,49.80488],[-97.19033,49.80779]]]}},{"type":"Feature","properties":{"name":"Bridgwater Lakes"},"geometry":{"type":"Polygon","coordinates":[[[-97.19159,49.80937],[-97.19026,49.80674],[-97.19231,49.80315],[-97.19979,49.799],[-97.20154,49.79709],[-97.20178,49.79385],[-97.20675,49.79138],[-97.21403,49.79085],[-97.21408,49.79749],[-97.21968,49.79752],[-97.21967,49.79979],[-97.19159,49.80937]]]}},{"type":"Feature","properties":{"name":"Bridgwater Trails"},"geometry":{"type":"Polygon","coordinates":[[[-97.20178,49.79385],[-97.2003,49.79107],[-97.19369,49.78703],[-97.19227,49.78492],[-97.21397,49.77751],[-97.21403,49.79085],[-97.20751,49.79108],[-97.20178,49.79385]]]}},{"type":"Feature","properties":{"name":"Broadway-Assiniboine"},"geometry":{"type":"Polygon","coordinates":[[[-97.13311,49.88564],[-97.14319,49.88226],[-97.14546,49.88644],[-97.13486,49.88884],[-97.13311,49.88564]]]}},{"type":"Feature","properties":{"name":"Brockville"},"geometry":{"type":"Polygon","coordinates":[[[-97.19912,49.84259],[-97.19672,49.84862],[-97.17887,49.85028],[-97.17931,49.84688],[-97.18437,49.84668],[-97.19166,49.84284],[-97.19912,49.84259]]]}},{"type":"Feature","properties":{"name":"Brooklands"},"geometry":{"type":"Polygon","coordinates":[[[-97.20676,49.91645],[-97.20676,49.92694],[-97.19511,49.92383],[-97.1951,49.91646],[-97.20676,49.91645]]]}},{"type":"Feature","properties":{"name":"Bruce Park"},"geometry":{"type":"Polygon","coordinates":[[[-97.22219,49.87318],[-97.22995,49.87546],[-97.22976,49.87754],[-97.22639,49.87847],[-97.20485,49.87964],[-97.20305,49.87684],[-97.20759,49.87676],[-97.20829,49.87622],[-97.20836,49.87429],[-97.20933,49.87373],[-97.21447,49.87433],[-97.22219,49.87318]]]}},{"type":"Feature","properties":{"name":"Buchanan"},"geometry":{"type":"Polygon","coordinates":[[[-97.32357,49.88967],[-97.32267,49.89884],[-97.31496,49.8992],[-97.31673,49.88159],[-97.32626,49.88045],[-97.32594,49.88463],[-97.32357,49.88967]]]}},{"type":"Feature","properties":{"name":"Buffalo"},"geometry":{"type":"Polygon","coordinates":[[[-97.18038,49.82979],[-97.18088,49.83284],[-97.17969,49.83629],[-97.17931,49.84688],[-97.17383,49.84691],[-97.17247,49.84519],[-97.1708,49.84575],[-97.16455,49.83799],[-97.17615,49.83359],[-97.18038,49.82979]]]}},{"type":"Feature","properties":{"name":"Burrows Central"},"geometry":{"type":"Polygon","coordinates":[[[-97.16676,49.93158],[-97.15103,49.92652],[-97.15647,49.91936],[-97.16951,49.92351],[-97.16891,49.92912],[-97.16676,49.93158]]]}},{"type":"Feature","properties":{"name":"Burrows-Keewatin"},"geometry":{"type":"Polygon","coordinates":[[[-97.18339,49.93146],[-97.18132,49.92689],[-97.19511,49.93139],[-97.19511,49.93855],[-97.19242,49.93849],[-97.18658,49.93653],[-97.18497,49.93223],[-97.18339,49.93146]]]}},{"type":"Feature","properties":{"name":"Canterbury Park"},"geometry":{"type":"Polygon","coordinates":[[[-96.96817,49.88582],[-96.96829,49.89335],[-96.97881,49.89343],[-96.97888,49.8965],[-96.97975,49.89805],[-96.97907,49.90592],[-96.97967,49.90816],[-96.96238,49.90804],[-96.95675,49.89748],[-96.95653,49.88581],[-96.96817,49.88582]]]}},{"type":"Feature","properties":{"name":"Centennial"},"geometry":{"type":"Polygon","coordinates":[[[-97.13851,49.90343],[-97.14196,49.89979],[-97.15565,49.90418],[-97.15256,49.90794],[-97.13851,49.90343]]]}},{"type":"Feature","properties":{"name":"Central Park"},"geometry":{"type":"Polygon","coordinates":[[[-97.14131,49.89571],[-97.15226,49.89326],[-97.15214,49.89812],[-97.14131,49.89571]]]}},{"type":"Feature","properties":{"name":"Central River Heights"},"geometry":{"type":"Polygon","coordinates":[[[-97.17494,49.86301],[-97.17554,49.85604],[-97.19607,49.85681],[-97.19552,49.86374],[-97.17494,49.86301]]]}},{"type":"Feature","properties":{"name":"Central St. Boniface"},"geometry":{"type":"Polygon","coordinates":[[[-97.12681,49.88578],[-97.12568,49.88869],[-97.12731,49.89123],[-97.10967,49.89531],[-97.10952,49.89222],[-97.10619,49.89258],[-97.10425,49.89086],[-97.10404,49.89],[-97.10528,49.8898],[-97.10546,49.88866],[-97.10742,49.88856],[-97.10556,49.88757],[-97.10742,49.88662],[-97.10485,49.88624],[-97.10658,49.8839],[-97.10529,49.88418],[-97.1033,49.88314],[-97.10488,49.88213],[-97.12796,49.88124],[-97.13029,49.88275],[-97.12681,49.88578]]]}},{"type":"Feature","properties":{"name":"Chalmers"},"geometry":{"type":"Polygon","coordinates":[[[-97.10059,49.90598],[-97.10299,49.90308],[-97.1086,49.90269],[-97.10956,49.90418],[-97.12034,49.90827],[-97.11835,49.90965],[-97.11441,49.91481],[-97.11393,49.91667],[-97.10961,49.92163],[-97.08933,49.91489],[-97.10059,49.90598]]]}},{"type":"Feature","properties":{"name":"Chevrier"},"geometry":{"type":"Polygon","coordinates":[[[-97.17698,49.81332],[-97.17919,49.81611],[-97.17966,49.82868],[-97.18038,49.82979],[-97.17734,49.83267],[-97.17356,49.83491],[-97.16455,49.83799],[-97.15844,49.83063],[-97.15552,49.83161],[-97.15668,49.81867],[-97.16201,49.81841],[-97.17698,49.81332]]]}},{"type":"Feature","properties":{"name":"China Town"},"geometry":{"type":"Polygon","coordinates":[[[-97.13851,49.90343],[-97.13585,49.90258],[-97.13793,49.90008],[-97.14046,49.90088],[-97.13851,49.90343]]]}},{"type":"Feature","properties":{"name":"Civic Centre"},"geometry":{"type":"Polygon","coordinates":[[[-97.13117,49.89791],[-97.13584,49.89941],[-97.13644,49.8987],[-97.14132,49.89957],[-97.14046,49.90088],[-97.13793,49.90008],[-97.13585,49.90258],[-97.12878,49.89976],[-97.13117,49.89791]]]}},{"type":"Feature","properties":{"name":"Cloutier Drive"},"geometry":{"type":"Polygon","coordinates":[[[-97.14516,49.77732],[-97.15644,49.77382],[-97.1566,49.77706],[-97.13517,49.78456],[-97.13148,49.78094],[-97.13304,49.77881],[-97.14516,49.77732]]]}},{"type":"Feature","properties":{"name":"Colony"},"geometry":{"type":"Polygon","coordinates":[[[-97.15496,49.89282],[-97.15215,49.89299],[-97.14958,49.8889],[-97.1552,49.88943],[-97.15496,49.89282]]]}},{"type":"Feature","properties":{"name":"Crescent Park"},"geometry":{"type":"Polygon","coordinates":[[[-97.15209,49.82782],[-97.15021,49.83422],[-97.15131,49.83863],[-97.15349,49.84136],[-97.13974,49.84602],[-97.13813,49.84574],[-97.13613,49.84315],[-97.13752,49.84176],[-97.13742,49.84058],[-97.13227,49.83642],[-97.13112,49.83459],[-97.13147,49.83298],[-97.1356,49.83114],[-97.14293,49.83221],[-97.14641,49.83193],[-97.14801,49.83085],[-97.14853,49.82903],[-97.15209,49.82782]]]}},{"type":"Feature","properties":{"name":"Crescentwood"},"geometry":{"type":"Polygon","coordinates":[[[-97.16141,49.86811],[-97.17494,49.86301],[-97.17405,49.87342],[-97.17145,49.8734],[-97.16431,49.87598],[-97.1617,49.8782],[-97.15686,49.87398],[-97.15779,49.87307],[-97.15656,49.87273],[-97.16331,49.8705],[-97.16141,49.86811]]]}},{"type":"Feature","properties":{"name":"Dakota Crossing"},"geometry":{"type":"Polygon","coordinates":[[[-97.0881,49.80147],[-97.09037,49.80435],[-97.09233,49.80893],[-97.09898,49.81728],[-97.09916,49.82075],[-97.10064,49.82279],[-97.0957,49.82346],[-97.08198,49.828],[-97.08221,49.82683],[-97.08057,49.82663],[-97.08254,49.8237],[-97.08009,49.82379],[-97.08152,49.82175],[-97.07773,49.82188],[-97.07707,49.82043],[-97.07846,49.81952],[-97.07703,49.8198],[-97.07755,49.81898],[-97.07629,49.81891],[-97.07699,49.81857],[-97.07663,49.81648],[-97.07535,49.81764],[-97.07539,49.81661],[-97.07454,49.8161],[-97.07341,49.81597],[-97.07356,49.8168],[-97.07288,49.81692],[-97.07144,49.81573],[-97.07116,49.81435],[-97.07236,49.81439],[-97.07251,49.81308],[-97.06817,49.81379],[-97.06941,49.8122],[-97.06798,49.8121],[-97.06891,49.81113],[-97.06757,49.81119],[-97.06598,49.80893],[-97.0881,49.80147]]]}},{"type":"Feature","properties":{"name":"Daniel McIntyre"},"geometry":{"type":"Polygon","coordinates":[[[-97.17422,49.89341],[-97.17327,49.90589],[-97.15816,49.9011],[-97.15874,49.89294],[-97.17422,49.89341]]]}},{"type":"Feature","properties":{"name":"Deer Lodge"},"geometry":{"type":"Polygon","coordinates":[[[-97.23722,49.88868],[-97.22211,49.8881],[-97.22247,49.8843],[-97.22303,49.88432],[-97.22297,49.87907],[-97.23087,49.87723],[-97.24172,49.87647],[-97.24096,49.88502],[-97.23756,49.88488],[-97.23722,49.88868]]]}},{"type":"Feature","properties":{"name":"Dufferin"},"geometry":{"type":"Polygon","coordinates":[[[-97.14325,49.91178],[-97.16986,49.92021],[-97.16976,49.92115],[-97.16667,49.92261],[-97.14169,49.91418],[-97.14325,49.91178]]]}},{"type":"Feature","properties":{"name":"Dufferin Industrial"},"geometry":{"type":"Polygon","coordinates":[[[-97.14325,49.91178],[-97.14504,49.90879],[-97.16074,49.9138],[-97.15853,49.91668],[-97.14325,49.91178]]]}},{"type":"Feature","properties":{"name":"Dufresne"},"geometry":{"type":"Polygon","coordinates":[[[-97.10088,49.88577],[-97.09879,49.88192],[-97.10488,49.88213],[-97.10334,49.88332],[-97.10674,49.88412],[-97.10525,49.88577],[-97.10088,49.88577]]]}},{"type":"Feature","properties":{"name":"Dugald"},"geometry":{"type":"Polygon","coordinates":[[[-97.07117,49.89417],[-97.03414,49.8876],[-97.03372,49.8859],[-97.0722,49.88593],[-97.07117,49.89417]]]}},{"type":"Feature","properties":{"name":"Eaglemere"},"geometry":{"type":"Polygon","coordinates":[[[-97.05908,49.91044],[-97.06288,49.91171],[-97.06011,49.91553],[-97.04722,49.92895],[-97.04654,49.92875],[-97.04775,49.9262],[-97.04808,49.92074],[-97.04892,49.91883],[-97.05271,49.91576],[-97.05656,49.91085],[-97.05908,49.91044]]]}},{"type":"Feature","properties":{"name":"Earl Grey"},"geometry":{"type":"Polygon","coordinates":[[[-97.14579,49.86501],[-97.15664,49.86216],[-97.16141,49.86811],[-97.14202,49.87458],[-97.14081,49.87307],[-97.14579,49.86501]]]}},{"type":"Feature","properties":{"name":"East Elmwood"},"geometry":{"type":"Polygon","coordinates":[[[-97.08079,49.90669],[-97.06936,49.90286],[-97.07223,49.89894],[-97.09614,49.90324],[-97.10136,49.90335],[-97.08079,49.90669]]]}},{"type":"Feature","properties":{"name":"Ebby-Wentworth"},"geometry":{"type":"Polygon","coordinates":[[[-97.14579,49.86501],[-97.15125,49.85539],[-97.15243,49.85418],[-97.15292,49.85518],[-97.15217,49.85664],[-97.15664,49.86216],[-97.14579,49.86501]]]}},{"type":"Feature","properties":{"name":"Edgeland"},"geometry":{"type":"Polygon","coordinates":[[[-97.21239,49.86983],[-97.20548,49.86956],[-97.20599,49.86415],[-97.21015,49.86621],[-97.21564,49.86656],[-97.21239,49.86983]]]}},{"type":"Feature","properties":{"name":"Elm Park"},"geometry":{"type":"Polygon","coordinates":[[[-97.11278,49.86613],[-97.1108,49.86593],[-97.11232,49.85772],[-97.11194,49.85248],[-97.12015,49.84981],[-97.12422,49.85227],[-97.12661,49.85566],[-97.11754,49.85932],[-97.11484,49.86215],[-97.11278,49.86613]]]}},{"type":"Feature","properties":{"name":"Elmhurst"},"geometry":{"type":"Polygon","coordinates":[[[-97.25191,49.84433],[-97.26824,49.84506],[-97.26695,49.85923],[-97.25059,49.85847],[-97.25191,49.84433]]]}},{"type":"Feature","properties":{"name":"Eric Coy"},"geometry":{"type":"Polygon","coordinates":[[[-97.26695,49.85923],[-97.26824,49.84506],[-97.28714,49.84589],[-97.28602,49.85823],[-97.28264,49.85762],[-97.2724,49.85944],[-97.26695,49.85923]]]}},{"type":"Feature","properties":{"name":"Exchange District"},"geometry":{"type":"Polygon","coordinates":[[[-97.13067,49.89514],[-97.13884,49.89647],[-97.1403,49.89538],[-97.14419,49.89663],[-97.14085,49.90145],[-97.14019,49.90124],[-97.14132,49.89957],[-97.13644,49.8987],[-97.13584,49.89941],[-97.13117,49.89791],[-97.13067,49.89514]]]}},{"type":"Feature","properties":{"name":"Fairfield Park"},"geometry":{"type":"Polygon","coordinates":[[[-97.17365,49.80208],[-97.15709,49.80142],[-97.15728,49.79683],[-97.1737,49.79126],[-97.17365,49.80208]]]}},{"type":"Feature","properties":{"name":"Fort Richmond"},"geometry":{"type":"Polygon","coordinates":[[[-97.11787,49.79345],[-97.12117,49.79317],[-97.12554,49.79701],[-97.12925,49.79722],[-97.13119,49.79558],[-97.13612,49.78835],[-97.13638,49.78689],[-97.13517,49.78456],[-97.1566,49.77706],[-97.15728,49.79683],[-97.1297,49.80618],[-97.1299,49.80476],[-97.12873,49.80335],[-97.11834,49.7988],[-97.11641,49.7959],[-97.11787,49.79345]]]}},{"type":"Feature","properties":{"name":"Fraipont"},"geometry":{"type":"Polygon","coordinates":[[[-97.05545,49.82667],[-97.05415,49.82536],[-97.04986,49.82506],[-97.04983,49.81944],[-97.04702,49.81555],[-97.06101,49.81067],[-97.07035,49.82895],[-97.05545,49.82667]]]}},{"type":"Feature","properties":{"name":"Garden City"},"geometry":{"type":"Polygon","coordinates":[[[-97.1273,49.94682],[-97.14513,49.93576],[-97.15909,49.94031],[-97.14761,49.95344],[-97.1273,49.94682]]]}},{"type":"Feature","properties":{"name":"Glendale"},"geometry":{"type":"Polygon","coordinates":[[[-97.32742,49.86892],[-97.32626,49.88045],[-97.31079,49.8823],[-97.31199,49.87025],[-97.31596,49.87219],[-97.31951,49.87265],[-97.32163,49.87215],[-97.32554,49.86897],[-97.32742,49.86892]]]}},{"type":"Feature","properties":{"name":"Glenelm"},"geometry":{"type":"Polygon","coordinates":[[[-97.11806,49.91988],[-97.11275,49.91811],[-97.11787,49.91027],[-97.12034,49.90827],[-97.1259,49.91162],[-97.1269,49.91377],[-97.12679,49.91557],[-97.12402,49.91852],[-97.11806,49.91988]]]}},{"type":"Feature","properties":{"name":"Glenwood"},"geometry":{"type":"Polygon","coordinates":[[[-97.10393,49.8553],[-97.11101,49.86441],[-97.1108,49.86593],[-97.11278,49.86613],[-97.11343,49.86897],[-97.11664,49.87063],[-97.10366,49.87482],[-97.10242,49.87413],[-97.10408,49.87382],[-97.10451,49.87295],[-97.1033,49.87342],[-97.10287,49.87269],[-97.10093,49.87268],[-97.10067,49.87139],[-97.10276,49.87171],[-97.10307,49.86991],[-97.1016,49.8698],[-97.1011,49.86758],[-97.09965,49.86845],[-97.09944,49.86685],[-97.0976,49.86694],[-97.09755,49.86534],[-97.09549,49.86529],[-97.09792,49.86427],[-97.09521,49.86385],[-97.09786,49.86301],[-97.09541,49.86262],[-97.09743,49.86068],[-97.09516,49.85975],[-97.09713,49.85862],[-97.09486,49.85782],[-97.09763,49.8578],[-97.10393,49.8553]]]}},{"type":"Feature","properties":{"name":"Grant Park"},"geometry":{"type":"Polygon","coordinates":[[[-97.15243,49.85418],[-97.15594,49.85243],[-97.17615,49.85054],[-97.17554,49.85604],[-97.15664,49.86216],[-97.15217,49.85664],[-97.15292,49.85518],[-97.15243,49.85418]]]}},{"type":"Feature","properties":{"name":"Grassie"},"geometry":{"type":"Polygon","coordinates":[[[-97.05677,49.91058],[-97.05271,49.91576],[-97.04855,49.91945],[-97.04775,49.9262],[-97.04654,49.92875],[-97.02488,49.92252],[-97.02498,49.91572],[-97.05677,49.91058]]]}},{"type":"Feature","properties":{"name":"Griffin"},"geometry":{"type":"Polygon","coordinates":[[[-96.99206,49.91371],[-96.99552,49.9118],[-97.00689,49.9085],[-97.00676,49.91581],[-96.99084,49.91572],[-96.99206,49.91371]]]}},{"type":"Feature","properties":{"name":"Holden"},"geometry":{"type":"Polygon","coordinates":[[[-97.0722,49.88593],[-97.07222,49.88193],[-97.07526,49.88192],[-97.07527,49.88593],[-97.0722,49.88593]]]}},{"type":"Feature","properties":{"name":"Inkster Gardens"},"geometry":{"type":"Polygon","coordinates":[[[-97.20677,49.94591],[-97.20678,49.96074],[-97.19513,49.96073],[-97.19518,49.94594],[-97.20677,49.94591]]]}},{"type":"Feature","properties":{"name":"Inkster Industrial Park"},"geometry":{"type":"Polygon","coordinates":[[[-97.19518,49.9518],[-97.16378,49.94171],[-97.17232,49.93061],[-97.1835,49.93418],[-97.18405,49.93346],[-97.18339,49.93146],[-97.18419,49.93171],[-97.1867,49.93662],[-97.19242,49.93849],[-97.19511,49.93855],[-97.19518,49.9518]]]}},{"type":"Feature","properties":{"name":"Inkster-Faraday"},"geometry":{"type":"Polygon","coordinates":[[[-97.1441,49.93543],[-97.13656,49.933],[-97.14514,49.92186],[-97.15266,49.92428],[-97.1441,49.93543]]]}},{"type":"Feature","properties":{"name":"Island Lakes"},"geometry":{"type":"Polygon","coordinates":[[[-97.05798,49.8266],[-97.07035,49.82895],[-97.07633,49.84064],[-97.04985,49.84067],[-97.04986,49.82506],[-97.05415,49.82536],[-97.05721,49.82713],[-97.05798,49.8266]]]}},{"type":"Feature","properties":{"name":"J. B. Mitchell"},"geometry":{"type":"Polygon","coordinates":[[[-97.19552,49.86374],[-97.19607,49.85681],[-97.20665,49.85723],[-97.20599,49.86415],[-97.19552,49.86374]]]}},{"type":"Feature","properties":{"name":"Jameswood"},"geometry":{"type":"Polygon","coordinates":[[[-97.26167,49.88966],[-97.23722,49.88868],[-97.23756,49.88488],[-97.26201,49.88582],[-97.26167,49.88966]]]}},{"type":"Feature","properties":{"name":"Jefferson"},"geometry":{"type":"Polygon","coordinates":[[[-97.14513,49.93576],[-97.1273,49.94682],[-97.11341,49.94234],[-97.12104,49.93285],[-97.12336,49.92875],[-97.14513,49.93576]]]}},{"type":"Feature","properties":{"name":"Kensington"},"geometry":{"type":"Polygon","coordinates":[[[-97.20618,49.88365],[-97.20582,49.88752],[-97.20209,49.88738],[-97.20234,49.88432],[-97.20618,49.88365]]]}},{"type":"Feature","properties":{"name":"Kern Park"},"geometry":{"type":"Polygon","coordinates":[[[-97.00264,49.90023],[-96.98897,49.90029],[-96.9889,49.89513],[-97.00257,49.89507],[-97.00264,49.90023]]]}},{"type":"Feature","properties":{"name":"Kil-Cona Park"},"geometry":{"type":"Polygon","coordinates":[[[-97.03251,49.94593],[-97.00788,49.93496],[-96.99728,49.93024],[-97.04459,49.93087],[-97.03251,49.94593]]]}},{"type":"Feature","properties":{"name":"Kildare-Redonda"},"geometry":{"type":"Polygon","coordinates":[[[-96.97988,49.90816],[-96.97909,49.90622],[-96.97975,49.89805],[-96.97888,49.8965],[-96.97881,49.89343],[-96.98888,49.8934],[-96.98897,49.90029],[-97.00264,49.90023],[-97.00251,49.90827],[-96.97988,49.90816]]]}},{"type":"Feature","properties":{"name":"Kildonan Crossing"},"geometry":{"type":"Polygon","coordinates":[[[-97.06288,49.91171],[-97.05908,49.91044],[-97.05656,49.91085],[-97.05906,49.90777],[-97.06323,49.90596],[-97.06895,49.89834],[-97.07223,49.89894],[-97.06288,49.91171]]]}},{"type":"Feature","properties":{"name":"Kildonan Drive"},"geometry":{"type":"Polygon","coordinates":[[[-97.11275,49.91811],[-97.11806,49.91988],[-97.11304,49.92179],[-97.11045,49.92499],[-97.10989,49.92801],[-97.11143,49.93325],[-97.11106,49.93535],[-97.10798,49.93812],[-97.0967,49.94187],[-97.09626,49.94408],[-97.09829,49.94813],[-97.09726,49.95062],[-97.0843,49.94758],[-97.09388,49.93671],[-97.09911,49.93277],[-97.11275,49.91811]]]}},{"type":"Feature","properties":{"name":"Kildonan Park"},"geometry":{"type":"Polygon","coordinates":[[[-97.1008,49.94],[-97.11237,49.94376],[-97.11015,49.94682],[-97.10249,49.95226],[-97.09726,49.95062],[-97.09819,49.94743],[-97.09616,49.94344],[-97.09715,49.94152],[-97.1008,49.94]]]}},{"type":"Feature","properties":{"name":"King Edward"},"geometry":{"type":"Polygon","coordinates":[[[-97.2225,49.88996],[-97.2179,49.89106],[-97.2057,49.8906],[-97.20633,49.88193],[-97.20485,49.87964],[-97.22358,49.87853],[-97.22297,49.87907],[-97.22254,49.88368],[-97.22309,49.8837],[-97.22247,49.8843],[-97.2225,49.88996]]]}},{"type":"Feature","properties":{"name":"Kingston Crescent"},"geometry":{"type":"Polygon","coordinates":[[[-97.12029,49.84612],[-97.13124,49.85228],[-97.1356,49.85237],[-97.14273,49.85011],[-97.14492,49.85067],[-97.14543,49.85176],[-97.14469,49.85301],[-97.14205,49.85416],[-97.12661,49.85566],[-97.12445,49.85247],[-97.11817,49.84805],[-97.11763,49.84703],[-97.12029,49.84612]]]}},{"type":"Feature","properties":{"name":"Kirkfield"},"geometry":{"type":"Polygon","coordinates":[[[-97.29039,49.86371],[-97.28932,49.8726],[-97.29328,49.87242],[-97.29395,49.87343],[-97.29317,49.88173],[-97.27916,49.8795],[-97.27958,49.87579],[-97.27758,49.87569],[-97.27817,49.87156],[-97.28007,49.87151],[-97.2803,49.86949],[-97.27956,49.86929],[-97.28029,49.86728],[-97.27802,49.86202],[-97.27834,49.86076],[-97.28115,49.85913],[-97.28506,49.85962],[-97.28803,49.86291],[-97.29039,49.86371]]]}},{"type":"Feature","properties":{"name":"La Barriere"},"geometry":{"type":"Polygon","coordinates":[[[-97.17934,49.76231],[-97.17926,49.72793],[-97.22009,49.71356],[-97.21965,49.75351],[-97.21404,49.75351],[-97.21398,49.76811],[-97.18549,49.76823],[-97.17373,49.77107],[-97.17448,49.76759],[-97.17837,49.76433],[-97.17934,49.76231]]]}},{"type":"Feature","properties":{"name":"Lavalee"},"geometry":{"type":"Polygon","coordinates":[[[-97.09287,49.83826],[-97.09505,49.84251],[-97.09903,49.84884],[-97.0957,49.84998],[-97.09554,49.84881],[-97.09267,49.84824],[-97.09385,49.84771],[-97.09337,49.84714],[-97.0912,49.84706],[-97.09143,49.84605],[-97.09025,49.8463],[-97.08995,49.84435],[-97.08797,49.84491],[-97.08826,49.84321],[-97.08623,49.84366],[-97.08594,49.84203],[-97.08647,49.84248],[-97.08861,49.84179],[-97.08791,49.84075],[-97.08873,49.83935],[-97.09287,49.83826]]]}},{"type":"Feature","properties":{"name":"Legislature"},"geometry":{"type":"Polygon","coordinates":[[[-97.15306,49.88127],[-97.15207,49.88551],[-97.1507,49.88611],[-97.15106,49.88889],[-97.1484,49.88916],[-97.14792,49.88827],[-97.14662,49.88857],[-97.14319,49.88226],[-97.15306,49.88127]]]}},{"type":"Feature","properties":{"name":"Leila North"},"geometry":{"type":"Polygon","coordinates":[[[-97.16102,49.9681],[-97.1473,49.96373],[-97.14028,49.96163],[-97.14767,49.95338],[-97.16102,49.95767],[-97.16102,49.9681]]]}},{"type":"Feature","properties":{"name":"Leila-McPhillips Triangle"},"geometry":{"type":"Polygon","coordinates":[[[-97.15916,49.94023],[-97.16347,49.9415],[-97.15955,49.94659],[-97.16099,49.94708],[-97.16102,49.95767],[-97.14767,49.95338],[-97.15916,49.94023]]]}},{"type":"Feature","properties":{"name":"Linden Ridge"},"geometry":{"type":"Polygon","coordinates":[[[-97.1836,49.82736],[-97.17991,49.82368],[-97.18554,49.82177],[-97.18469,49.82071],[-97.19242,49.8182],[-97.19628,49.82299],[-97.1836,49.82736]]]}},{"type":"Feature","properties":{"name":"Linden Woods"},"geometry":{"type":"Polygon","coordinates":[[[-97.20114,49.82124],[-97.207,49.82723],[-97.19912,49.84259],[-97.19166,49.84284],[-97.18437,49.84668],[-97.17931,49.84688],[-97.17969,49.83629],[-97.18088,49.83284],[-97.18038,49.82979],[-97.18304,49.82755],[-97.20114,49.82124]]]}},{"type":"Feature","properties":{"name":"Logan-C.P.R."},"geometry":{"type":"Polygon","coordinates":[[[-97.17022,49.91678],[-97.13423,49.90566],[-97.13455,49.9044],[-97.13585,49.90258],[-97.16363,49.91149],[-97.16436,49.91054],[-97.16615,49.91111],[-97.16772,49.90909],[-97.17093,49.91012],[-97.17022,49.91678]]]}},{"type":"Feature","properties":{"name":"Lord Roberts"},"geometry":{"type":"Polygon","coordinates":[[[-97.15193,49.85236],[-97.15243,49.85418],[-97.14081,49.87307],[-97.12969,49.85923],[-97.1406,49.85554],[-97.13982,49.85457],[-97.14461,49.85306],[-97.14665,49.85414],[-97.15193,49.85236]]]}},{"type":"Feature","properties":{"name":"Lord Selkirk Park"},"geometry":{"type":"Polygon","coordinates":[[[-97.14504,49.90879],[-97.14143,49.91451],[-97.13267,49.91169],[-97.13423,49.90566],[-97.14504,49.90879]]]}},{"type":"Feature","properties":{"name":"Luxton"},"geometry":{"type":"Polygon","coordinates":[[[-97.11605,49.92033],[-97.12606,49.92397],[-97.12286,49.92964],[-97.11732,49.92736],[-97.11022,49.92563],[-97.11246,49.92231],[-97.11605,49.92033]]]}},{"type":"Feature","properties":{"name":"Maginot"},"geometry":{"type":"Polygon","coordinates":[[[-97.09445,49.87347],[-97.07155,49.87362],[-97.07132,49.871],[-97.09319,49.87099],[-97.09445,49.87347]]]}},{"type":"Feature","properties":{"name":"Mandalay West"},"geometry":{"type":"Polygon","coordinates":[[[-97.18257,49.94776],[-97.19518,49.9518],[-97.19513,49.96073],[-97.19307,49.96073],[-97.19474,49.96577],[-97.19068,49.96802],[-97.18852,49.96659],[-97.18027,49.96386],[-97.18246,49.96135],[-97.18392,49.95731],[-97.18381,49.95171],[-97.18257,49.94776]]]}},{"type":"Feature","properties":{"name":"Maple Grove Park"},"geometry":{"type":"Polygon","coordinates":[[[-97.11516,49.79388],[-97.11558,49.79204],[-97.13517,49.78456],[-97.13638,49.78689],[-97.13549,49.78944],[-97.12925,49.79722],[-97.12554,49.79701],[-97.12117,49.79317],[-97.11962,49.79299],[-97.11695,49.79419],[-97.11516,49.79388]]]}},{"type":"Feature","properties":{"name":"Margaret Park"},"geometry":{"type":"Polygon","coordinates":[[[-97.1273,49.94682],[-97.11714,49.95311],[-97.10638,49.94963],[-97.11015,49.94682],[-97.11341,49.94234],[-97.1273,49.94682]]]}},{"type":"Feature","properties":{"name":"Marlton"},"geometry":{"type":"Polygon","coordinates":[[[-97.27394,49.86654],[-97.2656,49.86785],[-97.26704,49.86446],[-97.26751,49.85925],[-97.2724,49.85944],[-97.27775,49.85852],[-97.27394,49.86654]]]}},{"type":"Feature","properties":{"name":"Mathers"},"geometry":{"type":"Polygon","coordinates":[[[-97.19672,49.84862],[-97.20756,49.8476],[-97.20665,49.85723],[-97.19607,49.85681],[-97.19672,49.84862]]]}},{"type":"Feature","properties":{"name":"Maybank"},"geometry":{"type":"Polygon","coordinates":[[[-97.15844,49.83063],[-97.16455,49.83799],[-97.15346,49.84166],[-97.15131,49.83863],[-97.15021,49.83422],[-97.15182,49.82923],[-97.15586,49.82787],[-97.15552,49.83161],[-97.15844,49.83063]]]}},{"type":"Feature","properties":{"name":"McLeod Industrial"},"geometry":{"type":"Polygon","coordinates":[[[-97.07101,49.92937],[-97.06299,49.93571],[-97.0521,49.93211],[-97.05936,49.92965],[-97.06198,49.92637],[-97.07101,49.92937]]]}},{"type":"Feature","properties":{"name":"McMillan"},"geometry":{"type":"Polygon","coordinates":[[[-97.15341,49.87257],[-97.15034,49.87567],[-97.15171,49.87738],[-97.14642,49.87915],[-97.14202,49.87458],[-97.16141,49.86811],[-97.16331,49.8705],[-97.15656,49.87273],[-97.15341,49.87257]]]}},{"type":"Feature","properties":{"name":"Meadowood"},"geometry":{"type":"Polygon","coordinates":[[[-97.0814,49.82835],[-97.0957,49.82346],[-97.10064,49.82279],[-97.10889,49.8328],[-97.08873,49.83935],[-97.08946,49.83646],[-97.08703,49.83683],[-97.08605,49.83559],[-97.08771,49.83572],[-97.08824,49.83481],[-97.08536,49.83454],[-97.08789,49.83314],[-97.08402,49.83319],[-97.08549,49.83247],[-97.08402,49.83183],[-97.08609,49.83051],[-97.08452,49.82904],[-97.08333,49.82949],[-97.08362,49.82869],[-97.0814,49.82835]]]}},{"type":"Feature","properties":{"name":"Meadows"},"geometry":{"type":"Polygon","coordinates":[[[-97.03432,49.90654],[-97.03445,49.91419],[-97.02498,49.91592],[-97.00676,49.91581],[-97.00689,49.9085],[-97.03321,49.90085],[-97.03432,49.90654]]]}},{"type":"Feature","properties":{"name":"Melrose"},"geometry":{"type":"Polygon","coordinates":[[[-97.02536,49.89362],[-97.02538,49.89521],[-96.9889,49.89513],[-96.98888,49.8934],[-97.02536,49.89362]]]}},{"type":"Feature","properties":{"name":"Minnetonka"},"geometry":{"type":"Polygon","coordinates":[[[-97.11505,49.83071],[-97.11326,49.82017],[-97.11996,49.81792],[-97.12473,49.81803],[-97.12402,49.81662],[-97.13186,49.81321],[-97.13546,49.81289],[-97.13939,49.8136],[-97.14182,49.81626],[-97.14272,49.82164],[-97.11505,49.83071]]]}},{"type":"Feature","properties":{"name":"Minto"},"geometry":{"type":"Polygon","coordinates":[[[-97.19311,49.89399],[-97.17422,49.89341],[-97.17488,49.88463],[-97.19411,49.88157],[-97.19311,49.89399]]]}},{"type":"Feature","properties":{"name":"Mission Gardens"},"geometry":{"type":"Polygon","coordinates":[[[-97.03372,49.8859],[-97.03414,49.8876],[-97.0636,49.89282],[-97.05343,49.8955],[-97.0429,49.89363],[-97.02536,49.89362],[-97.02588,49.88602],[-97.03372,49.8859]]]}},{"type":"Feature","properties":{"name":"Mission Industrial"},"geometry":{"type":"Polygon","coordinates":[[[-97.10592,49.89229],[-97.10389,49.89274],[-97.10721,49.89921],[-97.09983,49.8993],[-97.07117,49.89417],[-97.0722,49.88593],[-97.07527,49.88593],[-97.07526,49.88192],[-97.09879,49.88192],[-97.10074,49.88577],[-97.10525,49.88577],[-97.10491,49.88631],[-97.10741,49.88655],[-97.10556,49.88757],[-97.10716,49.88798],[-97.10732,49.88868],[-97.10546,49.88866],[-97.10528,49.8898],[-97.10397,49.89018],[-97.10592,49.89229]]]}},{"type":"Feature","properties":{"name":"Montcalm"},"geometry":{"type":"Polygon","coordinates":[[[-97.15709,49.80142],[-97.15824,49.80147],[-97.15668,49.81867],[-97.15276,49.81987],[-97.15241,49.81852],[-97.14789,49.81609],[-97.1448,49.81114],[-97.14189,49.80965],[-97.15588,49.80491],[-97.15709,49.80142]]]}},{"type":"Feature","properties":{"name":"Munroe East"},"geometry":{"type":"Polygon","coordinates":[[[-97.09411,49.91111],[-97.08434,49.91883],[-97.06288,49.91171],[-97.06936,49.90286],[-97.09411,49.91111]]]}},{"type":"Feature","properties":{"name":"Munroe West"},"geometry":{"type":"Polygon","coordinates":[[[-97.10402,49.92758],[-97.08259,49.92043],[-97.0824,49.92037],[-97.08933,49.91489],[-97.10961,49.92163],[-97.10402,49.92758]]]}},{"type":"Feature","properties":{"name":"Murray Industrial Park"},"geometry":{"type":"Polygon","coordinates":[[[-97.25467,49.89887],[-97.25498,49.89541],[-97.25865,49.89555],[-97.25918,49.88957],[-97.27774,49.89386],[-97.27703,49.90164],[-97.26463,49.90246],[-97.26493,49.89908],[-97.25467,49.89887]]]}},{"type":"Feature","properties":{"name":"Mynarski"},"geometry":{"type":"Polygon","coordinates":[[[-97.16378,49.94171],[-97.15916,49.94023],[-97.1669,49.93142],[-97.17075,49.93265],[-97.16378,49.94171]]]}},{"type":"Feature","properties":{"name":"Niakwa Park"},"geometry":{"type":"Polygon","coordinates":[[[-97.0976,49.86694],[-97.09946,49.86701],[-97.09121,49.86724],[-97.08943,49.86619],[-97.08415,49.85589],[-97.09713,49.85862],[-97.09517,49.85968],[-97.09743,49.86068],[-97.0953,49.86238],[-97.09785,49.8631],[-97.09521,49.86385],[-97.09792,49.86427],[-97.09548,49.86516],[-97.09775,49.86551],[-97.0976,49.86694]]]}},{"type":"Feature","properties":{"name":"Niakwa Place"},"geometry":{"type":"Polygon","coordinates":[[[-97.08873,49.83935],[-97.08791,49.84075],[-97.08861,49.84179],[-97.08647,49.84248],[-97.08594,49.84203],[-97.08623,49.84366],[-97.08843,49.84333],[-97.08812,49.84499],[-97.08995,49.84435],[-97.09025,49.8463],[-97.09143,49.84605],[-97.0912,49.84706],[-97.09246,49.84672],[-97.09387,49.84755],[-97.09278,49.84836],[-97.09569,49.84889],[-97.09692,49.85197],[-97.09899,49.85123],[-97.09893,49.85216],[-97.09635,49.85265],[-97.09548,49.85367],[-97.09771,49.85373],[-97.09757,49.85502],[-97.096,49.85596],[-97.09722,49.85753],[-97.09198,49.85772],[-97.08415,49.85589],[-97.07633,49.84064],[-97.08478,49.84055],[-97.08873,49.83935]]]}},{"type":"Feature","properties":{"name":"Norberry"},"geometry":{"type":"Polygon","coordinates":[[[-97.11788,49.84753],[-97.12015,49.84981],[-97.11194,49.85248],[-97.11285,49.84552],[-97.11216,49.8399],[-97.11305,49.83581],[-97.11814,49.84128],[-97.11658,49.84444],[-97.11788,49.84753]]]}},{"type":"Feature","properties":{"name":"Normand Park"},"geometry":{"type":"Polygon","coordinates":[[[-97.1297,49.80618],[-97.12815,49.80744],[-97.11691,49.81099],[-97.11496,49.81006],[-97.1128,49.8108],[-97.11607,49.80257],[-97.11458,49.79652],[-97.11641,49.7959],[-97.11834,49.7988],[-97.12069,49.80026],[-97.12873,49.80335],[-97.1299,49.80476],[-97.1297,49.80618]]]}},{"type":"Feature","properties":{"name":"North Inkster Industrial"},"geometry":{"type":"Polygon","coordinates":[[[-97.22999,49.94584],[-97.22998,49.96078],[-97.20678,49.96074],[-97.20677,49.94591],[-97.22999,49.94584]]]}},{"type":"Feature","properties":{"name":"North Point Douglas"},"geometry":{"type":"Polygon","coordinates":[[[-97.1086,49.90269],[-97.11759,49.90319],[-97.13423,49.90566],[-97.13123,49.91704],[-97.12663,49.91595],[-97.12653,49.91274],[-97.12412,49.91031],[-97.11637,49.9063],[-97.10956,49.90418],[-97.1086,49.90269]]]}},{"type":"Feature","properties":{"name":"North River Heights"},"geometry":{"type":"Polygon","coordinates":[[[-97.1947,49.87419],[-97.17405,49.87342],[-97.17494,49.86301],[-97.19552,49.86374],[-97.1947,49.87419]]]}},{"type":"Feature","properties":{"name":"North St. Boniface"},"geometry":{"type":"Polygon","coordinates":[[[-97.12731,49.89123],[-97.13121,49.89616],[-97.13111,49.89805],[-97.12959,49.89937],[-97.12396,49.9009],[-97.11186,49.9005],[-97.10985,49.90107],[-97.1086,49.90269],[-97.10614,49.90259],[-97.1074,49.89959],[-97.10572,49.89625],[-97.12731,49.89123]]]}},{"type":"Feature","properties":{"name":"North Transcona Yards"},"geometry":{"type":"Polygon","coordinates":[[[-97.04459,49.93087],[-97.02476,49.93061],[-97.02488,49.92252],[-97.04654,49.92875],[-97.04459,49.93087]]]}},{"type":"Feature","properties":{"name":"Norwood East"},"geometry":{"type":"Polygon","coordinates":[[[-97.11712,49.87453],[-97.12509,49.87831],[-97.12796,49.88124],[-97.10488,49.88213],[-97.10499,49.88135],[-97.10299,49.88059],[-97.10566,49.8802],[-97.10422,49.87947],[-97.10473,49.87807],[-97.1023,49.87859],[-97.10081,49.878],[-97.1019,49.87773],[-97.10122,49.87632],[-97.10494,49.8756],[-97.10366,49.87482],[-97.11354,49.87166],[-97.11712,49.87453]]]}},{"type":"Feature","properties":{"name":"Norwood West"},"geometry":{"type":"Polygon","coordinates":[[[-97.13029,49.88275],[-97.12509,49.87831],[-97.11824,49.87532],[-97.11354,49.87166],[-97.11664,49.87063],[-97.12221,49.87107],[-97.13231,49.87005],[-97.13611,49.87112],[-97.13731,49.87293],[-97.13696,49.87586],[-97.13517,49.8785],[-97.13029,49.88275]]]}},{"type":"Feature","properties":{"name":"Oak Point Highway"},"geometry":{"type":"Polygon","coordinates":[[[-97.2256,49.94595],[-97.22559,49.94227],[-97.2241,49.94227],[-97.2241,49.94043],[-97.2252,49.93952],[-97.22336,49.93859],[-97.21821,49.93858],[-97.21821,49.93597],[-97.21321,49.93344],[-97.21247,49.93141],[-97.20676,49.92851],[-97.20676,49.93121],[-97.19511,49.93121],[-97.19511,49.92383],[-97.22986,49.93309],[-97.22999,49.94584],[-97.2256,49.94595]]]}},{"type":"Feature","properties":{"name":"Old Tuxedo"},"geometry":{"type":"Polygon","coordinates":[[[-97.20305,49.87684],[-97.20238,49.87582],[-97.20517,49.87284],[-97.20548,49.86956],[-97.21239,49.86983],[-97.21564,49.86656],[-97.22021,49.86673],[-97.21958,49.87342],[-97.21447,49.87433],[-97.20933,49.87373],[-97.20836,49.87429],[-97.20829,49.87622],[-97.20759,49.87676],[-97.20305,49.87684]]]}},{"type":"Feature","properties":{"name":"Omand's Creek Industrial"},"geometry":{"type":"Polygon","coordinates":[[[-97.20676,49.92694],[-97.20676,49.91645],[-97.2253,49.91644],[-97.22986,49.91983],[-97.22986,49.93309],[-97.20676,49.92694]]]}},{"type":"Feature","properties":{"name":"Pacific Industrial"},"geometry":{"type":"Polygon","coordinates":[[[-97.17144,49.90531],[-97.18372,49.90924],[-97.18373,49.91311],[-97.18152,49.91598],[-97.17069,49.91251],[-97.17144,49.90531]]]}},{"type":"Feature","properties":{"name":"Parc La Salle"},"geometry":{"type":"Polygon","coordinates":[[[-97.16572,49.76873],[-97.16069,49.76959],[-97.15973,49.76881],[-97.15849,49.76924],[-97.15419,49.76329],[-97.15744,49.76036],[-97.1613,49.76144],[-97.1634,49.76328],[-97.16734,49.76482],[-97.16937,49.76716],[-97.16572,49.76873]]]}},{"type":"Feature","properties":{"name":"Parker"},"geometry":{"type":"Polygon","coordinates":[[[-97.17887,49.85028],[-97.15594,49.85243],[-97.15243,49.85418],[-97.15201,49.85264],[-97.17247,49.84519],[-97.17383,49.84691],[-97.17931,49.84688],[-97.17887,49.85028]]]}},{"type":"Feature","properties":{"name":"Peguis"},"geometry":{"type":"Polygon","coordinates":[[[-97.05677,49.91058],[-97.03445,49.91419],[-97.03441,49.90698],[-97.03321,49.90085],[-97.04852,49.89679],[-97.06619,49.90258],[-97.06323,49.90596],[-97.05821,49.90847],[-97.05677,49.91058]]]}},{"type":"Feature","properties":{"name":"Pembina Strip"},"geometry":{"type":"Polygon","coordinates":[[[-97.15668,49.81867],[-97.15586,49.82787],[-97.15182,49.82923],[-97.15209,49.82782],[-97.14853,49.82903],[-97.14778,49.82723],[-97.14272,49.82164],[-97.15668,49.81867]]]}},{"type":"Feature","properties":{"name":"Perrault"},"geometry":{"type":"Polygon","coordinates":[[[-97.15193,49.74059],[-97.14929,49.74185],[-97.15166,49.74455],[-97.15053,49.74609],[-97.14982,49.75055],[-97.15328,49.75204],[-97.15404,49.75447],[-97.15114,49.75814],[-97.15193,49.75887],[-97.15583,49.75873],[-97.15747,49.76024],[-97.15439,49.76325],[-97.15296,49.76372],[-97.14597,49.75509],[-97.1374,49.74244],[-97.16898,49.7315],[-97.16953,49.73208],[-97.16897,49.73303],[-97.15941,49.73619],[-97.15745,49.73885],[-97.15677,49.74125],[-97.15193,49.74059]]]}},{"type":"Feature","properties":{"name":"Point Road"},"geometry":{"type":"Polygon","coordinates":[[[-97.14332,49.85014],[-97.14448,49.84922],[-97.1444,49.84824],[-97.13966,49.84758],[-97.13868,49.84638],[-97.15349,49.84136],[-97.15193,49.85236],[-97.14535,49.85397],[-97.14461,49.85306],[-97.14522,49.85099],[-97.14332,49.85014]]]}},{"type":"Feature","properties":{"name":"Polo Park"},"geometry":{"type":"Polygon","coordinates":[[[-97.19311,49.89399],[-97.19411,49.88157],[-97.20485,49.87964],[-97.20633,49.88193],[-97.20618,49.88365],[-97.20234,49.88432],[-97.20154,49.89425],[-97.19311,49.89399]]]}},{"type":"Feature","properties":{"name":"Portage & Main"},"geometry":{"type":"Polygon","coordinates":[[[-97.13873,49.89301],[-97.1403,49.89538],[-97.13957,49.8964],[-97.13246,49.89511],[-97.13501,49.89318],[-97.13752,49.89376],[-97.13873,49.89301]]]}},{"type":"Feature","properties":{"name":"Portage-Ellice"},"geometry":{"type":"Polygon","coordinates":[[[-97.15087,49.89093],[-97.15226,49.89326],[-97.14131,49.89571],[-97.13982,49.89502],[-97.15087,49.89093]]]}},{"type":"Feature","properties":{"name":"Prairie Pointe"},"geometry":{"type":"Polygon","coordinates":[[[-97.21398,49.76811],[-97.21397,49.77751],[-97.19227,49.78492],[-97.18252,49.76854],[-97.21398,49.76811]]]}},{"type":"Feature","properties":{"name":"Pulberry"},"geometry":{"type":"Polygon","coordinates":[[[-97.13188,49.83592],[-97.1178,49.84075],[-97.11305,49.83581],[-97.11505,49.83071],[-97.14272,49.82164],[-97.14817,49.82787],[-97.14825,49.8304],[-97.14641,49.83193],[-97.14293,49.83221],[-97.1356,49.83114],[-97.13288,49.83187],[-97.13123,49.83342],[-97.13188,49.83592]]]}},{"type":"Feature","properties":{"name":"Radisson"},"geometry":{"type":"Polygon","coordinates":[[[-97.02542,49.89841],[-97.0254,49.90312],[-97.00248,49.90978],[-97.00265,49.90072],[-97.01624,49.9008],[-97.01621,49.89836],[-97.02542,49.89841]]]}},{"type":"Feature","properties":{"name":"Regent"},"geometry":{"type":"Polygon","coordinates":[[[-97.07117,49.89417],[-97.06619,49.90258],[-97.04852,49.89679],[-97.0254,49.90312],[-97.02536,49.89362],[-97.0429,49.89363],[-97.05343,49.8955],[-97.0636,49.89282],[-97.07117,49.89417]]]}},{"type":"Feature","properties":{"name":"Richmond Lakes"},"geometry":{"type":"Polygon","coordinates":[[[-97.16572,49.76873],[-97.16967,49.76706],[-97.17099,49.76739],[-97.17256,49.76549],[-97.1755,49.76572],[-97.17767,49.76498],[-97.17448,49.76759],[-97.17373,49.77107],[-97.16056,49.77568],[-97.16047,49.77254],[-97.15849,49.76924],[-97.15973,49.76881],[-97.16069,49.76959],[-97.16572,49.76873]]]}},{"type":"Feature","properties":{"name":"Richmond West"},"geometry":{"type":"Polygon","coordinates":[[[-97.1566,49.77706],[-97.17373,49.77107],[-97.1737,49.79126],[-97.15728,49.79683],[-97.1566,49.77706]]]}},{"type":"Feature","properties":{"name":"Ridgedale"},"geometry":{"type":"Polygon","coordinates":[[[-97.29098,49.85912],[-97.29056,49.86374],[-97.28803,49.86291],[-97.28506,49.85962],[-97.28034,49.85935],[-97.27797,49.86161],[-97.28029,49.86728],[-97.27922,49.8696],[-97.27282,49.86964],[-97.26691,49.87172],[-97.2635,49.87198],[-97.26531,49.87108],[-97.2656,49.86785],[-97.27394,49.86654],[-97.27775,49.85852],[-97.28264,49.85762],[-97.29098,49.85912]]]}},{"type":"Feature","properties":{"name":"Ridgewood South"},"geometry":{"type":"Polygon","coordinates":[[[-97.24544,49.84405],[-97.28332,49.84049],[-97.32527,49.83913],[-97.3244,49.84753],[-97.24544,49.84405]]]}},{"type":"Feature","properties":{"name":"River East"},"geometry":{"type":"Polygon","coordinates":[[[-97.05822,49.93947],[-97.06311,49.94217],[-97.07057,49.94467],[-97.0774,49.94668],[-97.0843,49.94758],[-97.0667,49.96115],[-97.04372,49.95092],[-97.05822,49.93947]]]}},{"type":"Feature","properties":{"name":"River Park South"},"geometry":{"type":"Polygon","coordinates":[[[-97.11695,49.79419],[-97.11641,49.7959],[-97.11458,49.79652],[-97.11607,49.80257],[-97.1128,49.8108],[-97.11496,49.81006],[-97.11625,49.81058],[-97.11691,49.81099],[-97.11525,49.81281],[-97.11589,49.81474],[-97.11994,49.81675],[-97.12402,49.81662],[-97.12473,49.81803],[-97.11996,49.81792],[-97.11174,49.82068],[-97.10781,49.82033],[-97.10064,49.82279],[-97.09916,49.82075],[-97.09898,49.81728],[-97.09233,49.80893],[-97.09037,49.80435],[-97.0881,49.80147],[-97.11558,49.79204],[-97.11496,49.79385],[-97.11695,49.79419]]]}},{"type":"Feature","properties":{"name":"River West Park"},"geometry":{"type":"Polygon","coordinates":[[[-97.31292,49.87038],[-97.31192,49.86707],[-97.31278,49.8631],[-97.3259,49.86597],[-97.32651,49.86867],[-97.32108,49.87239],[-97.31684,49.87247],[-97.31292,49.87038]]]}},{"type":"Feature","properties":{"name":"Riverbend"},"geometry":{"type":"Polygon","coordinates":[[[-97.10316,49.95182],[-97.11369,49.95524],[-97.09226,49.9685],[-97.08208,49.96395],[-97.10316,49.95182]]]}},{"type":"Feature","properties":{"name":"Rivergrove"},"geometry":{"type":"Polygon","coordinates":[[[-97.09726,49.95062],[-97.10249,49.95226],[-97.08208,49.96395],[-97.07302,49.95989],[-97.08418,49.95163],[-97.08781,49.95085],[-97.09467,49.95145],[-97.09726,49.95062]]]}},{"type":"Feature","properties":{"name":"River-Osborne"},"geometry":{"type":"Polygon","coordinates":[[[-97.14081,49.87307],[-97.14844,49.88175],[-97.1424,49.88243],[-97.1339,49.88553],[-97.12681,49.88578],[-97.13588,49.87764],[-97.13863,49.87672],[-97.14081,49.87307]]]}},{"type":"Feature","properties":{"name":"Riverview"},"geometry":{"type":"Polygon","coordinates":[[[-97.13982,49.85457],[-97.1406,49.85554],[-97.12969,49.85923],[-97.14081,49.87307],[-97.13863,49.87672],[-97.13588,49.87764],[-97.1372,49.87512],[-97.13731,49.87293],[-97.13634,49.87131],[-97.13442,49.8704],[-97.1191,49.87099],[-97.11495,49.87014],[-97.1131,49.86847],[-97.11284,49.86581],[-97.11484,49.86215],[-97.11954,49.85808],[-97.1291,49.85514],[-97.13982,49.85457]]]}},{"type":"Feature","properties":{"name":"Robertson"},"geometry":{"type":"Polygon","coordinates":[[[-97.15916,49.94023],[-97.1441,49.93543],[-97.15103,49.92652],[-97.16676,49.93158],[-97.15916,49.94023]]]}},{"type":"Feature","properties":{"name":"Roblin Park"},"geometry":{"type":"Polygon","coordinates":[[[-97.29396,49.84619],[-97.2928,49.85809],[-97.2934,49.8582],[-97.29274,49.85944],[-97.28602,49.85823],[-97.28714,49.84589],[-97.29396,49.84619]]]}},{"type":"Feature","properties":{"name":"Rockwood"},"geometry":{"type":"Polygon","coordinates":[[[-97.17494,49.86301],[-97.16141,49.86811],[-97.15664,49.86216],[-97.17554,49.85604],[-97.17494,49.86301]]]}},{"type":"Feature","properties":{"name":"Roslyn"},"geometry":{"type":"Polygon","coordinates":[[[-97.15236,49.8756],[-97.15492,49.8792],[-97.15486,49.8803],[-97.15174,49.88163],[-97.14844,49.88175],[-97.14642,49.87915],[-97.15171,49.87738],[-97.15034,49.87567],[-97.15193,49.87332],[-97.15405,49.87244],[-97.15779,49.87307],[-97.15686,49.87398],[-97.15388,49.87394],[-97.15236,49.8756]]]}},{"type":"Feature","properties":{"name":"Rosser-Old Kildonan"},"geometry":{"type":"Polygon","coordinates":[[[-97.13418,49.96784],[-97.14028,49.96163],[-97.17335,49.97206],[-97.17986,49.97274],[-97.18357,49.97196],[-97.19474,49.96577],[-97.19307,49.96073],[-97.22998,49.96078],[-97.23,49.97563],[-97.16123,49.97559],[-97.16123,49.99031],[-97.15519,49.9903],[-97.1552,49.99393],[-97.14916,49.99401],[-97.09226,49.9685],[-97.10858,49.95841],[-97.13149,49.96884],[-97.13418,49.96784]]]}},{"type":"Feature","properties":{"name":"Rossmere-A"},"geometry":{"type":"Polygon","coordinates":[[[-97.07649,49.92504],[-97.08708,49.92856],[-97.08653,49.92926],[-97.09891,49.93293],[-97.09388,49.93671],[-97.0843,49.94758],[-97.0774,49.94668],[-97.07057,49.94467],[-97.06311,49.94217],[-97.05822,49.93947],[-97.07649,49.92504]]]}},{"type":"Feature","properties":{"name":"Rossmere-B"},"geometry":{"type":"Polygon","coordinates":[[[-97.07649,49.92504],[-97.08259,49.92043],[-97.10402,49.92758],[-97.09891,49.93293],[-97.08653,49.92926],[-97.08708,49.92856],[-97.07649,49.92504]]]}},{"type":"Feature","properties":{"name":"Royalwood"},"geometry":{"type":"Polygon","coordinates":[[[-97.08221,49.82683],[-97.08145,49.82842],[-97.08362,49.82869],[-97.08333,49.82949],[-97.08452,49.82904],[-97.08609,49.83051],[-97.08402,49.83183],[-97.08549,49.83247],[-97.08402,49.83319],[-97.08789,49.83314],[-97.08536,49.83454],[-97.08824,49.83481],[-97.08771,49.83572],[-97.08605,49.83559],[-97.08703,49.83683],[-97.08946,49.83646],[-97.08873,49.83935],[-97.08478,49.84055],[-97.07633,49.84064],[-97.06101,49.81067],[-97.06598,49.80893],[-97.06757,49.81119],[-97.06891,49.81113],[-97.06798,49.8121],[-97.06941,49.8122],[-97.06828,49.81386],[-97.07257,49.81312],[-97.07236,49.81439],[-97.0712,49.81426],[-97.07144,49.81573],[-97.07313,49.81705],[-97.07341,49.81597],[-97.07493,49.81628],[-97.07514,49.81765],[-97.07663,49.81648],[-97.07699,49.81857],[-97.07629,49.81891],[-97.07755,49.81898],[-97.07703,49.8198],[-97.07846,49.81952],[-97.07707,49.82043],[-97.0779,49.8211],[-97.07758,49.82174],[-97.08152,49.82175],[-97.08009,49.82379],[-97.08254,49.8237],[-97.08061,49.82645],[-97.08221,49.82683]]]}},{"type":"Feature","properties":{"name":"Sage Creek"},"geometry":{"type":"Polygon","coordinates":[[[-97.02701,49.8409],[-97.02668,49.82293],[-97.02567,49.82243],[-97.04702,49.81555],[-97.04983,49.81944],[-97.04985,49.8409],[-97.02701,49.8409]]]}},{"type":"Feature","properties":{"name":"Sargent Park"},"geometry":{"type":"Polygon","coordinates":[[[-97.17327,49.90589],[-97.17422,49.89341],[-97.19311,49.89399],[-97.19206,49.90241],[-97.1864,49.9101],[-97.17327,49.90589]]]}},{"type":"Feature","properties":{"name":"Saskatchewan North"},"geometry":{"type":"Polygon","coordinates":[[[-97.32267,49.89884],[-97.31981,49.91994],[-97.32119,49.92937],[-97.29849,49.92923],[-97.29851,49.93131],[-97.26231,49.93134],[-97.26473,49.90245],[-97.32267,49.89884]]]}},{"type":"Feature","properties":{"name":"Seven Oaks"},"geometry":{"type":"Polygon","coordinates":[[[-97.11022,49.92563],[-97.11732,49.92736],[-97.12286,49.92964],[-97.11237,49.94376],[-97.1008,49.94],[-97.10729,49.93841],[-97.11078,49.93591],[-97.11143,49.93325],[-97.10996,49.92852],[-97.11022,49.92563]]]}},{"type":"Feature","properties":{"name":"Shaughnessy Park"},"geometry":{"type":"Polygon","coordinates":[[[-97.18132,49.92689],[-97.18405,49.93346],[-97.1835,49.93418],[-97.17232,49.93061],[-97.17075,49.93265],[-97.1669,49.93142],[-97.16891,49.92912],[-97.16955,49.92312],[-97.18132,49.92689]]]}},{"type":"Feature","properties":{"name":"Silver Heights"},"geometry":{"type":"Polygon","coordinates":[[[-97.24172,49.87647],[-97.26078,49.8748],[-97.26293,49.87539],[-97.26201,49.88582],[-97.24096,49.88502],[-97.24172,49.87647]]]}},{"type":"Feature","properties":{"name":"Sir John Franklin"},"geometry":{"type":"Polygon","coordinates":[[[-97.19436,49.87836],[-97.19552,49.86374],[-97.20599,49.86415],[-97.20517,49.87284],[-97.20238,49.87582],[-97.20305,49.87684],[-97.19436,49.87836]]]}},{"type":"Feature","properties":{"name":"South Point Douglas"},"geometry":{"type":"Polygon","coordinates":[[[-97.12878,49.89976],[-97.13585,49.90258],[-97.13423,49.90566],[-97.11759,49.90319],[-97.1086,49.90269],[-97.10985,49.90107],[-97.11186,49.9005],[-97.12396,49.9009],[-97.12878,49.89976]]]}},{"type":"Feature","properties":{"name":"South Pointe"},"geometry":{"type":"Polygon","coordinates":[[[-97.18252,49.76854],[-97.19227,49.78492],[-97.1737,49.79126],[-97.17373,49.77107],[-97.18252,49.76854]]]}},{"type":"Feature","properties":{"name":"South Portage"},"geometry":{"type":"Polygon","coordinates":[[[-97.15087,49.89093],[-97.13982,49.89502],[-97.13873,49.89301],[-97.13694,49.89379],[-97.13483,49.89312],[-97.13386,49.89082],[-97.13569,49.8904],[-97.13486,49.88884],[-97.14546,49.88644],[-97.14662,49.88857],[-97.14958,49.8889],[-97.15087,49.89093]]]}},{"type":"Feature","properties":{"name":"South River Heights"},"geometry":{"type":"Polygon","coordinates":[[[-97.17613,49.85076],[-97.19672,49.84862],[-97.19607,49.85681],[-97.17554,49.85604],[-97.17613,49.85076]]]}},{"type":"Feature","properties":{"name":"South Tuxedo"},"geometry":{"type":"Polygon","coordinates":[[[-97.20756,49.8476],[-97.23169,49.84533],[-97.23045,49.85791],[-97.22214,49.85704],[-97.20665,49.85723],[-97.20756,49.8476]]]}},{"type":"Feature","properties":{"name":"Southboine"},"geometry":{"type":"Polygon","coordinates":[[[-97.29075,49.86379],[-97.29098,49.85912],[-97.31278,49.8631],[-97.31243,49.8665],[-97.31192,49.86707],[-97.30506,49.86594],[-97.29853,49.86394],[-97.29075,49.86379]]]}},{"type":"Feature","properties":{"name":"Southdale"},"geometry":{"type":"Polygon","coordinates":[[[-97.055,49.8473],[-97.05493,49.84793],[-97.04975,49.84806],[-97.04985,49.84067],[-97.07633,49.84064],[-97.08415,49.85589],[-97.06091,49.85603],[-97.06088,49.84953],[-97.055,49.8473]]]}},{"type":"Feature","properties":{"name":"Southland Park"},"geometry":{"type":"Polygon","coordinates":[[[-97.04985,49.8409],[-97.04978,49.85603],[-97.03442,49.85603],[-97.02677,49.85486],[-97.02673,49.8409],[-97.04985,49.8409]]]}},{"type":"Feature","properties":{"name":"Spence"},"geometry":{"type":"Polygon","coordinates":[[[-97.15906,49.88838],[-97.15816,49.9011],[-97.15206,49.89915],[-97.15215,49.89299],[-97.15496,49.89282],[-97.1552,49.88943],[-97.15906,49.88838]]]}},{"type":"Feature","properties":{"name":"Springfield North"},"geometry":{"type":"Polygon","coordinates":[[[-97.04852,49.93093],[-97.06299,49.93571],[-97.04372,49.95092],[-97.03251,49.94593],[-97.04459,49.93087],[-97.04852,49.93093]]]}},{"type":"Feature","properties":{"name":"Springfield South"},"geometry":{"type":"Polygon","coordinates":[[[-97.05268,49.92327],[-97.06198,49.92637],[-97.05936,49.92965],[-97.0521,49.93211],[-97.04852,49.93093],[-97.04459,49.93087],[-97.05268,49.92327]]]}},{"type":"Feature","properties":{"name":"St. Boniface Industrial Park"},"geometry":{"type":"Polygon","coordinates":[[[-97.02697,49.8784],[-97.02679,49.86379],[-97.03361,49.86379],[-97.04975,49.87048],[-97.04976,49.8714],[-97.06796,49.87564],[-97.06796,49.87494],[-97.07216,49.87669],[-97.0722,49.88593],[-97.03098,49.886],[-97.03097,49.885],[-97.03,49.885],[-97.02999,49.8784],[-97.02697,49.8784]]]}},{"type":"Feature","properties":{"name":"St. George"},"geometry":{"type":"Polygon","coordinates":[[[-97.09778,49.84686],[-97.1124,49.84183],[-97.11285,49.84552],[-97.11194,49.85248],[-97.10393,49.8553],[-97.09778,49.84686]]]}},{"type":"Feature","properties":{"name":"St. James Industrial"},"geometry":{"type":"Polygon","coordinates":[[[-97.21782,49.89106],[-97.217,49.89985],[-97.21431,49.89976],[-97.21415,49.90168],[-97.21256,49.90163],[-97.2114,49.91289],[-97.21799,49.91295],[-97.21799,49.91645],[-97.1951,49.91646],[-97.18965,49.91114],[-97.1864,49.9101],[-97.19206,49.90241],[-97.19311,49.89399],[-97.20154,49.89425],[-97.20209,49.88738],[-97.20582,49.88752],[-97.2057,49.8906],[-97.21782,49.89106]]]}},{"type":"Feature","properties":{"name":"St. John's"},"geometry":{"type":"Polygon","coordinates":[[[-97.12697,49.92236],[-97.13102,49.9173],[-97.14514,49.92186],[-97.13656,49.933],[-97.12336,49.92875],[-97.12697,49.92236]]]}},{"type":"Feature","properties":{"name":"St. John's Park"},"geometry":{"type":"Polygon","coordinates":[[[-97.12663,49.91595],[-97.13098,49.91736],[-97.12606,49.92397],[-97.11605,49.92033],[-97.12307,49.91896],[-97.12663,49.91595]]]}},{"type":"Feature","properties":{"name":"St. Matthews"},"geometry":{"type":"Polygon","coordinates":[[[-97.15874,49.89294],[-97.15906,49.88838],[-97.17488,49.88463],[-97.17422,49.89341],[-97.15874,49.89294]]]}},{"type":"Feature","properties":{"name":"St. Norbert"},"geometry":{"type":"Polygon","coordinates":[[[-97.16009,49.77159],[-97.16056,49.77568],[-97.1566,49.77706],[-97.15644,49.77382],[-97.15338,49.77438],[-97.15473,49.77212],[-97.15392,49.77093],[-97.15202,49.7704],[-97.14453,49.774],[-97.14014,49.77366],[-97.13923,49.77133],[-97.1407,49.76094],[-97.14039,49.7568],[-97.14338,49.75567],[-97.14528,49.75596],[-97.14577,49.75716],[-97.14294,49.75881],[-97.1434,49.76016],[-97.14446,49.76041],[-97.1461,49.75941],[-97.14693,49.76064],[-97.14928,49.76131],[-97.15105,49.76349],[-97.15419,49.76329],[-97.16009,49.77159]]]}},{"type":"Feature","properties":{"name":"St. Vital Centre"},"geometry":{"type":"Polygon","coordinates":[[[-97.10456,49.82755],[-97.11401,49.82385],[-97.11505,49.83071],[-97.10889,49.8328],[-97.10456,49.82755]]]}},{"type":"Feature","properties":{"name":"St. Vital Perimeter South"},"geometry":{"type":"Polygon","coordinates":[[[-97.12794,49.74527],[-97.13095,49.74905],[-97.13804,49.75368],[-97.14056,49.75715],[-97.13923,49.77133],[-97.14014,49.77366],[-97.14453,49.774],[-97.15202,49.7704],[-97.15392,49.77093],[-97.15473,49.77212],[-97.15338,49.77438],[-97.14516,49.77732],[-97.13304,49.77881],[-97.13148,49.78094],[-97.13517,49.78456],[-97.11558,49.79204],[-97.02567,49.82243],[-97.02668,49.82066],[-97.02639,49.79734],[-97.03861,49.79735],[-97.04911,49.79281],[-97.04907,49.78306],[-97.04345,49.78302],[-97.04344,49.77615],[-97.08357,49.76271],[-97.08341,49.75325],[-97.08193,49.75325],[-97.12899,49.73738],[-97.12738,49.74244],[-97.12794,49.74527]]]}},{"type":"Feature","properties":{"name":"Stock Yards"},"geometry":{"type":"Polygon","coordinates":[[[-97.0722,49.87361],[-97.09445,49.87347],[-97.09879,49.88192],[-97.07222,49.88193],[-97.0722,49.87361]]]}},{"type":"Feature","properties":{"name":"Symington Yards"},"geometry":{"type":"Polygon","coordinates":[[[-97.03361,49.86379],[-97.02679,49.86379],[-97.02677,49.85486],[-97.03442,49.85603],[-97.04956,49.85603],[-97.05031,49.85849],[-97.05659,49.8602],[-97.07155,49.87117],[-97.07216,49.87669],[-97.06796,49.87494],[-97.06796,49.87564],[-97.04976,49.8714],[-97.04975,49.87048],[-97.03361,49.86379]]]}},{"type":"Feature","properties":{"name":"Talbot-Grey"},"geometry":{"type":"Polygon","coordinates":[[[-97.10299,49.90308],[-97.10059,49.90598],[-97.09411,49.91111],[-97.08079,49.90669],[-97.10299,49.90308]]]}},{"type":"Feature","properties":{"name":"Templeton-Sinclair"},"geometry":{"type":"Polygon","coordinates":[[[-97.12722,49.94687],[-97.14761,49.95344],[-97.14101,49.96083],[-97.11714,49.95311],[-97.12722,49.94687]]]}},{"type":"Feature","properties":{"name":"The Forks"},"geometry":{"type":"Polygon","coordinates":[[[-97.12731,49.89123],[-97.12565,49.88794],[-97.12727,49.88573],[-97.13311,49.88564],[-97.13569,49.8904],[-97.13386,49.89082],[-97.13495,49.89342],[-97.13246,49.89511],[-97.13067,49.89514],[-97.12731,49.89123]]]}},{"type":"Feature","properties":{"name":"The Maples"},"geometry":{"type":"Polygon","coordinates":[[[-97.1634,49.94159],[-97.18257,49.94776],[-97.18381,49.95171],[-97.18392,49.95731],[-97.18246,49.96135],[-97.18027,49.96386],[-97.16102,49.95767],[-97.16099,49.94708],[-97.15955,49.94659],[-97.1634,49.94159]]]}},{"type":"Feature","properties":{"name":"The Mint"},"geometry":{"type":"Polygon","coordinates":[[[-97.05493,49.84727],[-97.06088,49.84953],[-97.06091,49.85603],[-97.04978,49.85603],[-97.04975,49.84806],[-97.05493,49.84793],[-97.05493,49.84727]]]}},{"type":"Feature","properties":{"name":"Tissot"},"geometry":{"type":"Polygon","coordinates":[[[-97.10967,49.89531],[-97.10572,49.89625],[-97.10389,49.89274],[-97.10952,49.89222],[-97.10967,49.89531]]]}},{"type":"Feature","properties":{"name":"Transcona North"},"geometry":{"type":"Polygon","coordinates":[[[-96.9944,49.9122],[-96.99206,49.91371],[-96.99084,49.91572],[-96.96639,49.91556],[-96.96238,49.90804],[-97.00251,49.90827],[-97.00248,49.90978],[-96.9944,49.9122]]]}},{"type":"Feature","properties":{"name":"Transcona South"},"geometry":{"type":"Polygon","coordinates":[[[-97.02695,49.87112],[-97.02697,49.8784],[-97.02999,49.8784],[-97.03,49.885],[-97.03097,49.885],[-97.03098,49.886],[-96.98108,49.88596],[-96.98107,49.87093],[-97.02695,49.87112]]]}},{"type":"Feature","properties":{"name":"Transcona Yards"},"geometry":{"type":"Polygon","coordinates":[[[-97.02588,49.88602],[-97.02536,49.89348],[-96.96829,49.89335],[-96.96817,49.88582],[-97.02588,49.88602]]]}},{"type":"Feature","properties":{"name":"Trappistes"},"geometry":{"type":"Polygon","coordinates":[[[-97.17926,49.72793],[-97.1794,49.76184],[-97.17837,49.76433],[-97.1755,49.76572],[-97.17256,49.76549],[-97.17028,49.76755],[-97.16734,49.76482],[-97.1634,49.76328],[-97.16185,49.76172],[-97.15781,49.76068],[-97.15685,49.75912],[-97.15129,49.7586],[-97.15397,49.75502],[-97.15394,49.75301],[-97.15287,49.75173],[-97.14982,49.75055],[-97.15053,49.74609],[-97.15166,49.74455],[-97.14929,49.74185],[-97.15193,49.74059],[-97.15677,49.74125],[-97.15745,49.73885],[-97.15941,49.73619],[-97.16897,49.73303],[-97.16958,49.73226],[-97.16898,49.7315],[-97.17926,49.72793]]]}},{"type":"Feature","properties":{"name":"Turnbull Drive"},"geometry":{"type":"Polygon","coordinates":[[[-97.1374,49.74244],[-97.14597,49.75509],[-97.15235,49.7637],[-97.15105,49.76349],[-97.14928,49.76131],[-97.14693,49.76064],[-97.1461,49.75941],[-97.14446,49.76041],[-97.1434,49.76016],[-97.14311,49.75847],[-97.14577,49.75716],[-97.14554,49.75615],[-97.14338,49.75567],[-97.14039,49.7568],[-97.13804,49.75368],[-97.1316,49.74959],[-97.12816,49.74564],[-97.1374,49.74244]]]}},{"type":"Feature","properties":{"name":"Tuxedo"},"geometry":{"type":"Polygon","coordinates":[[[-97.2383,49.8674],[-97.21015,49.86621],[-97.20599,49.86415],[-97.20665,49.85723],[-97.22214,49.85704],[-97.2392,49.85823],[-97.2383,49.8674]]]}},{"type":"Feature","properties":{"name":"Tuxedo Industrial"},"geometry":{"type":"Polygon","coordinates":[[[-97.19672,49.84862],[-97.19729,49.84614],[-97.207,49.82723],[-97.20114,49.82124],[-97.22108,49.81437],[-97.23086,49.81439],[-97.22819,49.84566],[-97.19672,49.84862]]]}},{"type":"Feature","properties":{"name":"Tyndall Park"},"geometry":{"type":"Polygon","coordinates":[[[-97.19518,49.94594],[-97.19511,49.93121],[-97.20676,49.93121],[-97.20676,49.92851],[-97.21247,49.93141],[-97.21321,49.93344],[-97.21821,49.93597],[-97.21821,49.93858],[-97.22336,49.93859],[-97.2252,49.93952],[-97.2241,49.94043],[-97.2241,49.94227],[-97.22559,49.94227],[-97.2256,49.94595],[-97.19518,49.94594]]]}},{"type":"Feature","properties":{"name":"Tyne-Tees"},"geometry":{"type":"Polygon","coordinates":[[[-97.10614,49.90259],[-97.09614,49.90324],[-97.06895,49.89834],[-97.07117,49.89417],[-97.09983,49.8993],[-97.10721,49.89921],[-97.10614,49.90259]]]}},{"type":"Feature","properties":{"name":"University"},"geometry":{"type":"Polygon","coordinates":[[[-97.11691,49.81099],[-97.12743,49.8077],[-97.1297,49.80618],[-97.15728,49.79683],[-97.15704,49.80267],[-97.15588,49.80491],[-97.14189,49.80965],[-97.144,49.81059],[-97.13692,49.81301],[-97.13186,49.81321],[-97.1245,49.81646],[-97.1215,49.81697],[-97.11823,49.81623],[-97.11589,49.81474],[-97.11525,49.81281],[-97.11691,49.81099]]]}},{"type":"Feature","properties":{"name":"Valhalla"},"geometry":{"type":"Polygon","coordinates":[[[-97.0667,49.96115],[-97.0843,49.94758],[-97.09726,49.95062],[-97.09467,49.95145],[-97.08781,49.95085],[-97.08476,49.95142],[-97.08114,49.95341],[-97.07029,49.96274],[-97.0667,49.96115]]]}},{"type":"Feature","properties":{"name":"Valley Gardens"},"geometry":{"type":"Polygon","coordinates":[[[-97.06288,49.91171],[-97.08434,49.91883],[-97.07101,49.92937],[-97.05268,49.92327],[-97.06288,49.91171]]]}},{"type":"Feature","properties":{"name":"Varennes"},"geometry":{"type":"Polygon","coordinates":[[[-97.11194,49.85248],[-97.11232,49.85772],[-97.11101,49.86441],[-97.10393,49.8553],[-97.11194,49.85248]]]}},{"type":"Feature","properties":{"name":"Varsity View"},"geometry":{"type":"Polygon","coordinates":[[[-97.2656,49.86785],[-97.25812,49.86849],[-97.24987,49.86804],[-97.25073,49.85861],[-97.26751,49.85925],[-97.26704,49.86446],[-97.2656,49.86785]]]}},{"type":"Feature","properties":{"name":"Vialoux"},"geometry":{"type":"Polygon","coordinates":[[[-97.2492,49.87399],[-97.24975,49.86803],[-97.25812,49.86849],[-97.2656,49.86785],[-97.26531,49.87108],[-97.2635,49.87198],[-97.25967,49.87176],[-97.2492,49.87399]]]}},{"type":"Feature","properties":{"name":"Victoria Crescent"},"geometry":{"type":"Polygon","coordinates":[[[-97.13613,49.84315],[-97.13171,49.84356],[-97.12308,49.84152],[-97.11972,49.84324],[-97.11943,49.84467],[-97.12029,49.84612],[-97.11763,49.84703],[-97.11657,49.84468],[-97.11815,49.84195],[-97.1178,49.84075],[-97.13188,49.83592],[-97.13718,49.84014],[-97.13752,49.84176],[-97.13613,49.84315]]]}},{"type":"Feature","properties":{"name":"Victoria West"},"geometry":{"type":"Polygon","coordinates":[[[-97.00257,49.89507],[-97.02538,49.89521],[-97.02542,49.89841],[-97.01621,49.89836],[-97.01624,49.9008],[-97.00265,49.90072],[-97.00257,49.89507]]]}},{"type":"Feature","properties":{"name":"Vista"},"geometry":{"type":"Polygon","coordinates":[[[-97.11401,49.82385],[-97.10456,49.82755],[-97.10064,49.82279],[-97.10781,49.82033],[-97.11326,49.82017],[-97.11401,49.82385]]]}},{"type":"Feature","properties":{"name":"Waverley Heights"},"geometry":{"type":"Polygon","coordinates":[[[-97.15824,49.80147],[-97.17365,49.80208],[-97.17376,49.80846],[-97.17698,49.81332],[-97.16201,49.81841],[-97.15668,49.81867],[-97.15824,49.80147]]]}},{"type":"Feature","properties":{"name":"Waverley West B"},"geometry":{"type":"Polygon","coordinates":[[[-97.19394,49.79551],[-97.18752,49.79768],[-97.18376,49.80045],[-97.1778,49.80246],[-97.17365,49.80208],[-97.1737,49.79126],[-97.19227,49.78492],[-97.19412,49.78899],[-97.19394,49.79551]]]}},{"type":"Feature","properties":{"name":"Wellington Crescent"},"geometry":{"type":"Polygon","coordinates":[[[-97.19436,49.87836],[-97.18974,49.87814],[-97.18231,49.87947],[-97.17611,49.87664],[-97.17281,49.87616],[-97.16427,49.87855],[-97.1617,49.8782],[-97.16431,49.87598],[-97.17201,49.87335],[-97.1947,49.87419],[-97.19436,49.87836]]]}},{"type":"Feature","properties":{"name":"West Alexander"},"geometry":{"type":"Polygon","coordinates":[[[-97.17093,49.91012],[-97.16772,49.90909],[-97.16615,49.91111],[-97.16436,49.91054],[-97.16363,49.91149],[-97.15256,49.90794],[-97.15565,49.90418],[-97.14186,49.89975],[-97.14419,49.89663],[-97.15214,49.89812],[-97.15206,49.89915],[-97.17144,49.90531],[-97.17093,49.91012]]]}},{"type":"Feature","properties":{"name":"West Broadway"},"geometry":{"type":"Polygon","coordinates":[[[-97.15207,49.88551],[-97.15306,49.88127],[-97.15486,49.8803],[-97.15483,49.87908],[-97.1617,49.8782],[-97.16052,49.88799],[-97.15409,49.88973],[-97.15106,49.88889],[-97.1507,49.88611],[-97.15207,49.88551]]]}},{"type":"Feature","properties":{"name":"West Fort Garry Industrial"},"geometry":{"type":"Polygon","coordinates":[[[-97.19628,49.82299],[-97.19242,49.8182],[-97.18469,49.82071],[-97.18554,49.82177],[-97.17991,49.82368],[-97.1836,49.82736],[-97.18038,49.82979],[-97.17966,49.82868],[-97.17919,49.81611],[-97.17698,49.81332],[-97.19101,49.80864],[-97.20114,49.82124],[-97.19628,49.82299]]]}},{"type":"Feature","properties":{"name":"West Kildonan Industrial"},"geometry":{"type":"Polygon","coordinates":[[[-97.13418,49.96784],[-97.13149,49.96884],[-97.10858,49.95841],[-97.11369,49.95524],[-97.10316,49.95182],[-97.10638,49.94963],[-97.14101,49.96083],[-97.13418,49.96784]]]}},{"type":"Feature","properties":{"name":"West Perimeter South"},"geometry":{"type":"Polygon","coordinates":[[[-97.32538,49.8381],[-97.32839,49.80896],[-97.34915,49.80902],[-97.34667,49.83717],[-97.32538,49.8381]]]}},{"type":"Feature","properties":{"name":"West Wolseley"},"geometry":{"type":"Polygon","coordinates":[[[-97.20305,49.87684],[-97.20485,49.87964],[-97.19411,49.88157],[-97.19436,49.87836],[-97.20305,49.87684]]]}},{"type":"Feature","properties":{"name":"Westdale"},"geometry":{"type":"Polygon","coordinates":[[[-97.31276,49.84702],[-97.3244,49.84753],[-97.32364,49.85583],[-97.3259,49.86597],[-97.31111,49.8628],[-97.31276,49.84702]]]}},{"type":"Feature","properties":{"name":"Weston"},"geometry":{"type":"Polygon","coordinates":[[[-97.19511,49.92383],[-97.17022,49.91678],[-97.17069,49.91251],[-97.18152,49.91598],[-97.18373,49.91311],[-97.18372,49.90924],[-97.18965,49.91114],[-97.1951,49.91637],[-97.19511,49.92383]]]}},{"type":"Feature","properties":{"name":"Weston Shops"},"geometry":{"type":"Polygon","coordinates":[[[-97.19511,49.93139],[-97.16667,49.92261],[-97.16976,49.92115],[-97.16986,49.92021],[-97.15853,49.91668],[-97.16074,49.9138],[-97.19511,49.92383],[-97.19511,49.93139]]]}},{"type":"Feature","properties":{"name":"Westwood"},"geometry":{"type":"Polygon","coordinates":[[[-97.28932,49.8726],[-97.29039,49.86371],[-97.29783,49.86388],[-97.31192,49.86707],[-97.31279,49.87019],[-97.31199,49.87025],[-97.31079,49.8823],[-97.3027,49.88322],[-97.29317,49.88173],[-97.29395,49.87343],[-97.29328,49.87242],[-97.28932,49.8726]]]}},{"type":"Feature","properties":{"name":"Whyte Ridge"},"geometry":{"type":"Polygon","coordinates":[[[-97.20114,49.82124],[-97.19159,49.80937],[-97.21967,49.79979],[-97.21965,49.81437],[-97.22108,49.81437],[-97.20114,49.82124]]]}},{"type":"Feature","properties":{"name":"Wildwood"},"geometry":{"type":"Polygon","coordinates":[[[-97.1239,49.84153],[-97.13074,49.84344],[-97.13613,49.84315],[-97.13813,49.84574],[-97.13974,49.84602],[-97.13868,49.84638],[-97.13966,49.84758],[-97.14472,49.84864],[-97.14332,49.85014],[-97.1356,49.85237],[-97.13047,49.85207],[-97.12167,49.8474],[-97.1196,49.84514],[-97.11949,49.84372],[-97.12042,49.84251],[-97.1239,49.84153]]]}},{"type":"Feature","properties":{"name":"Wilkes South"},"geometry":{"type":"Polygon","coordinates":[[[-97.32839,49.80896],[-97.32527,49.83913],[-97.28332,49.84049],[-97.22819,49.84566],[-97.23086,49.81439],[-97.2537,49.81444],[-97.2537,49.8124],[-97.27653,49.81246],[-97.27653,49.81065],[-97.29938,49.81071],[-97.29936,49.8089],[-97.32839,49.80896]]]}},{"type":"Feature","properties":{"name":"William Whyte"},"geometry":{"type":"Polygon","coordinates":[[[-97.15647,49.91936],[-97.15266,49.92428],[-97.13102,49.9173],[-97.13267,49.91169],[-97.15647,49.91936]]]}},{"type":"Feature","properties":{"name":"Windsor Park"},"geometry":{"type":"Polygon","coordinates":[[[-97.04956,49.85603],[-97.08415,49.85589],[-97.08943,49.86619],[-97.09121,49.86724],[-97.09319,49.87099],[-97.07132,49.871],[-97.05659,49.8602],[-97.05031,49.85849],[-97.04956,49.85603]]]}},{"type":"Feature","properties":{"name":"Wolseley"},"geometry":{"type":"Polygon","coordinates":[[[-97.19436,49.87836],[-97.19411,49.88157],[-97.17134,49.88508],[-97.16052,49.88799],[-97.1617,49.8782],[-97.16427,49.87855],[-97.17281,49.87616],[-97.17611,49.87664],[-97.18231,49.87947],[-97.18974,49.87814],[-97.19436,49.87836]]]}},{"type":"Feature","properties":{"name":"Woodhaven"},"geometry":{"type":"Polygon","coordinates":[[[-97.27906,49.87948],[-97.27507,49.87854],[-97.27405,49.87722],[-97.2712,49.87609],[-97.26976,49.87349],[-97.26639,49.87277],[-97.2658,49.87196],[-97.27282,49.86964],[-97.27753,49.87007],[-97.2803,49.86949],[-97.28007,49.87151],[-97.27817,49.87156],[-97.27758,49.87569],[-97.27958,49.87579],[-97.27906,49.87948]]]}},{"type":"Feature","properties":{"name":"Worthington"},"geometry":{"type":"Polygon","coordinates":[[[-97.09287,49.83826],[-97.10889,49.8328],[-97.11505,49.83071],[-97.11248,49.837],[-97.1124,49.84183],[-97.09778,49.84686],[-97.09287,49.83826]]]}},{"type":"Feature","properties":{"name":"Airport"},"geometry":{"type":"Polygon","coordinates":[[[-97.27906,49.87948],[-97.3027,49.88322],[-97.31673,49.88159],[-97.31496,49.8992],[-97.27703,49.90164],[-97.27906,49.87948]]]}}]}