{"type":"FeatureCollection","features":[{"type":"Feature","properties":{"name":"Assiniboine South"},"geometry":{"type":"MultiPolygon","coordinates":[[[[-97.32538,49.8381],[-97.32839,49.80896],[-97.34915,49.80902],[-97.34667,49.83717],[-97.32538,49.8381]]],[[[-97.2537,49.81444],[-97.2537,49.8124],[-97.27653,49.81246],[-97.27653,49.81065],[-97.29938,49.81071],[-97.29936,49.8089],[-97.32839,49.80896],[-97.3244,49.84753],[-97.32364,49.85583],[-97.32651,49.86867],[-97.32108,49.87239],[-97.31684,49.87247],[-97.31292,49.87038],[-97.31192,49.86707],[-97.30506,49.86594],[-97.29853,49.86394],[-97.29075,49.86379],[-97.29098,49.85912],[-97.29056,49.86374],[-97.28803,49.86291],[-97.28506,49.85962],[-97.28034,49.85935],[-97.27797,49.86161],[-97.28029,49.86728],[-97.27922,49.8696],[-97.27282,49.86964],[-97.26691,49.87172],[-97.25967,49.87176],[-97.2492,49.87399],[-97.2458,49.87397],[-97.24386,49.87507],[-97.23127,49.87561],[-97.22307,49.87325],[-97.21447,49.87433],[-97.20933,49.87373],[-97.20836,49.87429],[-97.20829,49.87622],[-97.20759,49.87676],[-97.20305,49.87684],[-97.20238,49.87582],[-97.20517,49.87284],[-97.20756,49.8476],[-97.28332,49.84049],[-97.19672,49.84862],[-97.19729,49.84614],[-97.207,49.82723],[-97.20114,49.82124],[-97.22108,49.81437],[-97.2537,49.81444]],[[-97.25546,49.84449],[-97.29396,49.84619],[-97.3244,49.84753],[-97.25546,49.84449]],[[-97.2492,49.87399],[-97.25073,49.85861],[-97.26694,49.85923],[-97.25062,49.85847],[-97.2492,49.87399]],[[-97.28264,49.85762],[-97.2724,49.85944],[-97.27775,49.85852],[-97.28264,49.85762]],[[-97.28625,49.85827],[-97.28602,49.85823],[-97.28264,49.85762],[-97.28625,49.85827]],[[-97.21015,49.86621],[-97.21564,49.86656],[-97.2383,49.8674],[-97.21015,49.86621]]]]}},{"type":"Feature","properties":{"name":"Downtown East"},"geometry":{"type":"Polygon","coordinates":[[[-97.16052,49.88799],[-97.15906,49.88839],[-97.15817,49.90109],[-97.17144,49.90531],[-97.17022,49.91678],[-97.13423,49.90566],[-97.13585,49.90258],[-97.12878,49.89976],[-97.13117,49.89791],[-97.13067,49.89514],[-97.12731,49.89123],[-97.12565,49.88794],[-97.12727,49.88573],[-97.13311,49.88564],[-97.14319,49.88226],[-97.15306,49.88127],[-97.15486,49.8803],[-97.15483,49.87908],[-97.15236,49.8756],[-97.15388,49.87394],[-97.15703,49.87403],[-97.1617,49.8782],[-97.16052,49.88799]],[[-97.16363,49.91149],[-97.15256,49.90794],[-97.13851,49.90343],[-97.13585,49.90258],[-97.16363,49.91149]],[[-97.14049,49.90133],[-97.14019,49.90123],[-97.13851,49.90343],[-97.14049,49.90133]],[[-97.13884,49.89647],[-97.13246,49.89511],[-97.13067,49.89514],[-97.13884,49.89647]],[[-97.13569,49.8904],[-97.13486,49.88884],[-97.13311,49.88564],[-97.13569,49.8904]],[[-97.14546,49.88644],[-97.14662,49.88857],[-97.14319,49.88226],[-97.14546,49.88644]],[[-97.14818,49.88874],[-97.14792,49.88827],[-97.14662,49.88857],[-97.14818,49.88874]],[[-97.15565,49.90418],[-97.142,49.8998],[-97.142,49.8998],[-97.15565,49.90418]],[[-97.14419,49.89663],[-97.15208,49.8981],[-97.14131,49.89571],[-97.14419,49.89663]],[[-97.15215,49.89299],[-97.15103,49.89121],[-97.15215,49.89308],[-97.15215,49.89299]],[[-97.15189,49.88912],[-97.15106,49.88889],[-97.1503,49.88896],[-97.15189,49.88912]],[[-97.13752,49.89376],[-97.13873,49.89301],[-97.13718,49.89369],[-97.13752,49.89376]],[[-97.13386,49.89082],[-97.13489,49.89327],[-97.13501,49.89318],[-97.13386,49.89082]],[[-97.14131,49.89571],[-97.14017,49.89518],[-97.1403,49.89538],[-97.14131,49.89571]]]}},{"type":"Feature","properties":{"name":"Downtown West"},"geometry":{"type":"Polygon","coordinates":[[[-97.20633,49.88193],[-97.20618,49.88365],[-97.20234,49.88432],[-97.20154,49.89425],[-97.19311,49.89399],[-97.19206,49.90241],[-97.1864,49.9101],[-97.15816,49.9011],[-97.15906,49.88838],[-97.17488,49.88463],[-97.19411,49.88157],[-97.17134,49.88508],[-97.16052,49.88799],[-97.1617,49.8782],[-97.16427,49.87855],[-97.17281,49.87616],[-97.17611,49.87664],[-97.18231,49.87947],[-97.18974,49.87814],[-97.19436,49.87836],[-97.20305,49.87684],[-97.20633,49.88193]]]}},{"type":"Feature","properties":{"name":"Fort Garry North"},"geometry":{"type":"Polygon","coordinates":[[[-97.22108,49.81437],[-97.20114,49.82124],[-97.207,49.82723],[-97.19912,49.84259],[-97.19672,49.84862],[-97.15594,49.85243],[-97.15243,49.85418],[-97.15201,49.85264],[-97.15345,49.84164],[-97.15193,49.85236],[-97.14535,49.85397],[-97.14461,49.85306],[-97.14522,49.85099],[-97.14332,49.85014],[-97.1356,49.85237],[-97.13047,49.85207],[-97.12167,49.8474],[-97.1196,49.84514],[-97.11949,49.84372],[-97.12042,49.84251],[-97.1239,49.84153],[-97.13074,49.84344],[-97.13613,49.84315],[-97.13752,49.84176],[-97.13742,49.84058],[-97.13227,49.83642],[-97.13112,49.83459],[-97.13147,49.83298],[-97.1356,49.83114],[-97.14293,49.83221],[-97.14641,49.83193],[-97.14801,49.83085],[-97.14853,49.82903],[-97.14778,49.82723],[-97.14272,49.82164],[-97.15668,49.81867],[-97.16201,49.81841],[-97.19101,49.80864],[-97.19159,49.80937],[-97.21967,49.79979],[-97.21965,49.81437],[-97.22108,49.81437]],[[-97.17247,49.84519],[-97.1708,49.84575],[-97.15201,49.85264],[-97.17247,49.84519]],[[-97.14448,49.84922],[-97.14446,49.84892],[-97.14332,49.85014],[-97.14448,49.84922]],[[-97.19082,49.81864],[-97.18469,49.82071],[-97.19242,49.8182],[-97.19082,49.81864]],[[-97.17686,49.83295],[-97.17512,49.83398],[-97.17615,49.83359],[-97.17686,49.83295]],[[-97.15182,49.82923],[-97.15209,49.82782],[-97.15021,49.83422],[-97.15182,49.82923]],[[-97.13966,49.84758],[-97.14443,49.84858],[-97.1444,49.84824],[-97.13966,49.84758]]]}},{"type":"Feature","properties":{"name":"Fort Garry South"},"geometry":{"type":"Polygon","coordinates":[[[-97.21404,49.75351],[-97.21408,49.79749],[-97.21968,49.79752],[-97.21967,49.79979],[-97.19159,49.80937],[-97.19047,49.80715],[-97.19101,49.80864],[-97.16201,49.81841],[-97.15668,49.81867],[-97.14272,49.82164],[-97.14123,49.81497],[-97.13692,49.81301],[-97.13186,49.81321],[-97.1245,49.81646],[-97.1215,49.81697],[-97.11823,49.81623],[-97.11589,49.81474],[-97.11525,49.81281],[-97.11691,49.81099],[-97.12743,49.8077],[-97.1297,49.80618],[-97.1299,49.80476],[-97.12873,49.80335],[-97.11834,49.7988],[-97.11641,49.7959],[-97.11787,49.79345],[-97.12117,49.79317],[-97.12554,49.79701],[-97.12925,49.79722],[-97.13119,49.79558],[-97.13612,49.78835],[-97.13638,49.78689],[-97.13517,49.78456],[-97.13148,49.78094],[-97.13304,49.77881],[-97.14516,49.77732],[-97.15644,49.77382],[-97.15338,49.77438],[-97.15473,49.77212],[-97.15392,49.77093],[-97.15202,49.7704],[-97.14453,49.774],[-97.14014,49.77366],[-97.13923,49.77133],[-97.1407,49.76094],[-97.14039,49.7568],[-97.13804,49.75368],[-97.1316,49.74959],[-97.12816,49.74564],[-97.22009,49.71356],[-97.21965,49.75351],[-97.21404,49.75351]],[[-97.18549,49.76823],[-97.1843,49.76852],[-97.21398,49.76811],[-97.18549,49.76823]],[[-97.20751,49.79108],[-97.20692,49.79136],[-97.21403,49.79085],[-97.20751,49.79108]],[[-97.17365,49.80208],[-97.15709,49.80142],[-97.15709,49.80142],[-97.15824,49.80147],[-97.17365,49.80208]],[[-97.16056,49.77568],[-97.16014,49.77198],[-97.16056,49.77568],[-97.16056,49.77568]],[[-97.15888,49.76989],[-97.1542,49.76331],[-97.1542,49.76331],[-97.15888,49.76989]],[[-97.16967,49.76706],[-97.16734,49.76482],[-97.16937,49.76716],[-97.16572,49.76873],[-97.16967,49.76706]],[[-97.17099,49.76739],[-97.17256,49.76549],[-97.17057,49.76728],[-97.17099,49.76739]],[[-97.17753,49.76503],[-97.17837,49.76433],[-97.1755,49.76572],[-97.17753,49.76503]],[[-97.17934,49.76231],[-97.17934,49.76199],[-97.17837,49.76433],[-97.17934,49.76231]],[[-97.19372,49.78809],[-97.19369,49.78703],[-97.19227,49.78492],[-97.19372,49.78809]],[[-97.20158,49.79656],[-97.19979,49.799],[-97.20154,49.79709],[-97.20158,49.79656]],[[-97.19076,49.80587],[-97.19231,49.80315],[-97.19281,49.80223],[-97.19098,49.80488],[-97.19076,49.80587]],[[-97.19382,49.80037],[-97.19402,49.8],[-97.19392,49.79611],[-97.19382,49.80037]],[[-97.15765,49.76042],[-97.15685,49.75912],[-97.15619,49.75906],[-97.15747,49.76024],[-97.15625,49.76144],[-97.15765,49.76042]],[[-97.15269,49.76339],[-97.14597,49.75509],[-97.15214,49.76342],[-97.15269,49.76339]],[[-97.1634,49.76328],[-97.16185,49.76172],[-97.16151,49.76163],[-97.1634,49.76328]],[[-97.15304,49.75194],[-97.15287,49.75173],[-97.14982,49.75055],[-97.15304,49.75194]],[[-97.15396,49.75422],[-97.15394,49.75301],[-97.15337,49.75234],[-97.15396,49.75422]],[[-97.15396,49.75457],[-97.15114,49.75814],[-97.15144,49.75841],[-97.15397,49.75502],[-97.15396,49.75457]],[[-97.15193,49.75887],[-97.15353,49.75881],[-97.15168,49.75864],[-97.15193,49.75887]],[[-97.16897,49.73303],[-97.16958,49.73226],[-97.16949,49.73215],[-97.16897,49.73303]],[[-97.14315,49.75869],[-97.14294,49.75881],[-97.1434,49.76016],[-97.14315,49.75869]],[[-97.14554,49.75615],[-97.14534,49.75611],[-97.14577,49.75716],[-97.14554,49.75615]],[[-97.14447,49.81097],[-97.14493,49.81134],[-97.1448,49.81114],[-97.14447,49.81097]]]}},{"type":"Feature","properties":{"name":"Inkster East"},"geometry":{"type":"Polygon","coordinates":[[[-97.18965,49.91114],[-97.1951,49.91646],[-97.20676,49.91645],[-97.20676,49.92694],[-97.19511,49.92383],[-97.19518,49.9518],[-97.16378,49.94171],[-97.17075,49.93265],[-97.1669,49.93142],[-97.16891,49.92912],[-97.16951,49.92349],[-97.16667,49.92261],[-97.16976,49.92115],[-97.16986,49.92021],[-97.15853,49.91668],[-97.16074,49.9138],[-97.17024,49.91658],[-97.17144,49.90531],[-97.18965,49.91114]],[[-97.18405,49.93346],[-97.18145,49.92717],[-97.18144,49.92717],[-97.18405,49.93346]],[[-97.19242,49.93849],[-97.18667,49.93657],[-97.1867,49.93662],[-97.19242,49.93849]],[[-97.18636,49.93596],[-97.18497,49.93223],[-97.18428,49.9319],[-97.18636,49.93596]]]}},{"type":"Feature","properties":{"name":"Inkster West"},"geometry":{"type":"Polygon","coordinates":[[[-97.22986,49.93309],[-97.22998,49.96078],[-97.19513,49.96073],[-97.19511,49.92383],[-97.22986,49.93309]]]}},{"type":"Feature","properties":{"name":"Point Douglas North"},"geometry":{"type":"MultiPolygon","coordinates":[[[[-97.12663,49.91595],[-97.14514,49.92186],[-97.15266,49.92428],[-97.1441,49.93543],[-97.12336,49.92875],[-97.12286,49.92964],[-97.11732,49.92736],[-97.11022,49.92563],[-97.11246,49.92231],[-97.11605,49.92033],[-97.12307,49.91896],[-97.12663,49.91595]]],[[[-97.16951,49.92351],[-97.16891,49.92912],[-97.16681,49.93153],[-97.17075,49.93265],[-97.16378,49.94171],[-97.1441,49.93543],[-97.15647,49.91936],[-97.16951,49.92351]]]]}},{"type":"Feature","properties":{"name":"Point Douglas South"},"geometry":{"type":"MultiPolygon","coordinates":[[[[-97.13423,49.90566],[-97.1324,49.91261],[-97.13267,49.91169],[-97.15647,49.91936],[-97.15266,49.92428],[-97.12663,49.91595],[-97.12653,49.91274],[-97.12412,49.91031],[-97.11637,49.9063],[-97.10956,49.90418],[-97.1086,49.90269],[-97.10985,49.90107],[-97.11186,49.9005],[-97.12396,49.9009],[-97.12878,49.89976],[-97.13585,49.90258],[-97.13423,49.90566]]],[[[-97.13423,49.90566],[-97.14504,49.90879],[-97.14143,49.91451],[-97.13267,49.91169],[-97.13423,49.90566]]],[[[-97.16074,49.9138],[-97.15857,49.91663],[-97.16986,49.92021],[-97.16976,49.92115],[-97.16667,49.92261],[-97.14169,49.91418],[-97.14504,49.90879],[-97.16074,49.9138]]]]}},{"type":"Feature","properties":{"name":"River East East"},"geometry":{"type":"Polygon","coordinates":[[[-97.06323,49.90596],[-97.06895,49.89834],[-97.07223,49.89894],[-97.06288,49.91171],[-97.06936,49.90286],[-97.09411,49.91111],[-97.06299,49.93571],[-97.04372,49.95092],[-96.99728,49.93024],[-97.04459,49.93087],[-97.02476,49.93061],[-97.02498,49.91572],[-97.05677,49.91058],[-97.05271,49.91576],[-97.05906,49.90777],[-97.06323,49.90596]],[[-97.05268,49.92327],[-97.06198,49.92637],[-97.07101,49.92937],[-97.05268,49.92327]],[[-97.05269,49.92325],[-97.05266,49.92328],[-97.05268,49.92327],[-97.05269,49.92325]],[[-97.04677,49.92882],[-97.04654,49.92875],[-97.04459,49.93087],[-97.04677,49.92882]],[[-97.0487,49.91932],[-97.04855,49.91945],[-97.04852,49.91974],[-97.0487,49.91932]]]}},{"type":"Feature","properties":{"name":"River East South"},"geometry":{"type":"MultiPolygon","coordinates":[[[[-97.06895,49.89834],[-97.07117,49.89417],[-97.09983,49.8993],[-97.10721,49.89921],[-97.10614,49.90259],[-97.09614,49.90324],[-97.06895,49.89834]]],[[[-97.07223,49.89894],[-97.09614,49.90324],[-97.1086,49.90269],[-97.10956,49.90418],[-97.12034,49.90827],[-97.1259,49.91162],[-97.1269,49.91377],[-97.12679,49.91557],[-97.12402,49.91852],[-97.11806,49.91988],[-97.11275,49.91811],[-97.11298,49.91776],[-97.10961,49.92163],[-97.08933,49.91489],[-97.09411,49.91111],[-97.06936,49.90286],[-97.07223,49.89894]],[[-97.11835,49.90965],[-97.11789,49.91026],[-97.12034,49.90827],[-97.11835,49.90965]],[[-97.11785,49.91032],[-97.11441,49.91481],[-97.11408,49.91607],[-97.11785,49.91032]]]]}},{"type":"Feature","properties":{"name":"River East West"},"geometry":{"type":"Polygon","coordinates":[[[-97.08933,49.91489],[-97.10951,49.92159],[-97.11275,49.91811],[-97.11806,49.91988],[-97.11304,49.92179],[-97.11045,49.92499],[-97.10989,49.92801],[-97.11143,49.93325],[-97.11106,49.93535],[-97.10798,49.93812],[-97.0967,49.94187],[-97.09626,49.94408],[-97.09829,49.94813],[-97.09726,49.95062],[-97.09467,49.95145],[-97.08781,49.95085],[-97.08476,49.95142],[-97.08114,49.95341],[-97.07029,49.96274],[-97.04372,49.95092],[-97.08933,49.91489]],[[-97.1012,49.93054],[-97.09891,49.93293],[-97.09911,49.93277],[-97.1012,49.93054]]]}},{"type":"Feature","properties":{"name":"River Heights East"},"geometry":{"type":"Polygon","coordinates":[[[-97.14081,49.87307],[-97.14211,49.87455],[-97.16141,49.86811],[-97.16331,49.8705],[-97.15544,49.87267],[-97.15779,49.87307],[-97.15686,49.87398],[-97.15388,49.87394],[-97.15236,49.8756],[-97.15492,49.8792],[-97.15486,49.8803],[-97.15174,49.88163],[-97.1424,49.88243],[-97.1339,49.88553],[-97.12681,49.88578],[-97.13588,49.87764],[-97.1372,49.87512],[-97.13731,49.87293],[-97.13634,49.87131],[-97.13442,49.8704],[-97.1191,49.87099],[-97.11495,49.87014],[-97.1131,49.86847],[-97.11284,49.86581],[-97.11484,49.86215],[-97.11954,49.85808],[-97.1291,49.85514],[-97.13982,49.85457],[-97.14461,49.85306],[-97.14665,49.85414],[-97.15193,49.85236],[-97.15243,49.85418],[-97.14081,49.87307]],[[-97.14642,49.87915],[-97.14339,49.876],[-97.14844,49.88175],[-97.14642,49.87915]],[[-97.1537,49.87258],[-97.15341,49.87257],[-97.15317,49.8728],[-97.1537,49.87258]]]}},{"type":"Feature","properties":{"name":"River Heights West"},"geometry":{"type":"Polygon","coordinates":[[[-97.20756,49.8476],[-97.20517,49.87284],[-97.20238,49.87582],[-97.20305,49.87684],[-97.19436,49.87836],[-97.18974,49.87814],[-97.18231,49.87947],[-97.17611,49.87664],[-97.17281,49.87616],[-97.16427,49.87855],[-97.1617,49.8782],[-97.15686,49.87398],[-97.15779,49.87307],[-97.15656,49.87273],[-97.16331,49.8705],[-97.16141,49.86811],[-97.14202,49.87458],[-97.14081,49.87307],[-97.15125,49.85539],[-97.15594,49.85243],[-97.17615,49.85054],[-97.17554,49.85604],[-97.17613,49.85076],[-97.20756,49.8476]],[[-97.1947,49.87419],[-97.17405,49.87342],[-97.17387,49.87342],[-97.1947,49.87419]],[[-97.17145,49.8734],[-97.16431,49.87598],[-97.17185,49.8734],[-97.17145,49.8734]]]}},{"type":"Feature","properties":{"name":"Seven Oaks East"},"geometry":{"type":"Polygon","coordinates":[[[-97.12336,49.92875],[-97.15909,49.94031],[-97.14762,49.95343],[-97.15916,49.94023],[-97.16347,49.9415],[-97.15955,49.94659],[-97.16099,49.94708],[-97.16102,49.9681],[-97.14028,49.96163],[-97.14078,49.96106],[-97.13418,49.96784],[-97.13149,49.96884],[-97.10858,49.95841],[-97.11369,49.95524],[-97.09226,49.9685],[-97.07302,49.95989],[-97.08418,49.95163],[-97.08781,49.95085],[-97.09467,49.95145],[-97.09726,49.95062],[-97.09819,49.94743],[-97.09616,49.94344],[-97.09715,49.94152],[-97.10729,49.93841],[-97.11078,49.93591],[-97.11143,49.93325],[-97.10996,49.92852],[-97.11022,49.92563],[-97.11732,49.92736],[-97.12286,49.92964],[-97.12336,49.92875]],[[-97.12286,49.92964],[-97.1137,49.94197],[-97.12104,49.93285],[-97.12286,49.92964]],[[-97.1273,49.94682],[-97.12722,49.94687],[-97.14761,49.95344],[-97.1273,49.94682]],[[-97.10638,49.94963],[-97.11015,49.94682],[-97.10284,49.95201],[-97.10638,49.94963]]]}},{"type":"Feature","properties":{"name":"Seven Oaks West"},"geometry":{"type":"Polygon","coordinates":[[[-97.19518,49.9518],[-97.19513,49.96073],[-97.19307,49.96073],[-97.22998,49.96078],[-97.23,49.97563],[-97.16123,49.97559],[-97.16123,49.99031],[-97.15519,49.9903],[-97.1552,49.99393],[-97.14916,49.99401],[-97.09226,49.9685],[-97.10858,49.95841],[-97.13149,49.96884],[-97.13418,49.96784],[-97.14028,49.96163],[-97.17335,49.97206],[-97.17428,49.97216],[-97.16102,49.9681],[-97.16099,49.94708],[-97.15955,49.94659],[-97.1634,49.94159],[-97.19518,49.9518]],[[-97.18852,49.96659],[-97.18027,49.96386],[-97.16102,49.95767],[-97.18852,49.96659]],[[-97.17986,49.97274],[-97.18357,49.97196],[-97.17746,49.97249],[-97.17986,49.97274]]]}},{"type":"Feature","properties":{"name":"St. Boniface East"},"geometry":{"type":"MultiPolygon","coordinates":[[[[-97.08452,49.82904],[-97.08609,49.83051],[-97.08402,49.83183],[-97.08549,49.83247],[-97.08402,49.83319],[-97.08789,49.83314],[-97.08536,49.83454],[-97.08824,49.83481],[-97.08771,49.83572],[-97.08605,49.83559],[-97.08703,49.83683],[-97.08946,49.83646],[-97.08791,49.84075],[-97.08861,49.84179],[-97.08647,49.84248],[-97.08594,49.84203],[-97.08623,49.84366],[-97.08843,49.84333],[-97.08812,49.84499],[-97.08995,49.84435],[-97.09025,49.8463],[-97.09143,49.84605],[-97.0912,49.84706],[-97.09246,49.84672],[-97.09387,49.84755],[-97.09278,49.84836],[-97.09569,49.84889],[-97.09692,49.85197],[-97.09899,49.85123],[-97.09893,49.85216],[-97.09635,49.85265],[-97.09548,49.85367],[-97.09771,49.85373],[-97.09757,49.85502],[-97.096,49.85596],[-97.09722,49.85753],[-97.0927,49.85769],[-97.09713,49.85862],[-97.09517,49.85968],[-97.09743,49.86068],[-97.0953,49.86238],[-97.09785,49.8631],[-97.09521,49.86385],[-97.09792,49.86427],[-97.09548,49.86516],[-97.09775,49.86551],[-97.0976,49.86694],[-97.09946,49.86701],[-97.09121,49.86724],[-97.09936,49.86723],[-97.09965,49.86845],[-97.1011,49.86758],[-97.1016,49.8698],[-97.10313,49.87008],[-97.10276,49.87171],[-97.10067,49.87139],[-97.10093,49.87268],[-97.10287,49.87269],[-97.1033,49.87342],[-97.10451,49.87295],[-97.10408,49.87382],[-97.10242,49.87413],[-97.10494,49.8756],[-97.10122,49.87632],[-97.1019,49.87773],[-97.10081,49.878],[-97.1023,49.87859],[-97.10473,49.87807],[-97.10422,49.87947],[-97.10566,49.8802],[-97.10299,49.88059],[-97.10499,49.88135],[-97.10488,49.88213],[-97.10334,49.88332],[-97.10674,49.88412],[-97.10491,49.88631],[-97.10741,49.88655],[-97.10556,49.88757],[-97.10716,49.88798],[-97.10732,49.88868],[-97.10546,49.88866],[-97.10528,49.8898],[-97.10397,49.89018],[-97.10592,49.89229],[-97.10389,49.89274],[-97.10721,49.89921],[-97.09983,49.8993],[-97.03414,49.8876],[-97.03375,49.886],[-97.03098,49.886],[-97.03097,49.885],[-97.03,49.885],[-97.02999,49.8784],[-97.02697,49.8784],[-97.02673,49.8409],[-97.04985,49.8409],[-97.02701,49.8409],[-97.02668,49.82293],[-97.02567,49.82243],[-97.06598,49.80893],[-97.06757,49.81119],[-97.06891,49.81113],[-97.06798,49.8121],[-97.06941,49.8122],[-97.06828,49.81386],[-97.07257,49.81312],[-97.07236,49.81439],[-97.0712,49.81426],[-97.07144,49.81573],[-97.07313,49.81705],[-97.07341,49.81597],[-97.07493,49.81628],[-97.07514,49.81765],[-97.07663,49.81648],[-97.07699,49.81857],[-97.07629,49.81891],[-97.07755,49.81898],[-97.07703,49.8198],[-97.07846,49.81952],[-97.07707,49.82043],[-97.0779,49.8211],[-97.07758,49.82174],[-97.08152,49.82175],[-97.08009,49.82379],[-97.08254,49.8237],[-97.08061,49.82645],[-97.08221,49.82683],[-97.08145,49.82842],[-97.08362,49.82869],[-97.08333,49.82949],[-97.08452,49.82904]],[[-97.10088,49.88577],[-97.09879,49.88192],[-97.10074,49.88577],[-97.10525,49.88577],[-97.10088,49.88577]],[[-97.04985,49.8409],[-97.04985,49.84067],[-97.04986,49.82506],[-97.04983,49.81944],[-97.04985,49.8409]],[[-97.07035,49.82895],[-97.07633,49.84064],[-97.06101,49.81067],[-97.07035,49.82895]],[[-97.0722,49.88593],[-97.0722,49.87361],[-97.09443,49.87347],[-97.07182,49.87361],[-97.0722,49.88593]],[[-97.07132,49.871],[-97.05659,49.8602],[-97.07132,49.87101],[-97.07132,49.871]],[[-97.055,49.8473],[-97.06088,49.84953],[-97.055,49.8473],[-97.055,49.8473]],[[-97.04956,49.85603],[-97.04958,49.85603],[-97.03442,49.85603],[-97.04956,49.85603]],[[-97.05743,49.82698],[-97.05678,49.82688],[-97.05721,49.82713],[-97.05743,49.82698]]],[[[-97.10572,49.89625],[-97.10389,49.89274],[-97.10952,49.89222],[-97.10967,49.89531],[-97.10572,49.89625]]]]}},{"type":"Feature","properties":{"name":"St. Boniface West"},"geometry":{"type":"MultiPolygon","coordinates":[[[[-97.12681,49.88578],[-97.12568,49.88869],[-97.12731,49.89123],[-97.10967,49.89531],[-97.10952,49.89222],[-97.10619,49.89258],[-97.10425,49.89086],[-97.10404,49.89],[-97.10528,49.8898],[-97.10546,49.88866],[-97.10742,49.88856],[-97.10556,49.88757],[-97.10742,49.88662],[-97.10485,49.88624],[-97.10658,49.8839],[-97.10529,49.88418],[-97.1033,49.88314],[-97.10488,49.88213],[-97.10499,49.88135],[-97.10299,49.88059],[-97.10566,49.8802],[-97.10422,49.87947],[-97.10473,49.87807],[-97.1023,49.87859],[-97.10081,49.878],[-97.1019,49.87773],[-97.10122,49.87632],[-97.10494,49.8756],[-97.10366,49.87482],[-97.11664,49.87063],[-97.12221,49.87107],[-97.13231,49.87005],[-97.13611,49.87112],[-97.13731,49.87293],[-97.13696,49.87586],[-97.13517,49.8785],[-97.13029,49.88275],[-97.12681,49.88578]],[[-97.12796,49.88124],[-97.13029,49.88275],[-97.12509,49.87831],[-97.12796,49.88124]],[[-97.11712,49.87453],[-97.11739,49.87466],[-97.11354,49.87166],[-97.11712,49.87453]]],[[[-97.13111,49.89805],[-97.12959,49.89937],[-97.12396,49.9009],[-97.11186,49.9005],[-97.10985,49.90107],[-97.1086,49.90269],[-97.10614,49.90259],[-97.1074,49.89959],[-97.10572,49.89625],[-97.12731,49.89123],[-97.13121,49.89616],[-97.13111,49.89805]]]]}},{"type":"Feature","properties":{"name":"St. James-Assiniboia East"},"geometry":{"type":"Polygon","coordinates":[[[-97.24386,49.87507],[-97.2458,49.87397],[-97.25257,49.87357],[-97.25967,49.87176],[-97.2658,49.87196],[-97.27282,49.86964],[-97.27753,49.87007],[-97.2803,49.86949],[-97.28007,49.87151],[-97.27817,49.87156],[-97.27758,49.87569],[-97.27958,49.87579],[-97.27703,49.90164],[-97.26466,49.90245],[-97.26355,49.91657],[-97.22986,49.91658],[-97.22986,49.93309],[-97.20676,49.92694],[-97.20676,49.91645],[-97.21395,49.91645],[-97.1951,49.91646],[-97.18965,49.91114],[-97.1864,49.9101],[-97.19206,49.90241],[-97.19311,49.89399],[-97.20154,49.89425],[-97.20234,49.88432],[-97.20618,49.88365],[-97.2057,49.8906],[-97.20633,49.88193],[-97.20305,49.87684],[-97.20759,49.87676],[-97.20829,49.87622],[-97.20836,49.87429],[-97.20933,49.87373],[-97.21447,49.87433],[-97.22219,49.87318],[-97.22995,49.87546],[-97.24386,49.87507]],[[-97.26167,49.88966],[-97.23722,49.88868],[-97.22249,49.88811],[-97.2225,49.88996],[-97.22267,49.88812],[-97.25918,49.88957],[-97.27774,49.89386],[-97.26167,49.88966]],[[-97.26293,49.87539],[-97.26594,49.87615],[-97.26078,49.8748],[-97.26293,49.87539]],[[-97.22302,49.88377],[-97.22247,49.8843],[-97.22303,49.88432],[-97.22302,49.88377]],[[-97.22254,49.88368],[-97.22302,49.8837],[-97.22297,49.87907],[-97.22254,49.88368]],[[-97.2253,49.87853],[-97.22347,49.87863],[-97.22297,49.87907],[-97.2253,49.87853]]]}},{"type":"Feature","properties":{"name":"St. James-Assiniboia West"},"geometry":{"type":"MultiPolygon","coordinates":[[[[-97.27958,49.87579],[-97.27758,49.87569],[-97.27817,49.87156],[-97.28007,49.87151],[-97.2803,49.86949],[-97.27956,49.86929],[-97.28029,49.86728],[-97.27802,49.86202],[-97.27834,49.86076],[-97.28115,49.85913],[-97.28506,49.85962],[-97.28803,49.86291],[-97.29039,49.86371],[-97.29783,49.86388],[-97.31192,49.86707],[-97.31279,49.87019],[-97.31199,49.87025],[-97.31596,49.87219],[-97.31951,49.87265],[-97.32163,49.87215],[-97.32554,49.86897],[-97.32742,49.86892],[-97.32651,49.86867],[-97.33894,49.86561],[-97.33759,49.87928],[-97.34351,49.87857],[-97.34154,49.89843],[-97.32267,49.89884],[-97.31496,49.8992],[-97.27703,49.90164],[-97.27958,49.87579]],[[-97.32359,49.88963],[-97.32357,49.88967],[-97.32267,49.89884],[-97.32359,49.88963]],[[-97.32574,49.88525],[-97.32577,49.88499],[-97.32465,49.88738],[-97.32574,49.88525]]],[[[-97.29849,49.92923],[-97.29851,49.93131],[-97.26231,49.93134],[-97.26473,49.90245],[-97.32267,49.89884],[-97.31981,49.91994],[-97.32119,49.92937],[-97.29849,49.92923]]]]}},{"type":"Feature","properties":{"name":"St. Vital North"},"geometry":{"type":"Polygon","coordinates":[[[-97.14272,49.82164],[-97.14817,49.82787],[-97.14825,49.8304],[-97.14641,49.83193],[-97.14293,49.83221],[-97.1356,49.83114],[-97.13288,49.83187],[-97.13123,49.83342],[-97.13188,49.83592],[-97.13718,49.84014],[-97.13752,49.84176],[-97.13613,49.84315],[-97.13171,49.84356],[-97.12308,49.84152],[-97.11972,49.84324],[-97.11943,49.84467],[-97.12029,49.84612],[-97.13124,49.85228],[-97.1356,49.85237],[-97.14273,49.85011],[-97.14492,49.85067],[-97.14543,49.85176],[-97.14469,49.85301],[-97.14205,49.85416],[-97.12661,49.85566],[-97.11754,49.85932],[-97.11484,49.86215],[-97.11278,49.86613],[-97.11343,49.86897],[-97.11664,49.87063],[-97.10366,49.87482],[-97.10242,49.87413],[-97.10408,49.87382],[-97.10451,49.87295],[-97.1033,49.87342],[-97.10287,49.87269],[-97.10093,49.87268],[-97.10067,49.87139],[-97.10276,49.87171],[-97.10307,49.86991],[-97.1016,49.8698],[-97.1011,49.86758],[-97.09965,49.86845],[-97.09944,49.86685],[-97.0976,49.86694],[-97.09755,49.86534],[-97.09549,49.86529],[-97.09792,49.86427],[-97.09521,49.86385],[-97.09786,49.86301],[-97.09541,49.86262],[-97.09743,49.86068],[-97.09516,49.85975],[-97.09713,49.85862],[-97.09486,49.85782],[-97.09722,49.85753],[-97.096,49.85596],[-97.09773,49.85442],[-97.09751,49.85356],[-97.0964,49.85414],[-97.09551,49.85363],[-97.09908,49.85174],[-97.0985,49.85113],[-97.09692,49.85197],[-97.09554,49.84881],[-97.09267,49.84824],[-97.09385,49.84771],[-97.09337,49.84714],[-97.0912,49.84706],[-97.09143,49.84605],[-97.09025,49.8463],[-97.08995,49.84435],[-97.08797,49.84491],[-97.08826,49.84321],[-97.08623,49.84366],[-97.08594,49.84203],[-97.08647,49.84248],[-97.08861,49.84179],[-97.08791,49.84075],[-97.08873,49.83935],[-97.09287,49.83826],[-97.11505,49.83071],[-97.14272,49.82164]],[[-97.12445,49.85247],[-97.12428,49.85235],[-97.12661,49.85566],[-97.12445,49.85247]],[[-97.09505,49.84251],[-97.09903,49.84884],[-97.10393,49.8553],[-97.09778,49.84686],[-97.09287,49.83826],[-97.09505,49.84251]],[[-97.11248,49.837],[-97.11245,49.83853],[-97.11305,49.83581],[-97.11505,49.83071],[-97.11248,49.837]],[[-97.11787,49.84098],[-97.1178,49.84075],[-97.11305,49.83581],[-97.11787,49.84098]],[[-97.11232,49.85772],[-97.11101,49.86441],[-97.1108,49.86593],[-97.11232,49.85772]],[[-97.11802,49.84152],[-97.11658,49.84444],[-97.11663,49.84457],[-97.11815,49.84195],[-97.11802,49.84152]],[[-97.11788,49.84753],[-97.11792,49.84758],[-97.11779,49.84734],[-97.11788,49.84753]],[[-97.11891,49.84857],[-97.12015,49.84981],[-97.12383,49.85203],[-97.11891,49.84857]]]}},{"type":"Feature","properties":{"name":"St. Vital South"},"geometry":{"type":"MultiPolygon","coordinates":[[[[-97.14056,49.75715],[-97.13923,49.77133],[-97.14014,49.77366],[-97.14453,49.774],[-97.15202,49.7704],[-97.15392,49.77093],[-97.15473,49.77212],[-97.15338,49.77438],[-97.14516,49.77732],[-97.13304,49.77881],[-97.13148,49.78094],[-97.13517,49.78456],[-97.13638,49.78689],[-97.13549,49.78944],[-97.12925,49.79722],[-97.12554,49.79701],[-97.12117,49.79317],[-97.11962,49.79299],[-97.11695,49.79419],[-97.11516,49.79388],[-97.11558,49.79204],[-97.02567,49.82243],[-97.02668,49.82066],[-97.02639,49.79734],[-97.03861,49.79735],[-97.04911,49.79281],[-97.04907,49.78306],[-97.04345,49.78302],[-97.04344,49.77615],[-97.08357,49.76271],[-97.08341,49.75325],[-97.08193,49.75325],[-97.12899,49.73738],[-97.12738,49.74244],[-97.12794,49.74527],[-97.13095,49.74905],[-97.13804,49.75368],[-97.14056,49.75715]]],[[[-97.11525,49.81281],[-97.11589,49.81474],[-97.11994,49.81675],[-97.12402,49.81662],[-97.13186,49.81321],[-97.13546,49.81289],[-97.13939,49.8136],[-97.14182,49.81626],[-97.14272,49.82164],[-97.08873,49.83935],[-97.08946,49.83646],[-97.08703,49.83683],[-97.08605,49.83559],[-97.08771,49.83572],[-97.08824,49.83481],[-97.08536,49.83454],[-97.08789,49.83314],[-97.08402,49.83319],[-97.08549,49.83247],[-97.08402,49.83183],[-97.08609,49.83051],[-97.08452,49.82904],[-97.08333,49.82949],[-97.08362,49.82869],[-97.0814,49.82835],[-97.0957,49.82346],[-97.08198,49.828],[-97.08221,49.82683],[-97.08057,49.82663],[-97.08254,49.8237],[-97.08009,49.82379],[-97.08152,49.82175],[-97.07773,49.82188],[-97.07707,49.82043],[-97.07846,49.81952],[-97.07703,49.8198],[-97.07755,49.81898],[-97.07629,49.81891],[-97.07699,49.81857],[-97.07663,49.81648],[-97.07535,49.81764],[-97.07539,49.81661],[-97.07454,49.8161],[-97.07341,49.81597],[-97.07356,49.8168],[-97.07288,49.81692],[-97.07144,49.81573],[-97.07116,49.81435],[-97.07236,49.81439],[-97.07251,49.81308],[-97.06817,49.81379],[-97.06941,49.8122],[-97.06798,49.8121],[-97.06891,49.81113],[-97.06757,49.81119],[-97.06598,49.80893],[-97.11558,49.79204],[-97.11496,49.79385],[-97.11695,49.79419],[-97.11641,49.7959],[-97.11834,49.7988],[-97.12873,49.80335],[-97.1299,49.80476],[-97.1297,49.80618],[-97.12815,49.80744],[-97.11691,49.81099],[-97.11525,49.81281]],[[-97.11325,49.82017],[-97.11326,49.82017],[-97.11996,49.81792],[-97.11325,49.82017]]]]}},{"type":"Feature","properties":{"name":"Transcona"},"geometry":{"type":"Polygon","coordinates":[[[-97.07117,49.89417],[-97.06619,49.90258],[-97.06323,49.90596],[-97.05821,49.90847],[-97.05677,49.91058],[-97.02498,49.91592],[-96.96639,49.91556],[-96.95675,49.89748],[-96.95653,49.88581],[-96.98108,49.88586],[-96.98107,49.87093],[-97.02695,49.87112],[-97.02697,49.8784],[-97.02999,49.8784],[-97.03,49.885],[-97.03097,49.885],[-97.03098,49.88594],[-97.03372,49.8859],[-97.03414,49.8876],[-97.07117,49.89417]],[[-97.03441,49.90698],[-97.03432,49.90654],[-97.03445,49.91419],[-97.03441,49.90698]],[[-97.01129,49.90722],[-97.00495,49.90906],[-97.00689,49.9085],[-97.01129,49.90722]],[[-97.00248,49.90978],[-97.00264,49.90034],[-97.00248,49.90978],[-97.00248,49.90978]],[[-97.02536,49.89362],[-97.02588,49.88602],[-97.02536,49.89348],[-96.96829,49.89335],[-97.02536,49.89362]],[[-97.02723,49.886],[-97.01756,49.88599],[-97.02588,49.88602],[-97.02723,49.886]],[[-96.9791,49.90604],[-96.97975,49.89805],[-96.97907,49.90592],[-96.9791,49.90604]],[[-96.97987,49.90814],[-96.97927,49.90667],[-96.97966,49.90814],[-96.97987,49.90814]],[[-96.99206,49.91371],[-96.99528,49.91194],[-96.9944,49.9122],[-96.99206,49.91371]]]}}]}