{"type":"FeatureCollection", "features": [
{"type":"Feature","geometry":{"type":"Polygon","coordinates":[[[-110.003,50.8347],[-110.0811,50.7934],[-110.0517,50.7511],[-110.1395,50.719],[-110.1304,50.6786],[-110.1962,50.6314],[-110.2782,50.6181],[-110.2821,50.7034],[-110.8153,50.7076],[-111.0645,50.703],[-111.3892,50.7032],[-111.3793,50.572],[-111.3794,50.2227],[-111.3702,50.1358],[-111.669,50.1336],[-111.5781,50.0427],[-111.5882,49.9983],[-111.6953,49.9461],[-111.642,49.8963],[-111.5425,49.924],[-111.4709,49.902],[-111.418,49.9214],[-111.2851,50.0484],[-111.1314,50.0695],[-110.9937,50.0182],[-110.9858,49.7857],[-110.8185,49.7847],[-110.8174,49.7278],[-110.7726,49.727],[-110.7732,49.6695],[-110.6144,49.6696],[-110.6142,49.6113],[-110.5691,49.6109],[-110.5441,49.5226],[-110.5449,49.2313],[-110.6797,49.2293],[-110.6738,48.9987],[-110.005,48.9997],[-110.0045,49.5329],[-110.0042,49.9599],[-110.0049,50.339],[-110.003,50.8347]]]},"properties":{"id":"4801003","name":"Cypress County"}},
{"type":"Feature","geometry":{"type":"Polygon","coordinates":[[[-110.6738,48.9987],[-110.6797,49.2293],[-110.5449,49.2313],[-110.5441,49.5226],[-110.5691,49.6109],[-110.6142,49.6113],[-110.6144,49.6696],[-110.7732,49.6695],[-110.7726,49.727],[-110.8174,49.7278],[-110.8185,49.7847],[-110.9858,49.7857],[-110.9937,50.0182],[-111.1314,50.0695],[-111.2851,50.0484],[-111.418,49.9214],[-111.4709,49.902],[-111.5425,49.924],[-111.642,49.8963],[-111.6303,49.8731],[-111.6305,49.5303],[-111.9016,49.5673],[-111.8891,49.5236],[-111.889,49.3499],[-111.7545,49.3485],[-111.7545,49.261],[-111.4408,49.2611],[-111.4307,49.1328],[-111.3416,49.1359],[-111.3409,48.9972],[-110.6738,48.9987]]]},"properties":{"id":"4801008","name":"Forty Mile County No. 8"}},
{"type":"Feature","geometry":{"type":"Polygon","coordinates":[[[-112.2178,49.611],[-112.3077,49.6112],[-112.3077,49.5674],[-112.556,49.5671],[-112.5785,49.5382],[-112.7349,49.5378],[-112.7796,49.5523],[-112.7518,49.4359],[-112.7524,49.3338],[-112.6962,49.334],[-112.6954,49.174],[-112.4085,49.1735],[-112.4107,48.9987],[-111.5461,48.9967],[-111.3409,48.9972],[-111.3416,49.1359],[-111.4307,49.1328],[-111.4408,49.2611],[-111.7545,49.261],[-111.7545,49.3485],[-111.889,49.3499],[-111.8891,49.5236],[-111.9016,49.5673],[-112.0369,49.5758],[-112.082,49.5966],[-112.2178,49.611]]]},"properties":{"id":"4802001","name":"Warner County No. 5"}},
{"type":"Feature","geometry":{"type":"Polygon","coordinates":[[[-112.6435,50.1353],[-112.8124,50.1353],[-112.8141,50.077],[-112.9164,50.0625],[-113.1881,50.0627],[-113.2768,50.0484],[-113.2768,49.9076],[-113.2326,49.9095],[-113.2307,49.8496],[-113.1761,49.7865],[-113.1435,49.7968],[-113.0382,49.7682],[-112.9994,49.75],[-112.9805,49.6884],[-112.9313,49.6546],[-112.9124,49.604],[-112.7796,49.5523],[-112.7349,49.5378],[-112.5785,49.5382],[-112.556,49.5671],[-112.3077,49.5674],[-112.3077,49.6112],[-112.2178,49.611],[-112.2746,49.6619],[-112.4206,49.6984],[-112.4429,49.7195],[-112.4429,49.8645],[-112.4605,49.8773],[-112.4614,50.0771],[-112.5069,50.0771],[-112.5069,50.1354],[-112.6435,50.1353]]]},"properties":{"id":"4802011","name":"Lethbridge County"}},
{"type":"Feature","geometry":{"type":"Polygon","coordinates":[[[-112.1692,50.3111],[-112.433,50.3101],[-112.4329,50.2663],[-112.5248,50.2659],[-112.5524,50.1936],[-112.6434,50.1935],[-112.6435,50.1353],[-112.5069,50.1354],[-112.5069,50.0771],[-112.4614,50.0771],[-112.4605,49.8773],[-112.4429,49.8645],[-112.4429,49.7195],[-112.4206,49.6984],[-112.2746,49.6619],[-112.2178,49.611],[-112.082,49.5966],[-112.0369,49.5758],[-111.9016,49.5673],[-111.6305,49.5303],[-111.6303,49.8731],[-111.642,49.8963],[-111.6953,49.9461],[-111.5882,49.9983],[-111.5781,50.0427],[-111.669,50.1336],[-111.7677,50.1261],[-111.8497,50.1489],[-111.9852,50.212],[-112.0683,50.1987],[-112.0927,50.2803],[-112.1692,50.3111]]]},"properties":{"id":"4802021","name":"Taber"}},
{"type":"Feature","geometry":{"type":"Polygon","coordinates":[[[-111.3892,50.7032],[-111.4163,50.7534],[-111.4737,50.7763],[-111.5649,50.7691],[-111.6197,50.8504],[-111.6843,50.8598],[-111.8038,50.8357],[-111.8546,50.9071],[-111.9713,50.9282],[-111.9171,50.9737],[-112.0007,51.094],[-112.0657,51.1121],[-112.1243,51.1571],[-112.2373,51.2133],[-112.2376,51.0961],[-112.3772,51.0961],[-112.3771,51.0089],[-112.5166,51.0087],[-112.5167,50.9213],[-112.6352,50.9214],[-112.6342,50.8341],[-112.6134,50.813],[-112.4975,50.7911],[-112.4978,50.747],[-112.5584,50.7467],[-112.4886,50.6362],[-112.3714,50.6057],[-112.3939,50.557],[-112.3523,50.5379],[-112.3666,50.49],[-112.3049,50.4304],[-112.1842,50.4324],[-112.1692,50.3111],[-112.0927,50.2803],[-112.0683,50.1987],[-111.9852,50.212],[-111.8497,50.1489],[-111.7677,50.1261],[-111.669,50.1336],[-111.3702,50.1358],[-111.3794,50.2227],[-111.3793,50.572],[-111.3892,50.7032]]]},"properties":{"id":"4802031","name":"Newell County"}},
{"type":"Feature","geometry":{"type":"Polygon","coordinates":[[[-113.0382,49.7682],[-113.104,49.7313],[-113.1822,49.7254],[-113.1967,49.6831],[-113.2614,49.6519],[-113.2826,49.6129],[-113.2375,49.5819],[-113.2861,49.5244],[-113.4046,49.4427],[-113.577,49.4087],[-113.655,49.3791],[-113.6817,49.2797],[-113.7611,49.2366],[-113.7597,49.207],[-113.8086,49.132],[-113.7883,49.0734],[-113.6534,49.0725],[-113.6533,48.9978],[-112.9432,48.9985],[-112.4107,48.9987],[-112.4085,49.1735],[-112.6954,49.174],[-112.6962,49.334],[-112.7524,49.3338],[-112.7518,49.4359],[-112.7796,49.5523],[-112.9124,49.604],[-112.9313,49.6546],[-112.9805,49.6884],[-112.9994,49.75],[-113.0382,49.7682]]]},"properties":{"id":"4803001","name":"Cardston County"}},
{"type":"Feature","geometry":{"type":"Polygon","coordinates":[[[-113.9989,49.8425],[-114.228,49.8445],[-114.3398,49.874],[-114.3179,49.8009],[-114.3178,49.5821],[-114.2945,49.5388],[-114.3925,49.5007],[-114.4664,49.518],[-114.5091,49.5743],[-114.5736,49.5575],[-114.5947,49.5028],[-114.5984,49.4126],[-114.5669,49.3769],[-114.4876,49.3473],[-114.4479,49.2644],[-114.3935,49.2572],[-114.4021,49.2133],[-114.3456,49.1936],[-114.1749,49.1636],[-114.1531,49.0995],[-114.081,49.0597],[-114.0683,48.9989],[-113.6533,48.9978],[-113.6534,49.0725],[-113.7883,49.0734],[-113.8086,49.132],[-113.7597,49.207],[-113.7611,49.2366],[-113.6817,49.2797],[-113.655,49.3791],[-113.577,49.4087],[-113.5783,49.4798],[-113.5249,49.48],[-113.5246,49.6984],[-114.0014,49.6986],[-113.9989,49.8425]]]},"properties":{"id":"4803011","name":"Pincher Creek No. 9"}},
{"type":"Feature","geometry":{"type":"Polygon","coordinates":[[[-113.5628,50.4116],[-113.8281,50.4114],[-113.827,50.3972],[-114.208,50.3972],[-114.2078,50.3096],[-114.0699,50.31],[-114.0679,50.1933],[-113.9994,50.1937],[-113.9989,49.8425],[-114.0014,49.6986],[-113.5246,49.6984],[-113.5249,49.48],[-113.5783,49.4798],[-113.577,49.4087],[-113.4046,49.4427],[-113.2861,49.5244],[-113.2375,49.5819],[-113.2826,49.6129],[-113.2614,49.6519],[-113.1967,49.6831],[-113.1822,49.7254],[-113.104,49.7313],[-113.0382,49.7682],[-113.1435,49.7968],[-113.1761,49.7865],[-113.2307,49.8496],[-113.2326,49.9095],[-113.2768,49.9076],[-113.2768,50.0484],[-113.2766,50.1357],[-113.3212,50.2002],[-113.3858,50.2116],[-113.5571,50.3674],[-113.5628,50.4116]]]},"properties":{"id":"4803018","name":"Willow Creek No. 26"}},
{"type":"Feature","geometry":{"type":"Polygon","coordinates":[[[-112.0036,51.9691],[-112.017,51.927],[-111.9894,51.8818],[-112.1546,51.8818],[-112.2026,51.853],[-112.1783,51.8089],[-112.1075,51.7648],[-112.1146,51.5908],[-112.2553,51.5907],[-112.2539,51.4161],[-112.4435,51.4159],[-112.5133,51.4014],[-112.4532,51.3235],[-112.3609,51.2963],[-112.2373,51.2133],[-112.1243,51.1571],[-112.0657,51.1121],[-112.0007,51.094],[-111.9171,50.9737],[-111.9713,50.9282],[-111.8546,50.9071],[-111.8038,50.8357],[-111.6843,50.8598],[-111.6197,50.8504],[-111.5649,50.7691],[-111.4737,50.7763],[-111.4163,50.7534],[-111.3892,50.7032],[-111.0645,50.703],[-110.8153,50.7076],[-110.2821,50.7034],[-110.2782,50.6181],[-110.1962,50.6314],[-110.1304,50.6786],[-110.1395,50.719],[-110.0517,50.7511],[-110.0811,50.7934],[-110.003,50.8347],[-110.0047,50.9646],[-110.0562,50.9671],[-110.2459,50.8963],[-110.3816,50.9265],[-110.4626,50.8687],[-110.5413,50.8428],[-110.5985,50.8574],[-110.6872,50.8448],[-110.8188,50.8699],[-110.8397,50.9112],[-110.9127,50.9428],[-111.1111,50.9021],[-111.1931,50.8398],[-111.2517,50.8811],[-111.2609,50.9216],[-111.2596,51.2124],[-111.2709,51.2706],[-111.271,51.62],[-111.2797,51.7068],[-111.2797,51.9678],[-111.2907,51.9677],[-112.0036,51.9691]]]},"properties":{"id":"4804004","name":"Special Area No. 2"}},
{"type":"Feature","geometry":{"type":"Polygon","coordinates":[[[-110.0056,51.7071],[-110.6664,51.7072],[-111.2797,51.7068],[-111.271,51.62],[-111.2709,51.2706],[-111.2596,51.2124],[-111.2609,50.9216],[-111.2517,50.8811],[-111.1931,50.8398],[-111.1111,50.9021],[-110.9127,50.9428],[-110.8397,50.9112],[-110.8188,50.8699],[-110.6872,50.8448],[-110.5985,50.8574],[-110.5413,50.8428],[-110.4626,50.8687],[-110.3816,50.9265],[-110.2459,50.8963],[-110.0562,50.9671],[-110.0047,50.9646],[-110.0056,51.7071]]]},"properties":{"id":"4804012","name":"Special Area No. 3"}},
{"type":"Feature","geometry":{"type":"Polygon","coordinates":[[[-110.005,52.0556],[-110.2196,52.0556],[-110.2191,52.1139],[-110.3626,52.1138],[-110.3621,52.2304],[-111.0042,52.2301],[-111.1477,52.2303],[-111.1458,52.1722],[-111.2429,52.143],[-111.2423,51.9829],[-111.2907,51.9677],[-111.2797,51.9678],[-111.2797,51.7068],[-110.6664,51.7072],[-110.0056,51.7071],[-110.005,52.0556]]]},"properties":{"id":"4804020","name":"Special Area No. 4"}},
{"type":"Feature","geometry":{"type":"Polygon","coordinates":[[[-112.6134,50.813],[-112.7385,50.8042],[-112.83,50.8155],[-112.8935,50.8462],[-113.0075,50.8535],[-113.1217,50.8845],[-113.1786,50.922],[-113.2715,50.9488],[-113.3121,50.8508],[-113.3863,50.82],[-113.422,50.8316],[-113.4902,50.7989],[-113.4904,50.5721],[-113.5984,50.5721],[-113.5987,50.4539],[-113.5628,50.4116],[-113.5571,50.3674],[-113.3858,50.2116],[-113.3212,50.2002],[-113.2766,50.1357],[-113.2768,50.0484],[-113.1881,50.0627],[-112.9164,50.0625],[-112.8141,50.077],[-112.8124,50.1353],[-112.6435,50.1353],[-112.6434,50.1935],[-112.5524,50.1936],[-112.5248,50.2659],[-112.4329,50.2663],[-112.433,50.3101],[-112.1692,50.3111],[-112.1842,50.4324],[-112.3049,50.4304],[-112.3666,50.49],[-112.3523,50.5379],[-112.3939,50.557],[-112.3714,50.6057],[-112.4886,50.6362],[-112.5584,50.7467],[-112.4978,50.747],[-112.4975,50.7911],[-112.6134,50.813]]]},"properties":{"id":"4805001","name":"Vulcan County"}},
{"type":"Feature","geometry":{"type":"Polygon","coordinates":[[[-112.6745,51.3724],[-112.7829,51.3321],[-112.8882,51.3219],[-112.8882,51.387],[-113.3804,51.3869],[-113.3767,51.2419],[-113.4933,51.2421],[-113.4934,51.1834],[-113.5859,51.1835],[-113.6328,51.1252],[-113.6334,50.9221],[-113.606,50.9215],[-113.6062,50.7947],[-113.4902,50.7989],[-113.422,50.8316],[-113.3863,50.82],[-113.3121,50.8508],[-113.2715,50.9488],[-113.1786,50.922],[-113.1217,50.8845],[-113.0075,50.8535],[-112.8935,50.8462],[-112.83,50.8155],[-112.7385,50.8042],[-112.6134,50.813],[-112.6342,50.8341],[-112.6352,50.9214],[-112.5167,50.9213],[-112.5166,51.0087],[-112.3771,51.0089],[-112.3772,51.0961],[-112.2376,51.0961],[-112.2373,51.2133],[-112.3609,51.2963],[-112.4532,51.3235],[-112.5398,51.3774],[-112.63,51.3867],[-112.6745,51.3724]]]},"properties":{"id":"4805012","name":"Wheatland County"}},
{"type":"Feature","geometry":{"type":"Polygon","coordinates":[[[-112.2026,51.853],[-112.3672,51.8819],[-112.6976,51.8817],[-112.6975,51.9109],[-112.8382,51.9248],[-112.9837,51.9251],[-113.0362,51.8657],[-112.976,51.7931],[-112.9126,51.6588],[-112.8737,51.6059],[-112.889,51.5425],[-112.7943,51.4595],[-112.6771,51.4161],[-112.6745,51.3724],[-112.63,51.3867],[-112.5398,51.3774],[-112.4532,51.3235],[-112.5133,51.4014],[-112.4435,51.4159],[-112.2539,51.4161],[-112.2553,51.5907],[-112.1146,51.5908],[-112.1075,51.7648],[-112.1783,51.8089],[-112.2026,51.853]]]},"properties":{"id":"4805031","name":"Starland County"}},
{"type":"Feature","geometry":{"type":"Polygon","coordinates":[[[-112.9121,51.9695],[-113.291,51.9689],[-113.291,51.9831],[-113.4809,51.9831],[-113.4773,51.9549],[-113.6427,51.9545],[-113.6426,51.8965],[-113.7135,51.8963],[-113.7133,51.7805],[-113.7357,51.7514],[-113.6426,51.6782],[-113.6616,51.6199],[-113.6617,51.4451],[-113.3804,51.4451],[-113.3804,51.3869],[-112.8882,51.387],[-112.8882,51.3219],[-112.7829,51.3321],[-112.6745,51.3724],[-112.6771,51.4161],[-112.7943,51.4595],[-112.889,51.5425],[-112.8737,51.6059],[-112.9126,51.6588],[-112.976,51.7931],[-113.0362,51.8657],[-112.9837,51.9251],[-112.9121,51.9695]]]},"properties":{"id":"4805041","name":"Kneehill County"}},
{"type":"Feature","geometry":{"type":"Polygon","coordinates":[[[-114.2098,50.9214],[-114.6241,50.9213],[-114.556,50.8928],[-114.5329,50.8193],[-114.533,50.7033],[-114.4637,50.7031],[-114.4638,50.6013],[-114.4833,50.5439],[-114.5294,50.5455],[-114.5289,50.4553],[-114.506,50.3682],[-114.4604,50.3246],[-114.3915,50.3099],[-114.2078,50.3096],[-114.208,50.3972],[-113.827,50.3972],[-113.8281,50.4114],[-113.5628,50.4116],[-113.5987,50.4539],[-113.5984,50.5721],[-113.4904,50.5721],[-113.4902,50.7989],[-113.6062,50.7947],[-113.7952,50.8196],[-113.8602,50.8553],[-114.071,50.8489],[-114.0939,50.8905],[-114.2097,50.8923],[-114.2098,50.9214]]]},"properties":{"id":"4806001","name":"Foothills County"}},
{"type":"Feature","geometry":{"type":"Polygon","coordinates":[[[-113.6617,51.4451],[-113.8024,51.4451],[-113.896,51.4596],[-113.8962,51.4886],[-114.0721,51.4894],[-114.1892,51.4747],[-114.1894,51.4456],[-114.7042,51.4457],[-114.7033,51.2995],[-114.7214,51.2121],[-114.5589,51.2125],[-114.5588,51.1688],[-114.6984,51.1557],[-114.6987,51.0085],[-114.6763,50.936],[-114.6241,50.9213],[-114.2098,50.9214],[-114.1407,50.9213],[-114.1411,51.0083],[-114.2343,51.009],[-114.2343,51.0815],[-114.2911,51.1199],[-114.211,51.1978],[-114.1295,51.2124],[-114.013,51.2126],[-114.0015,51.1835],[-113.9119,51.1834],[-113.9119,51.0596],[-113.8654,51.06],[-113.8602,50.8553],[-113.7952,50.8196],[-113.6062,50.7947],[-113.606,50.9215],[-113.6334,50.9221],[-113.6328,51.1252],[-113.5859,51.1835],[-113.4934,51.1834],[-113.4933,51.2421],[-113.3767,51.2419],[-113.3804,51.3869],[-113.3804,51.4451],[-113.6617,51.4451]]]},"properties":{"id":"4806014","name":"Rocky View County"}},
{"type":"Feature","geometry":{"type":"Polygon","coordinates":[[[-113.8602,50.8553],[-113.8654,51.06],[-113.9119,51.0596],[-113.9119,51.1834],[-114.0015,51.1835],[-114.013,51.2126],[-114.1295,51.2124],[-114.211,51.1978],[-114.2911,51.1199],[-114.2343,51.0815],[-114.2343,51.009],[-114.1411,51.0083],[-114.1407,50.9213],[-114.2098,50.9214],[-114.2097,50.8923],[-114.0939,50.8905],[-114.071,50.8489],[-113.8602,50.8553]]]},"properties":{"id":"4806016","name":"Calgary"}},
{"type":"Feature","geometry":{"type":"Polygon","coordinates":[[[-114.4976,51.9397],[-114.5182,51.9157],[-114.758,51.9262],[-114.7931,51.8967],[-114.9944,51.8892],[-114.9697,51.809],[-114.923,51.7644],[-114.8516,51.7643],[-114.843,51.7074],[-114.7805,51.7078],[-114.7817,51.6495],[-114.7102,51.6495],[-114.7042,51.4457],[-114.1894,51.4456],[-114.1892,51.4747],[-114.0721,51.4894],[-113.8962,51.4886],[-113.896,51.4596],[-113.8024,51.4451],[-113.6617,51.4451],[-113.6616,51.6199],[-113.6426,51.6782],[-113.7357,51.7514],[-113.7133,51.7805],[-113.7135,51.8963],[-113.8316,51.8818],[-114.1671,51.8824],[-114.1907,51.9115],[-114.4505,51.9115],[-114.4976,51.9397]]]},"properties":{"id":"4806028","name":"Mountain View County"}},
{"type":"Feature","geometry":{"type":"Polygon","coordinates":[[[-111.1893,52.7309],[-111.2515,52.6974],[-111.2513,52.6445],[-111.3215,52.6131],[-111.2693,52.5064],[-111.3025,52.4624],[-111.3004,52.4049],[-111.1566,52.4044],[-111.1477,52.2885],[-111.0525,52.2884],[-111.0042,52.2301],[-110.3621,52.2304],[-110.3626,52.1138],[-110.2191,52.1139],[-110.2196,52.0556],[-110.005,52.0556],[-110.0044,52.5214],[-110.2214,52.5217],[-110.2688,52.5505],[-110.4306,52.5505],[-110.4368,52.5356],[-110.6053,52.536],[-110.6048,52.6235],[-110.9405,52.6239],[-111.0679,52.6676],[-111.0678,52.6978],[-111.1893,52.6977],[-111.1893,52.7309]]]},"properties":{"id":"4807001","name":"Provost No. 52"}},
{"type":"Feature","geometry":{"type":"Polygon","coordinates":[[[-111.3025,52.4624],[-111.354,52.4262],[-111.4704,52.3855],[-111.5351,52.3861],[-111.6083,52.323],[-111.7063,52.3558],[-111.7554,52.403],[-111.81,52.4093],[-111.9016,52.4511],[-111.974,52.4428],[-112.2599,52.5075],[-112.2602,52.3177],[-112.2432,52.3177],[-112.2432,52.143],[-112.2193,52.0848],[-112.0851,52.0847],[-112.0036,51.9691],[-111.2907,51.9677],[-111.2423,51.9829],[-111.2429,52.143],[-111.1458,52.1722],[-111.1477,52.2303],[-111.0042,52.2301],[-111.0525,52.2884],[-111.1477,52.2885],[-111.1566,52.4044],[-111.3004,52.4049],[-111.3025,52.4624]]]},"properties":{"id":"4807011","name":"Paintearth County No. 18"}},
{"type":"Feature","geometry":{"type":"Polygon","coordinates":[[[-112.3989,52.6679],[-112.5959,52.6681],[-112.6794,52.6382],[-112.6799,52.5797],[-112.7877,52.5798],[-112.8162,52.5322],[-112.7814,52.4921],[-112.9321,52.4921],[-113.0757,52.376],[-113.0932,52.3176],[-113.0711,52.3003],[-113.063,52.208],[-113.0248,52.1798],[-113.0303,52.1258],[-112.968,52.0409],[-112.9151,52.0033],[-112.9121,51.9695],[-112.9837,51.9251],[-112.8382,51.9248],[-112.6975,51.9109],[-112.6976,51.8817],[-112.3672,51.8819],[-112.2026,51.853],[-112.1546,51.8818],[-111.9894,51.8818],[-112.017,51.927],[-112.0036,51.9691],[-112.0851,52.0847],[-112.2193,52.0848],[-112.2432,52.143],[-112.2432,52.3177],[-112.2602,52.3177],[-112.2599,52.5075],[-112.3178,52.5379],[-112.3923,52.6237],[-112.3989,52.6679]]]},"properties":{"id":"4807019","name":"Stettler County No. 6"}},
{"type":"Feature","geometry":{"type":"Polygon","coordinates":[[[-111.1893,52.7309],[-111.1891,52.7553],[-111.31,52.7561],[-111.31,52.8143],[-111.4069,52.8434],[-111.4053,52.9299],[-111.7939,52.9306],[-111.9873,52.9598],[-111.9872,53.0175],[-112.3189,53.0179],[-112.3263,52.7274],[-112.3989,52.6679],[-112.3923,52.6237],[-112.3178,52.5379],[-112.2599,52.5075],[-111.974,52.4428],[-111.9016,52.4511],[-111.81,52.4093],[-111.7554,52.403],[-111.7063,52.3558],[-111.6083,52.323],[-111.5351,52.3861],[-111.4704,52.3855],[-111.354,52.4262],[-111.3025,52.4624],[-111.2693,52.5064],[-111.3215,52.6131],[-111.2513,52.6445],[-111.2515,52.6974],[-111.1893,52.7309]]]},"properties":{"id":"4807031","name":"Flagstaff County"}},
{"type":"Feature","geometry":{"type":"Polygon","coordinates":[[[-111.0296,53.0741],[-111.1506,53.1032],[-111.2108,53.1466],[-111.4294,53.1471],[-111.4309,53.0169],[-111.4053,52.9299],[-111.4069,52.8434],[-111.31,52.8143],[-111.31,52.7561],[-111.1891,52.7553],[-111.1893,52.7309],[-111.1893,52.6977],[-111.0678,52.6978],[-111.0679,52.6676],[-110.9405,52.6239],[-110.6048,52.6235],[-110.6053,52.536],[-110.4368,52.5356],[-110.4306,52.5505],[-110.2688,52.5505],[-110.2214,52.5217],[-110.0044,52.5214],[-110.0052,52.8573],[-110.1116,52.8643],[-110.2008,52.9083],[-110.3331,52.9169],[-110.4647,52.9666],[-110.4563,53.0067],[-110.5021,53.0408],[-110.5835,53.0321],[-110.6401,53.0853],[-110.6932,53.0597],[-111.0289,53.0601],[-111.0296,53.0741]]]},"properties":{"id":"4807049","name":"Wainwright No. 61"}},
{"type":"Feature","geometry":{"type":"Polygon","coordinates":[[[-113.0932,52.3176],[-113.216,52.3145],[-113.2783,52.25],[-113.4563,52.2352],[-113.6316,52.2764],[-113.6893,52.3354],[-113.752,52.3573],[-113.8807,52.3471],[-114.1534,52.3485],[-114.1695,52.3265],[-114.3442,52.3192],[-114.3349,52.2755],[-114.43,52.2753],[-114.4299,52.1297],[-114.5719,52.13],[-114.5727,52.0719],[-114.5015,52.0722],[-114.4976,51.9397],[-114.4505,51.9115],[-114.1907,51.9115],[-114.1671,51.8824],[-113.8316,51.8818],[-113.7135,51.8963],[-113.6426,51.8965],[-113.6427,51.9545],[-113.4773,51.9549],[-113.4809,51.9831],[-113.291,51.9831],[-113.291,51.9689],[-112.9121,51.9695],[-112.9151,52.0033],[-112.968,52.0409],[-113.0303,52.1258],[-113.0248,52.1798],[-113.063,52.208],[-113.0711,52.3003],[-113.0932,52.3176]]]},"properties":{"id":"4808001","name":"Red Deer County"}},
{"type":"Feature","geometry":{"type":"Polygon","coordinates":[[[-113.1477,52.5793],[-113.3155,52.5795],[-113.3608,52.5472],[-113.4236,52.5794],[-114.1698,52.5815],[-114.1817,52.5524],[-114.3261,52.5526],[-114.3261,52.5814],[-114.4662,52.5666],[-114.4652,52.5091],[-114.5294,52.5087],[-114.5296,52.4493],[-114.4574,52.3775],[-114.4575,52.3191],[-114.43,52.2753],[-114.3349,52.2755],[-114.3442,52.3192],[-114.1695,52.3265],[-114.1534,52.3485],[-113.8807,52.3471],[-113.752,52.3573],[-113.6893,52.3354],[-113.6316,52.2764],[-113.4563,52.2352],[-113.2783,52.25],[-113.216,52.3145],[-113.0932,52.3176],[-113.0757,52.376],[-112.9321,52.4921],[-113.0277,52.5647],[-113.1477,52.5793]]]},"properties":{"id":"4808022","name":"Lacombe County"}},
{"type":"Feature","geometry":{"type":"Polygon","coordinates":[[[-113.0885,52.7558],[-113.2294,52.7556],[-113.3085,52.7858],[-113.303,52.8331],[-113.4552,52.8213],[-113.4989,52.8434],[-114.0502,52.8434],[-114.147,52.8879],[-114.5337,52.8874],[-114.5825,52.8439],[-114.583,52.7127],[-114.656,52.713],[-114.6495,52.5952],[-114.4662,52.5666],[-114.3261,52.5814],[-114.3261,52.5526],[-114.1817,52.5524],[-114.1698,52.5815],[-113.4236,52.5794],[-113.3608,52.5472],[-113.3155,52.5795],[-113.1477,52.5793],[-113.1477,52.6227],[-113.0516,52.6234],[-113.0518,52.7232],[-113.0885,52.7558]]]},"properties":{"id":"4808038","name":"Ponoka County"}},
{"type":"Feature","geometry":{"type":"Polygon","coordinates":[[[-115.5974,52.8434],[-116.6127,52.8424],[-116.6124,52.7557],[-116.8295,52.7569],[-116.8145,52.7216],[-116.7972,52.672],[-116.8172,52.6249],[-116.888,52.5677],[-116.8721,52.5098],[-117.0091,52.3671],[-117.0302,52.3023],[-117.0842,52.2491],[-117.0243,52.2118],[-116.963,52.1765],[-116.9713,52.1495],[-116.8232,52.1037],[-116.7565,52.054],[-116.7199,52.0622],[-116.6448,51.9828],[-116.6043,51.9689],[-116.606,51.8826],[-116.509,51.8146],[-116.4102,51.8343],[-116.3247,51.7868],[-116.2773,51.8255],[-116.1967,51.8338],[-116.0798,51.9132],[-116.0217,51.8943],[-115.9476,51.8068],[-115.9226,51.7541],[-115.837,51.7615],[-115.7433,51.7108],[-115.6687,51.6943],[-115.5741,51.6191],[-114.9932,51.6209],[-114.9607,51.691],[-114.905,51.682],[-114.843,51.7074],[-114.8516,51.7643],[-114.923,51.7644],[-114.9697,51.809],[-114.9944,51.8892],[-114.7931,51.8967],[-114.758,51.9262],[-114.5182,51.9157],[-114.4976,51.9397],[-114.5015,52.0722],[-114.5727,52.0719],[-114.5719,52.13],[-114.4299,52.1297],[-114.43,52.2753],[-114.4575,52.3191],[-114.4574,52.3775],[-114.5296,52.4493],[-114.5294,52.5087],[-114.4652,52.5091],[-114.4662,52.5666],[-114.6495,52.5952],[-114.656,52.713],[-114.583,52.7127],[-114.5825,52.8439],[-115.0159,52.8436],[-115.0237,53.0623],[-115.2099,53.0506],[-115.1981,52.9654],[-115.2263,52.9134],[-115.1751,52.8917],[-115.1452,52.8432],[-115.2812,52.8589],[-115.5028,52.8583],[-115.5974,52.8434]]]},"properties":{"id":"4809002","name":"Clearwater County"}},
{"type":"Feature","geometry":{"type":"Polygon","coordinates":[[[-112.3189,53.0179],[-112.3189,53.1051],[-112.4894,53.105],[-112.4895,53.1924],[-112.6844,53.1924],[-112.6845,53.2796],[-112.7819,53.2938],[-113,53.2941],[-113.0499,53.2942],[-113.0498,53.2357],[-113.1718,53.236],[-113.1717,53.1198],[-113.0985,53.1197],[-113.1001,52.9741],[-113.1245,52.9742],[-113.1243,52.8434],[-113.0518,52.8434],[-113.0518,52.7561],[-113.0885,52.7558],[-113.0518,52.7232],[-113.0516,52.6234],[-113.1477,52.6227],[-113.1477,52.5793],[-113.0277,52.5647],[-112.9321,52.4921],[-112.7814,52.4921],[-112.8162,52.5322],[-112.7877,52.5798],[-112.6799,52.5797],[-112.6794,52.6382],[-112.5959,52.6681],[-112.3989,52.6679],[-112.3263,52.7274],[-112.3189,53.0179]]]},"properties":{"id":"4810001","name":"Camrose County"}},
{"type":"Feature","geometry":{"type":"Polygon","coordinates":[[[-112.2634,53.4252],[-112.3623,53.4252],[-112.362,53.4543],[-112.5091,53.4537],[-112.5087,53.5414],[-112.8038,53.5415],[-112.8039,53.5134],[-112.9514,53.5243],[-112.9514,53.4831],[-112.8529,53.4604],[-112.8408,53.3669],[-113.0499,53.364],[-113,53.3377],[-113,53.2941],[-112.7819,53.2938],[-112.6845,53.2796],[-112.6844,53.1924],[-112.4895,53.1924],[-112.4894,53.105],[-112.3189,53.1051],[-112.3189,53.0179],[-111.9872,53.0175],[-111.9873,52.9598],[-111.7939,52.9306],[-111.4053,52.9299],[-111.4309,53.0169],[-111.4294,53.1471],[-111.4311,53.1903],[-111.5407,53.1904],[-111.5406,53.2339],[-111.6383,53.2339],[-111.6383,53.3064],[-112.0507,53.3089],[-112.0507,53.367],[-112.1646,53.367],[-112.1646,53.396],[-112.2635,53.396],[-112.2634,53.4252]]]},"properties":{"id":"4810016","name":"Beaver County"}},
{"type":"Feature","geometry":{"type":"Polygon","coordinates":[[[-111.0386,53.5261],[-111.0983,53.5411],[-111.4766,53.5415],[-111.4766,53.5559],[-111.7712,53.5559],[-111.8205,53.5997],[-111.9188,53.5997],[-111.9187,53.658],[-112.2136,53.6578],[-112.2136,53.5414],[-112.2627,53.5415],[-112.2634,53.4252],[-112.2635,53.396],[-112.1646,53.396],[-112.1646,53.367],[-112.0507,53.367],[-112.0507,53.3089],[-111.6383,53.3064],[-111.6383,53.2339],[-111.5406,53.2339],[-111.5407,53.1904],[-111.4311,53.1903],[-111.4294,53.1471],[-111.2108,53.1466],[-111.1506,53.1032],[-111.0296,53.0741],[-111.0294,53.3656],[-111.0386,53.5261]]]},"properties":{"id":"4810026","name":"Minburn County No. 27"}},
{"type":"Feature","geometry":{"type":"Polygon","coordinates":[[[-110.0065,53.8893],[-110.1542,53.8895],[-110.2592,53.8748],[-110.268,53.8219],[-110.3646,53.8221],[-110.3766,53.716],[-110.5405,53.7735],[-110.797,53.7733],[-110.7928,53.5845],[-110.9403,53.5845],[-110.9401,53.5261],[-111.0386,53.5261],[-111.0294,53.3656],[-111.0296,53.0741],[-111.0289,53.0601],[-110.6932,53.0597],[-110.6401,53.0853],[-110.5835,53.0321],[-110.5021,53.0408],[-110.4563,53.0067],[-110.4647,52.9666],[-110.3331,52.9169],[-110.2008,52.9083],[-110.1116,52.8643],[-110.0052,52.8573],[-110.0055,53.2198],[-110.0065,53.8893]]]},"properties":{"id":"4810036","name":"Vermilion River County"}},
{"type":"Feature","geometry":{"type":"Polygon","coordinates":[[[-111.6004,53.9035],[-111.7236,53.889],[-111.8201,53.9288],[-111.9612,53.9054],[-112.0588,53.9536],[-112.1622,53.9767],[-112.1833,53.8605],[-112.2325,53.8459],[-112.2327,53.7442],[-112.2136,53.6578],[-111.9187,53.658],[-111.9188,53.5997],[-111.8205,53.5997],[-111.7712,53.5559],[-111.4766,53.5559],[-111.4766,53.5415],[-111.0983,53.5411],[-111.0386,53.5261],[-110.9401,53.5261],[-110.9403,53.5845],[-110.7928,53.5845],[-110.797,53.7733],[-111.0917,53.771],[-111.1518,53.7505],[-111.3121,53.7597],[-111.3807,53.7497],[-111.4109,53.78],[-111.4895,53.7984],[-111.5172,53.8458],[-111.5996,53.8457],[-111.6004,53.9035]]]},"properties":{"id":"4810048","name":"Two Hills County No. 21"}},
{"type":"Feature","geometry":{"type":"Polygon","coordinates":[[[-112.1622,53.9767],[-112.2305,54.0624],[-112.371,54.0286],[-112.4036,53.996],[-112.5055,53.9885],[-112.6178,54.0058],[-112.7174,54.0481],[-112.8164,54.0496],[-112.8437,53.9778],[-112.8611,53.9419],[-112.9514,53.8934],[-112.951,53.7744],[-112.9264,53.7163],[-112.8772,53.7163],[-112.8776,53.6578],[-112.9511,53.6287],[-112.9514,53.5243],[-112.8039,53.5134],[-112.8038,53.5415],[-112.5087,53.5414],[-112.5091,53.4537],[-112.362,53.4543],[-112.3623,53.4252],[-112.2634,53.4252],[-112.2627,53.5415],[-112.2136,53.5414],[-112.2136,53.6578],[-112.2327,53.7442],[-112.2325,53.8459],[-112.1833,53.8605],[-112.1622,53.9767]]]},"properties":{"id":"4810058","name":"Lamont County"}},
{"type":"Feature","geometry":{"type":"Polygon","coordinates":[[[-114.3636,53.0619],[-115.0237,53.0623],[-115.0159,52.8436],[-114.5825,52.8439],[-114.5337,52.8874],[-114.147,52.8879],[-114.0502,52.8434],[-113.4989,52.8434],[-113.4552,52.8213],[-113.303,52.8331],[-113.3085,52.7858],[-113.2294,52.7556],[-113.0885,52.7558],[-113.0518,52.7561],[-113.0518,52.8434],[-113.1243,52.8434],[-113.1245,52.9742],[-113.1001,52.9741],[-113.0985,53.1197],[-113.1717,53.1198],[-113.5614,53.1195],[-113.5859,53.105],[-113.8248,53.1051],[-114.0018,53.1342],[-114.0388,53.1051],[-114.0383,53.0482],[-114.1484,53.047],[-114.1968,53.0615],[-114.3636,53.0619]]]},"properties":{"id":"4811001","name":"Wetaskiwin County No. 10"}},
{"type":"Feature","geometry":{"type":"Polygon","coordinates":[[[-113.6954,53.354],[-113.7115,53.3711],[-113.9691,53.341],[-114.2213,53.3581],[-114.3733,53.4225],[-114.4195,53.3635],[-114.5131,53.3107],[-114.5619,53.3121],[-114.5609,53.2505],[-114.4405,53.1458],[-114.3627,53.1357],[-114.3636,53.0619],[-114.1968,53.0615],[-114.1484,53.047],[-114.0383,53.0482],[-114.0388,53.1051],[-114.0018,53.1342],[-113.8248,53.1051],[-113.5859,53.105],[-113.5614,53.1195],[-113.1717,53.1198],[-113.1718,53.236],[-113.0498,53.2357],[-113.0499,53.2942],[-113,53.2941],[-113,53.3377],[-113.0499,53.364],[-113.3443,53.3668],[-113.5098,53.3959],[-113.5497,53.3379],[-113.684,53.3383],[-113.6954,53.354]]]},"properties":{"id":"4811012","name":"Leduc County"}},
{"type":"Feature","geometry":{"type":"Polygon","coordinates":[[[-114.5619,53.3121],[-114.6784,53.3233],[-114.711,53.3039],[-114.8793,53.3669],[-115.1082,53.367],[-115.6111,53.3666],[-115.6109,53.0191],[-115.5974,52.8434],[-115.5028,52.8583],[-115.2812,52.8589],[-115.1452,52.8432],[-115.1751,52.8917],[-115.2263,52.9134],[-115.1981,52.9654],[-115.2099,53.0506],[-115.0237,53.0623],[-114.3636,53.0619],[-114.3627,53.1357],[-114.4405,53.1458],[-114.5609,53.2505],[-114.5619,53.3121]]]},"properties":{"id":"4811032","name":"Brazeau County"}},
{"type":"Feature","geometry":{"type":"Polygon","coordinates":[[[-114.0265,53.6576],[-114.1245,53.657],[-114.1231,53.5993],[-114.2473,53.6139],[-114.6897,53.6138],[-114.758,53.6282],[-114.8128,53.606],[-114.8125,53.7164],[-114.8868,53.7145],[-115.0101,53.588],[-114.9964,53.476],[-115.098,53.4208],[-115.1082,53.367],[-114.8793,53.3669],[-114.711,53.3039],[-114.6784,53.3233],[-114.5619,53.3121],[-114.5131,53.3107],[-114.4195,53.3635],[-114.3733,53.4225],[-114.2213,53.3581],[-113.9691,53.341],[-113.7115,53.3711],[-113.6954,53.354],[-113.6889,53.5122],[-113.7136,53.5924],[-113.8362,53.5996],[-113.8362,53.629],[-113.9101,53.6576],[-114.0265,53.6576]]]},"properties":{"id":"4811034","name":"Parkland County"}},
{"type":"Feature","geometry":{"type":"Polygon","coordinates":[[[-112.9514,53.8934],[-113.0672,53.862],[-113.1258,53.7905],[-113.2154,53.7161],[-113.2933,53.6729],[-113.2953,53.5703],[-113.376,53.5662],[-113.3484,53.5138],[-113.3443,53.3668],[-113.0499,53.364],[-112.8408,53.3669],[-112.8529,53.4604],[-112.9514,53.4831],[-112.9514,53.5243],[-112.9511,53.6287],[-112.8776,53.6578],[-112.8772,53.7163],[-112.9264,53.7163],[-112.951,53.7744],[-112.9514,53.8934]]]},"properties":{"id":"4811052","name":"Strathcona County"}},
{"type":"Feature","geometry":{"type":"Polygon","coordinates":[[[-113.3474,54.023],[-113.5706,54.0216],[-113.7811,53.9928],[-113.8063,53.9201],[-113.8681,53.9048],[-113.9798,53.9049],[-114.0514,53.9267],[-114.0514,53.854],[-114.0293,53.8475],[-114.0265,53.6576],[-113.9101,53.6576],[-113.8362,53.629],[-113.8362,53.5996],[-113.7136,53.5924],[-113.6392,53.5996],[-113.5658,53.6505],[-113.4361,53.6506],[-113.4304,53.7161],[-113.2951,53.7158],[-113.2933,53.6729],[-113.2154,53.7161],[-113.1258,53.7905],[-113.0672,53.862],[-112.9514,53.8934],[-112.8611,53.9419],[-112.8437,53.9778],[-113.3477,53.978],[-113.3474,54.023]]]},"properties":{"id":"4811059","name":"Sturgeon County"}},
{"type":"Feature","geometry":{"type":"Polygon","coordinates":[[[-113.2933,53.6729],[-113.2951,53.7158],[-113.4304,53.7161],[-113.4361,53.6506],[-113.5658,53.6505],[-113.6392,53.5996],[-113.7136,53.5924],[-113.6889,53.5122],[-113.6954,53.354],[-113.684,53.3383],[-113.5497,53.3379],[-113.5098,53.3959],[-113.3443,53.3668],[-113.3484,53.5138],[-113.376,53.5662],[-113.2953,53.5703],[-113.2933,53.6729]]]},"properties":{"id":"4811061","name":"Edmonton"}},
{"type":"Feature","geometry":{"type":"Polygon","coordinates":[[[-110.0057,54.7477],[-110.0814,54.7623],[-110.9123,54.7619],[-111.2418,54.7622],[-111.2394,54.6605],[-111.3139,54.6601],[-111.315,54.6044],[-111.4452,54.6039],[-111.4403,54.4396],[-111.3894,54.425],[-111.3912,54.3333],[-111.3162,54.326],[-111.3032,54.1949],[-111.2166,54.1953],[-111.2177,54.0641],[-110.4511,54.0641],[-110.4505,54.0131],[-110.3735,54.0139],[-110.3487,53.8534],[-110.2592,53.8748],[-110.1542,53.8895],[-110.0065,53.8893],[-110.0057,54.2364],[-110.0057,54.7477]]]},"properties":{"id":"4812004","name":"Bonnyville No. 87"}},
{"type":"Feature","geometry":{"type":"Polygon","coordinates":[[[-111.4403,54.4396],[-111.4668,54.4128],[-111.829,54.4133],[-111.8521,54.3553],[-111.8045,54.253],[-111.753,54.2023],[-111.7041,54.1951],[-111.6634,54.0353],[-111.6139,54.0353],[-111.6138,53.9624],[-111.4906,53.9624],[-111.4902,53.9043],[-111.6004,53.9035],[-111.5996,53.8457],[-111.5172,53.8458],[-111.4895,53.7984],[-111.4109,53.78],[-111.3807,53.7497],[-111.3121,53.7597],[-111.1518,53.7505],[-111.0917,53.771],[-110.797,53.7733],[-110.5405,53.7735],[-110.3766,53.716],[-110.3646,53.8221],[-110.268,53.8219],[-110.2592,53.8748],[-110.3487,53.8534],[-110.3735,54.0139],[-110.4505,54.0131],[-110.4511,54.0641],[-111.2177,54.0641],[-111.2166,54.1953],[-111.3032,54.1949],[-111.3162,54.326],[-111.3912,54.3333],[-111.3894,54.425],[-111.4403,54.4396]]]},"properties":{"id":"4812014","name":"St. Paul County No. 19"}},
{"type":"Feature","geometry":{"type":"Polygon","coordinates":[[[-112.4251,54.5875],[-112.5765,54.5655],[-112.5765,54.5001],[-112.6009,54.413],[-112.6011,54.3262],[-112.6886,54.3265],[-112.688,54.2679],[-112.7634,54.2679],[-112.7633,54.2096],[-112.8507,54.2096],[-112.8508,54.0646],[-112.8164,54.0496],[-112.7174,54.0481],[-112.6178,54.0058],[-112.5055,53.9885],[-112.4036,53.996],[-112.371,54.0286],[-112.2305,54.0624],[-112.1622,53.9767],[-112.0588,53.9536],[-111.9612,53.9054],[-111.8201,53.9288],[-111.7236,53.889],[-111.6004,53.9035],[-111.4902,53.9043],[-111.4906,53.9624],[-111.6138,53.9624],[-111.6139,54.0353],[-111.6634,54.0353],[-111.7041,54.1951],[-111.753,54.2023],[-111.8045,54.253],[-111.8521,54.3553],[-111.9479,54.3549],[-111.9969,54.4131],[-111.9994,54.4995],[-112.1228,54.5001],[-112.1228,54.5873],[-112.4251,54.5875]]]},"properties":{"id":"4812022","name":"Smoky Lake County"}},
{"type":"Feature","geometry":{"type":"Polygon","coordinates":[[[-110,55.5493],[-110.6778,55.5539],[-111.4013,55.5548],[-111.3988,55.8102],[-111.4127,55.9844],[-111.8848,55.9883],[-111.8831,55.9412],[-112.0387,55.9433],[-112.0394,55.9872],[-112.6364,55.9851],[-112.6188,55.9432],[-112.6774,55.9067],[-112.6329,55.8636],[-112.6303,55.7923],[-112.5972,55.727],[-112.7224,55.6934],[-112.791,55.6414],[-112.7598,55.5784],[-112.7511,55.4609],[-112.3135,55.4606],[-112.3118,55.1117],[-112.3449,55.1115],[-112.3445,55.024],[-112.4459,55.024],[-112.4461,54.7622],[-112.4253,54.7622],[-112.4251,54.5875],[-112.1228,54.5873],[-112.1228,54.5001],[-111.9994,54.4995],[-111.9969,54.4131],[-111.9479,54.3549],[-111.8521,54.3553],[-111.829,54.4133],[-111.4668,54.4128],[-111.4403,54.4396],[-111.4452,54.6039],[-111.315,54.6044],[-111.3139,54.6601],[-111.2394,54.6605],[-111.2418,54.7622],[-110.9123,54.7619],[-110.0814,54.7623],[-110.0057,54.7477],[-110.0001,55.3312],[-110,55.5493]]]},"properties":{"id":"4812037","name":"Lac la Biche County"}},
{"type":"Feature","geometry":{"type":"Polygon","coordinates":[[[-114.0514,53.854],[-114.1498,53.8539],[-114.1507,53.8903],[-114.2872,53.8903],[-114.3493,53.9777],[-114.4286,53.9775],[-114.4883,53.9493],[-114.7284,53.9255],[-114.7335,53.977],[-114.7955,53.9755],[-114.8205,54.0353],[-114.8268,54.123],[-115.0023,54.1227],[-115.0022,54.1522],[-115.2018,54.1521],[-115.2004,54.0648],[-115.3372,54.0639],[-115.3373,53.8028],[-115.1918,53.7877],[-114.9751,53.7882],[-114.8868,53.7145],[-114.8125,53.7164],[-114.8128,53.606],[-114.758,53.6282],[-114.6897,53.6138],[-114.2473,53.6139],[-114.1231,53.5993],[-114.1245,53.657],[-114.0265,53.6576],[-114.0293,53.8475],[-114.0514,53.854]]]},"properties":{"id":"4813001","name":"Lac Ste. Anne County"}},
{"type":"Feature","geometry":{"type":"Polygon","coordinates":[[[-114.3562,54.5013],[-114.4263,54.4865],[-114.5198,54.3762],[-114.5962,54.3511],[-114.6022,54.32],[-114.8464,54.3261],[-114.9797,54.2758],[-115.0262,54.2303],[-115.2018,54.1521],[-115.0022,54.1522],[-115.0023,54.1227],[-114.8268,54.123],[-114.8205,54.0353],[-114.7955,53.9755],[-114.7335,53.977],[-114.7284,53.9255],[-114.4883,53.9493],[-114.4286,53.9775],[-114.3493,53.9777],[-114.2872,53.8903],[-114.1507,53.8903],[-114.1498,53.8539],[-114.0514,53.854],[-114.0514,53.9267],[-114.0516,54.0649],[-114.1517,54.0649],[-114.1518,54.1813],[-114.1873,54.2395],[-114.2769,54.2395],[-114.2763,54.4136],[-114.3043,54.5013],[-114.3562,54.5013]]]},"properties":{"id":"4813018","name":"Barrhead County No. 11"}},
{"type":"Feature","geometry":{"type":"Polygon","coordinates":[[[-113.6872,54.5879],[-114.3222,54.5887],[-114.3248,54.519],[-114.3562,54.5013],[-114.3043,54.5013],[-114.2763,54.4136],[-114.2769,54.2395],[-114.1873,54.2395],[-114.1518,54.1813],[-114.1517,54.0649],[-114.0516,54.0649],[-114.0514,53.9267],[-113.9798,53.9049],[-113.8681,53.9048],[-113.8063,53.9201],[-113.7811,53.9928],[-113.5706,54.0216],[-113.3474,54.023],[-113.375,54.0939],[-113.3753,54.2684],[-113.3005,54.2686],[-113.3006,54.3268],[-113.6005,54.3266],[-113.6753,54.3631],[-113.6855,54.4134],[-113.6872,54.5879]]]},"properties":{"id":"4813028","name":"Westlock County"}},
{"type":"Feature","geometry":{"type":"Polygon","coordinates":[[[-114.3222,54.5887],[-114.2828,54.7843],[-114.2224,54.8505],[-115.0699,54.8503],[-115.0575,54.76],[-115.0628,54.5028],[-115.0737,54.4997],[-115.9625,54.5],[-115.97,54.4126],[-116.1015,54.4145],[-116.1005,54.3263],[-116.2549,54.3265],[-116.2504,54.2561],[-116.298,54.2305],[-116.4596,54.2108],[-116.526,54.1689],[-116.6989,54.1219],[-116.7016,54.0663],[-116.5284,54.0654],[-116.5269,53.9777],[-115.8687,53.9778],[-115.8718,53.8906],[-115.7853,53.8902],[-115.7849,53.8188],[-115.487,53.819],[-115.3373,53.8028],[-115.3372,54.0639],[-115.2004,54.0648],[-115.2018,54.1521],[-115.0262,54.2303],[-114.9797,54.2758],[-114.8464,54.3261],[-114.6022,54.32],[-114.5962,54.3511],[-114.5198,54.3762],[-114.4263,54.4865],[-114.3562,54.5013],[-114.3248,54.519],[-114.3222,54.5887]]]},"properties":{"id":"4813029","name":"Woodlands County"}},
{"type":"Feature","geometry":{"type":"Polygon","coordinates":[[[-112.5765,54.5001],[-112.8034,54.4999],[-112.8036,54.4561],[-113.1059,54.4566],[-113.1545,54.4134],[-113.2257,54.4134],[-113.2505,54.3268],[-113.3006,54.3268],[-113.3005,54.2686],[-113.3753,54.2684],[-113.375,54.0939],[-113.3474,54.023],[-113.3477,53.978],[-112.8437,53.9778],[-112.8164,54.0496],[-112.8508,54.0646],[-112.8507,54.2096],[-112.7633,54.2096],[-112.7634,54.2679],[-112.688,54.2679],[-112.6886,54.3265],[-112.6011,54.3262],[-112.6009,54.413],[-112.5765,54.5001]]]},"properties":{"id":"4813036","name":"Thorhild County"}},
{"type":"Feature","geometry":{"type":"Polygon","coordinates":[[[-112.4251,54.5875],[-112.4253,54.7622],[-112.4461,54.7622],[-112.4459,55.024],[-112.3445,55.024],[-112.3449,55.1115],[-112.3118,55.1117],[-112.3135,55.4606],[-112.7511,55.4609],[-112.6843,55.3121],[-112.7064,55.2822],[-112.7881,55.2595],[-112.8193,55.1738],[-112.8894,55.0772],[-112.8359,55.046],[-112.744,55.0277],[-112.7364,54.9739],[-112.9038,54.9704],[-112.9039,55.0241],[-113.3613,55.0239],[-113.3611,54.9373],[-113.6656,54.9367],[-113.6645,54.7621],[-113.6945,54.7419],[-113.6872,54.5879],[-113.6855,54.4134],[-113.6753,54.3631],[-113.6005,54.3266],[-113.3006,54.3268],[-113.2505,54.3268],[-113.2257,54.4134],[-113.1545,54.4134],[-113.1059,54.4566],[-112.8036,54.4561],[-112.8034,54.4999],[-112.5765,54.5001],[-112.5765,54.5655],[-112.4251,54.5875]]]},"properties":{"id":"4813044","name":"Athabasca County"}},
{"type":"Feature","geometry":{"type":"Polygon","coordinates":[[[-116.6989,54.1219],[-116.7322,54.1144],[-116.8371,54.006],[-116.959,54.017],[-117.0974,53.9737],[-117.2888,54.0059],[-117.2643,54.0521],[-117.3963,54.0247],[-117.5291,54.0523],[-117.5714,54.0305],[-117.6898,54.0242],[-117.7852,53.9569],[-118.0489,53.9205],[-118.1242,53.8542],[-118.1251,53.8067],[-118.9993,53.8049],[-118.9978,53.8448],[-119.485,53.8466],[-119.4841,54.0249],[-119.5559,54.0197],[-119.6223,53.9846],[-119.6781,53.9297],[-119.8134,53.8947],[-119.9192,53.9433],[-120,53.9374],[-120,53.8062],[-119.9423,53.7759],[-119.8882,53.7795],[-119.908,53.7106],[-119.7974,53.7078],[-119.7134,53.6146],[-119.7487,53.5934],[-119.9107,53.6013],[-119.8623,53.5485],[-119.8995,53.5191],[-119.7906,53.4793],[-119.7254,53.3888],[-119.6689,53.3678],[-119.4061,53.3681],[-119.432,53.3951],[-119.5414,53.4331],[-119.4548,53.4766],[-119.3605,53.4628],[-119.2371,53.4741],[-119.1389,53.4359],[-119.0188,53.425],[-118.9645,53.4795],[-118.7916,53.4162],[-118.719,53.4749],[-118.581,53.435],[-118.5188,53.4616],[-118.4115,53.4444],[-118.3601,53.457],[-118.2124,53.3833],[-118.2078,53.3254],[-118.092,53.3686],[-117.9588,53.3302],[-117.8865,53.2726],[-117.8665,53.2302],[-117.8046,53.2252],[-117.7425,53.1799],[-117.6976,53.1835],[-117.6716,53.126],[-117.5953,53.0672],[-117.4895,53.0386],[-117.553,52.9914],[-117.5071,52.9499],[-117.4205,52.9273],[-117.3637,52.8859],[-117.23,52.8204],[-117.0805,52.7165],[-116.9816,52.715],[-116.9044,52.6541],[-116.8145,52.7216],[-116.8295,52.7569],[-116.6124,52.7557],[-116.6127,52.8424],[-115.5974,52.8434],[-115.6109,53.0191],[-115.6111,53.3666],[-115.1082,53.367],[-115.098,53.4208],[-114.9964,53.476],[-115.0101,53.588],[-114.8868,53.7145],[-114.9751,53.7882],[-115.1918,53.7877],[-115.3373,53.8028],[-115.487,53.819],[-115.7849,53.8188],[-115.7853,53.8902],[-115.8718,53.8906],[-115.8687,53.9778],[-116.5269,53.9777],[-116.5284,54.0654],[-116.7016,54.0663],[-116.6989,54.1219]]]},"properties":{"id":"4814003","name":"Yellowhead County"}},
{"type":"Feature","geometry":{"type":"Polygon","coordinates":[[[-114.843,51.7074],[-114.905,51.682],[-114.9607,51.691],[-114.9932,51.6209],[-115.5741,51.6191],[-115.4965,51.5657],[-115.5348,51.5336],[-115.4743,51.4295],[-115.4981,51.3428],[-115.4643,51.3144],[-115.3086,51.281],[-115.1853,51.2917],[-115.1706,51.2519],[-115.283,51.2118],[-115.2824,51.17],[-115.3884,51.1351],[-115.375,51.0678],[-115.3048,51.0232],[-115.2338,51.0087],[-115.2108,51.0384],[-115.1149,51.0379],[-115.1149,51.0763],[-115.0638,51.0961],[-115.0118,51.0582],[-114.9254,51.0777],[-114.7295,51.0491],[-114.6987,51.0085],[-114.6984,51.1557],[-114.5588,51.1688],[-114.5589,51.2125],[-114.7214,51.2121],[-114.7033,51.2995],[-114.7042,51.4457],[-114.7102,51.6495],[-114.7817,51.6495],[-114.7805,51.7078],[-114.843,51.7074]]]},"properties":{"id":"4815015","name":"Bighorn No. 8"}},
{"type":"Feature","geometry":{"type":"Polygon","coordinates":[[[-116.8145,52.7216],[-116.9044,52.6541],[-116.9816,52.715],[-117.0805,52.7165],[-117.23,52.8204],[-117.3637,52.8859],[-117.4205,52.9273],[-117.5071,52.9499],[-117.553,52.9914],[-117.4895,53.0386],[-117.5953,53.0672],[-117.6716,53.126],[-117.6976,53.1835],[-117.7425,53.1799],[-117.8046,53.2252],[-117.8665,53.2302],[-117.8865,53.2726],[-117.9588,53.3302],[-118.092,53.3686],[-118.2078,53.3254],[-118.2124,53.3833],[-118.3601,53.457],[-118.4115,53.4444],[-118.5188,53.4616],[-118.581,53.435],[-118.719,53.4749],[-118.7916,53.4162],[-118.9645,53.4795],[-119.0188,53.425],[-119.1389,53.4359],[-119.2371,53.4741],[-119.3605,53.4628],[-119.4548,53.4766],[-119.5414,53.4331],[-119.432,53.3951],[-119.4061,53.3681],[-119.3559,53.3401],[-119.3405,53.2871],[-119.2327,53.1818],[-119.146,53.1912],[-119.0469,53.1449],[-118.9994,53.1928],[-119.0238,53.232],[-118.9474,53.2389],[-118.916,53.2118],[-118.7865,53.1592],[-118.7323,53.1193],[-118.7591,53.0658],[-118.6553,53.0348],[-118.6602,52.9639],[-118.5438,52.9085],[-118.4483,52.8853],[-118.3996,52.8245],[-118.4224,52.7758],[-118.3428,52.7386],[-118.2901,52.6777],[-118.3545,52.6337],[-118.3326,52.5802],[-118.2355,52.4902],[-118.2553,52.4495],[-118.2128,52.3703],[-118.138,52.4075],[-118.0442,52.3985],[-118.0529,52.4496],[-117.9668,52.4697],[-117.8869,52.4261],[-117.7665,52.4177],[-117.7058,52.3653],[-117.7529,52.3164],[-117.8396,52.2741],[-117.8183,52.2263],[-117.6635,52.1979],[-117.6113,52.1443],[-117.3813,52.1377],[-117.334,52.1486],[-117.3173,52.194],[-117.2845,52.1633],[-117.1968,52.181],[-117.1346,52.2229],[-117.0243,52.2118],[-117.0842,52.2491],[-117.0302,52.3023],[-117.0091,52.3671],[-116.8721,52.5098],[-116.888,52.5677],[-116.8172,52.6249],[-116.7972,52.672],[-116.8145,52.7216]]]},"properties":{"id":"4815037","name":"Improvement District No. 12 Jasper Park"}},
{"type":"Feature","geometry":{"type":"Polygon","coordinates":[[[-117.0243,52.2118],[-117.1346,52.2229],[-117.1968,52.181],[-117.2845,52.1633],[-117.3173,52.194],[-117.2986,52.0943],[-117.1972,51.9801],[-117.1032,51.9565],[-117.0195,51.8914],[-117.0343,51.8598],[-116.964,51.795],[-116.9764,51.7602],[-116.9206,51.7098],[-116.8097,51.7054],[-116.8186,51.7356],[-116.7442,51.8066],[-116.6821,51.8122],[-116.6503,51.7537],[-116.5882,51.7159],[-116.595,51.6618],[-116.4714,51.6047],[-116.4529,51.5606],[-116.3909,51.5456],[-116.3606,51.4709],[-116.2924,51.4618],[-116.2825,51.4068],[-116.3114,51.385],[-116.268,51.3119],[-116.0076,51.222],[-116.0368,51.1701],[-116.0045,51.1247],[-115.9236,51.0831],[-115.7892,51.0724],[-115.767,51.0394],[-115.6488,50.9975],[-115.5509,50.7971],[-115.4363,50.7557],[-115.3912,50.7064],[-115.3151,50.7258],[-115.2822,50.6632],[-115.2936,50.6111],[-115.2396,50.5892],[-115.231,50.5449],[-115.0853,50.5898],[-115.0137,50.5709],[-114.8569,50.3925],[-114.7662,50.3507],[-114.7976,50.3261],[-114.7521,50.2732],[-114.7702,50.25],[-114.7247,50.1902],[-114.7333,50.1186],[-114.6664,50.0509],[-114.6574,49.9684],[-114.6937,49.9426],[-114.6918,49.8963],[-114.6399,49.8277],[-114.6331,49.7341],[-114.6684,49.7039],[-114.6628,49.6437],[-114.7465,49.6185],[-114.691,49.554],[-114.5736,49.5575],[-114.5091,49.5743],[-114.4664,49.518],[-114.3925,49.5007],[-114.2945,49.5388],[-114.3178,49.5821],[-114.3179,49.8009],[-114.3398,49.874],[-114.228,49.8445],[-113.9989,49.8425],[-113.9994,50.1937],[-114.0679,50.1933],[-114.0699,50.31],[-114.2078,50.3096],[-114.3915,50.3099],[-114.4604,50.3246],[-114.506,50.3682],[-114.5289,50.4553],[-114.5294,50.5455],[-114.4833,50.5439],[-114.4638,50.6013],[-114.4637,50.7031],[-114.533,50.7033],[-114.5329,50.8193],[-114.556,50.8928],[-114.6241,50.9213],[-114.6763,50.936],[-114.6987,51.0085],[-114.7295,51.0491],[-114.9254,51.0777],[-115.0118,51.0582],[-115.0638,51.0961],[-115.1149,51.0763],[-115.1149,51.0379],[-115.2108,51.0384],[-115.2338,51.0087],[-115.3048,51.0232],[-115.375,51.0678],[-115.3884,51.1351],[-115.2824,51.17],[-115.283,51.2118],[-115.1706,51.2519],[-115.1853,51.2917],[-115.3086,51.281],[-115.4643,51.3144],[-115.4981,51.3428],[-115.4743,51.4295],[-115.5348,51.5336],[-115.4965,51.5657],[-115.5741,51.6191],[-115.6687,51.6943],[-115.7433,51.7108],[-115.837,51.7615],[-115.9226,51.7541],[-115.9476,51.8068],[-116.0217,51.8943],[-116.0798,51.9132],[-116.1967,51.8338],[-116.2773,51.8255],[-116.3247,51.7868],[-116.4102,51.8343],[-116.509,51.8146],[-116.606,51.8826],[-116.6043,51.9689],[-116.6448,51.9828],[-116.7199,52.0622],[-116.7565,52.054],[-116.8232,52.1037],[-116.9713,52.1495],[-116.963,52.1765],[-117.0243,52.2118]]]},"properties":{"id":"4815045","name":"Ranchland No. 66"}},
{"type":"Feature","geometry":{"type":"Polygon","coordinates":[[[-112.3707,60.0001],[-112.2039,59.9167],[-111.9813,59.848],[-111.9712,59.8157],[-111.6056,59.823],[-111.5387,59.7822],[-111.5336,59.7008],[-111.4312,59.6435],[-111.4756,59.4343],[-111.4206,59.3249],[-111.4895,59.2806],[-111.5163,59.2275],[-111.3948,59.2117],[-111.4561,59.1247],[-111.4255,59.0896],[-111.4453,59.0296],[-111.3441,58.9677],[-111.1822,58.919],[-111.256,58.8704],[-111.2953,58.794],[-111.247,58.7356],[-111.1266,58.6519],[-111.0909,58.5687],[-111.324,58.5046],[-111.4908,58.4724],[-111.5657,58.4144],[-111.485,58.2498],[-111.383,58.1963],[-111.3889,58.0853],[-111.6857,58.0829],[-112.7003,58.0771],[-113.5343,58.0788],[-114,58.0813],[-114,57.3813],[-113.6066,57.3803],[-113.0946,57.3824],[-113.0938,57.2949],[-112.7651,57.2944],[-112.7392,57.2064],[-112.7434,56.8563],[-112.7202,56.856],[-112.7157,56.5071],[-112.6579,56.3625],[-112.5945,56.3169],[-112.5144,56.1897],[-112.5797,56.1284],[-112.6468,56.0023],[-112.6364,55.9851],[-112.0394,55.9872],[-112.0387,55.9433],[-111.8831,55.9412],[-111.8848,55.9883],[-111.4127,55.9844],[-111.3988,55.8102],[-111.4013,55.5548],[-110.6778,55.5539],[-110,55.5493],[-109.9999,55.8187],[-110,56.5],[-110,56.9291],[-110.0001,57.5575],[-109.9996,58.2824],[-110,59],[-109.9996,59.485],[-110,60],[-110.75,60],[-111.75,60],[-112.3707,60.0001]]]},"properties":{"id":"4816037","name":"Wood Buffalo"}},
{"type":"Feature","geometry":{"type":"Polygon","coordinates":[[[-112.3707,60.0001],[-113.5,60],[-114.5,60],[-115.5672,60.0001],[-115.5692,59.6489],[-115.5557,59.476],[-115.044,59.4737],[-114.0001,59.4747],[-114,59.1495],[-114,58.5],[-114,58.0813],[-113.5343,58.0788],[-112.7003,58.0771],[-111.6857,58.0829],[-111.3889,58.0853],[-111.383,58.1963],[-111.485,58.2498],[-111.5657,58.4144],[-111.4908,58.4724],[-111.324,58.5046],[-111.0909,58.5687],[-111.1266,58.6519],[-111.247,58.7356],[-111.2953,58.794],[-111.256,58.8704],[-111.1822,58.919],[-111.3441,58.9677],[-111.4453,59.0296],[-111.4255,59.0896],[-111.4561,59.1247],[-111.3948,59.2117],[-111.5163,59.2275],[-111.4895,59.2806],[-111.4206,59.3249],[-111.4756,59.4343],[-111.4312,59.6435],[-111.5336,59.7008],[-111.5387,59.7822],[-111.6056,59.823],[-111.9712,59.8157],[-111.9813,59.848],[-112.2039,59.9167],[-112.3707,60.0001]]]},"properties":{"id":"4816051","name":"Improvement District No. 24 Wood Buffalo"}},
{"type":"Feature","geometry":{"type":"Polygon","coordinates":[[[-114.9751,57.3806],[-115.3097,57.3798],[-116,57.3829],[-117.1016,57.3819],[-117.151,57.294],[-117.0778,57.2838],[-117.0919,57.1628],[-117.14,57.1341],[-117.257,57.1204],[-117.1501,57.0775],[-117.2114,57.058],[-117.2423,56.8985],[-117.3025,56.8545],[-117.2338,56.6971],[-117.1226,56.6482],[-117.1472,56.5919],[-117.0799,56.5766],[-117.1116,56.4482],[-117.1648,56.3715],[-117.2474,56.3375],[-117.2753,56.2741],[-117.2777,56.2091],[-117.3113,56.1918],[-117.3903,56.1102],[-117.4545,56.078],[-117.5284,55.9856],[-117.2898,55.9852],[-117.2898,55.9416],[-116.9763,55.9415],[-116.9757,55.8985],[-116.508,55.8975],[-116.5071,55.9844],[-116.0338,55.9851],[-116.0367,56.0729],[-115.7238,56.0739],[-115.7229,55.8976],[-115.2528,55.8987],[-115.2415,55.8088],[-115.2436,55.6358],[-114.9332,55.6357],[-114.9382,55.8095],[-114.9388,56.161],[-114.9495,56.1604],[-114.9497,56.5],[-115.3323,56.5001],[-115.4379,56.4647],[-115.4373,56.7697],[-114.9583,56.7688],[-114.9652,56.8558],[-114.9751,57.3806]]]},"properties":{"id":"4817026","name":"Northern Sunrise County"}},
{"type":"Feature","geometry":{"type":"Polygon","coordinates":[[[-115.2436,55.6358],[-115.2415,55.8088],[-115.2528,55.8987],[-115.7229,55.8976],[-115.7238,56.0739],[-116.0367,56.0729],[-116.0338,55.9851],[-116.5071,55.9844],[-116.508,55.8975],[-116.9757,55.8985],[-116.9727,55.8117],[-116.9217,55.8107],[-116.9196,55.7376],[-116.7933,55.7231],[-116.7934,55.462],[-116.7699,55.3746],[-116.9203,55.3739],[-116.9245,55.1126],[-116.7426,55.1126],[-116.7454,54.8503],[-115.9844,54.8496],[-115.9677,54.7626],[-115.9625,54.5],[-115.0737,54.4997],[-115.0628,54.5028],[-115.0575,54.76],[-115.0699,54.8503],[-115.0668,55.1007],[-115.0786,55.1117],[-115.079,55.2858],[-115.2318,55.2858],[-115.2321,55.4618],[-115.2436,55.6358]]]},"properties":{"id":"4817027","name":"Big Lakes County"}},
{"type":"Feature","geometry":{"type":"Polygon","coordinates":[[[-112.6364,55.9851],[-112.6468,56.0023],[-112.5797,56.1284],[-112.5144,56.1897],[-112.5945,56.3169],[-112.6579,56.3625],[-112.7157,56.5071],[-112.7202,56.856],[-112.7434,56.8563],[-112.7392,57.2064],[-112.7651,57.2944],[-113.0938,57.2949],[-113.0946,57.3824],[-113.6066,57.3803],[-114,57.3813],[-114.9751,57.3806],[-114.9652,56.8558],[-114.9583,56.7688],[-115.4373,56.7697],[-115.4379,56.4647],[-115.3323,56.5001],[-114.9497,56.5],[-114.9495,56.1604],[-114.9388,56.161],[-114.9382,55.8095],[-114.9332,55.6357],[-115.2436,55.6358],[-115.2321,55.4618],[-115.2318,55.2858],[-115.079,55.2858],[-115.0786,55.1117],[-115.0668,55.1007],[-115.0699,54.8503],[-114.2224,54.8505],[-114.2828,54.7843],[-114.3222,54.5887],[-113.6872,54.5879],[-113.6945,54.7419],[-113.6645,54.7621],[-113.6656,54.9367],[-113.3611,54.9373],[-113.3613,55.0239],[-112.9039,55.0241],[-112.9038,54.9704],[-112.7364,54.9739],[-112.744,55.0277],[-112.8359,55.046],[-112.8894,55.0772],[-112.8193,55.1738],[-112.7881,55.2595],[-112.7064,55.2822],[-112.6843,55.3121],[-112.7511,55.4609],[-112.7598,55.5784],[-112.791,55.6414],[-112.7224,55.6934],[-112.5972,55.727],[-112.6303,55.7923],[-112.6329,55.8636],[-112.6774,55.9067],[-112.6188,55.9432],[-112.6364,55.9851]]]},"properties":{"id":"4817033","name":"Lesser Slave River No. 124"}},
{"type":"Feature","geometry":{"type":"Polygon","coordinates":[[[-118.0004,56.2474],[-118,56.4218],[-118.1553,56.4218],[-118.1573,56.77],[-118.1641,57.3801],[-118.9329,57.3838],[-120,57.3806],[-120.0001,56.6561],[-120,56.1455],[-119.8653,56.1335],[-119.7661,56.174],[-119.644,56.167],[-119.4664,56.2346],[-119.3613,56.2429],[-119.1634,56.3116],[-119.0329,56.2682],[-118.964,56.2692],[-118.9716,56.2148],[-118.9028,56.1305],[-118.7837,56.1307],[-118.7835,56.1599],[-118.0005,56.16],[-118.0004,56.2474]]]},"properties":{"id":"4817062","name":"Clear Hills"}},
{"type":"Feature","geometry":{"type":"Polygon","coordinates":[[[-117.1016,57.3819],[-117.0264,57.4414],[-117.03,57.4753],[-117.1102,57.5199],[-116.954,57.5312],[-116.9164,57.569],[-117.0253,57.5913],[-117.0956,57.6244],[-117.018,57.7796],[-117.0972,57.7862],[-117.0205,57.8524],[-117.1445,57.9352],[-117.0923,58.0349],[-116.9753,58.0541],[-116.9419,58.0797],[-117.3018,58.079],[-118.267,58.079],[-119.0546,58.0796],[-120,58.0795],[-120,57.3806],[-118.9329,57.3838],[-118.1641,57.3801],[-118.1573,56.77],[-118.1553,56.4218],[-118,56.4218],[-118.0004,56.2474],[-117.3206,56.2483],[-117.2753,56.2741],[-117.2474,56.3375],[-117.1648,56.3715],[-117.1116,56.4482],[-117.0799,56.5766],[-117.1472,56.5919],[-117.1226,56.6482],[-117.2338,56.6971],[-117.3025,56.8545],[-117.2423,56.8985],[-117.2114,57.058],[-117.1501,57.0775],[-117.257,57.1204],[-117.14,57.1341],[-117.0919,57.1628],[-117.0778,57.2838],[-117.151,57.294],[-117.1016,57.3819]]]},"properties":{"id":"4817076","name":"Northern Lights County"}},
{"type":"Feature","geometry":{"type":"Polygon","coordinates":[[[-114,58.0813],[-114,58.5],[-114,59.1495],[-114.0001,59.4747],[-115.044,59.4737],[-115.5557,59.476],[-115.5692,59.6489],[-115.5672,60.0001],[-116.5,60],[-117,60],[-117.75,60],[-118.75,60],[-119.5,60],[-120,60],[-120,59.5],[-120,59.0893],[-120,58.4823],[-120,58.0795],[-119.0546,58.0796],[-118.267,58.079],[-117.3018,58.079],[-116.9419,58.0797],[-116.9753,58.0541],[-117.0923,58.0349],[-117.1445,57.9352],[-117.0205,57.8524],[-117.0972,57.7862],[-117.018,57.7796],[-117.0956,57.6244],[-117.0253,57.5913],[-116.9164,57.569],[-116.954,57.5312],[-117.1102,57.5199],[-117.03,57.4753],[-117.0264,57.4414],[-117.1016,57.3819],[-116,57.3829],[-115.3097,57.3798],[-114.9751,57.3806],[-114,57.3813],[-114,58.0813]]]},"properties":{"id":"4817095","name":"Mackenzie County"}},
{"type":"Feature","geometry":{"type":"Polygon","coordinates":[[[-117.63,55.6715],[-117.6486,55.6086],[-117.7019,55.5634],[-117.8268,55.5493],[-117.9493,55.5572],[-117.985,55.5816],[-118.0942,55.5451],[-118.1983,55.549],[-118.1459,55.5114],[-118.1674,55.457],[-118.2319,55.4],[-118.2174,55.362],[-118.292,55.2983],[-118.2815,55.2199],[-118.2201,55.1811],[-118.2603,55.1451],[-118.3555,55.1472],[-118.4462,55.122],[-118.5456,55.0745],[-118.6538,55.0612],[-118.7545,55.0817],[-118.9076,55.0545],[-118.968,55.0802],[-119.0523,55.0462],[-119.1885,55.054],[-119.2681,55.0446],[-119.3858,55.0022],[-119.4225,55.0142],[-119.5291,54.9609],[-119.6007,54.9626],[-119.6786,54.9187],[-119.7019,54.8684],[-119.8169,54.8335],[-119.8448,54.7821],[-119.922,54.7458],[-120,54.737],[-120,54.214],[-120,53.9374],[-119.9192,53.9433],[-119.8134,53.8947],[-119.6781,53.9297],[-119.6223,53.9846],[-119.5559,54.0197],[-119.4841,54.0249],[-119.485,53.8466],[-118.9978,53.8448],[-118.9993,53.8049],[-118.1251,53.8067],[-118.1242,53.8542],[-118.0489,53.9205],[-117.7852,53.9569],[-117.6898,54.0242],[-117.5714,54.0305],[-117.5291,54.0523],[-117.3963,54.0247],[-117.2643,54.0521],[-117.2888,54.0059],[-117.0974,53.9737],[-116.959,54.017],[-116.8371,54.006],[-116.7322,54.1144],[-116.6989,54.1219],[-116.526,54.1689],[-116.4596,54.2108],[-116.298,54.2305],[-116.2504,54.2561],[-116.2549,54.3265],[-116.1005,54.3263],[-116.1015,54.4145],[-115.97,54.4126],[-115.9625,54.5],[-115.9677,54.7626],[-115.9844,54.8496],[-116.7454,54.8503],[-116.7426,55.1126],[-116.9245,55.1126],[-116.9203,55.3739],[-117.5387,55.3749],[-117.5709,55.4615],[-117.5688,55.6703],[-117.63,55.6715]]]},"properties":{"id":"4818015","name":"Greenview No. 16"}},
{"type":"Feature","geometry":{"type":"Polygon","coordinates":[[[-118.6211,55.4932],[-119.1639,55.4901],[-119.1639,55.5487],[-119.4236,55.5484],[-119.4482,55.5196],[-119.5259,55.5196],[-119.5764,55.4615],[-119.7601,55.4612],[-119.8367,55.4904],[-120.0015,55.4903],[-120.0003,55.1226],[-120,54.737],[-119.922,54.7458],[-119.8448,54.7821],[-119.8169,54.8335],[-119.7019,54.8684],[-119.6786,54.9187],[-119.6007,54.9626],[-119.5291,54.9609],[-119.4225,55.0142],[-119.3858,55.0022],[-119.2681,55.0446],[-119.1885,55.054],[-119.0523,55.0462],[-118.968,55.0802],[-118.9076,55.0545],[-118.7545,55.0817],[-118.6538,55.0612],[-118.5456,55.0745],[-118.4462,55.122],[-118.3555,55.1472],[-118.2603,55.1451],[-118.2201,55.1811],[-118.2815,55.2199],[-118.292,55.2983],[-118.2174,55.362],[-118.2319,55.4],[-118.1674,55.457],[-118.1459,55.5114],[-118.1983,55.549],[-118.2585,55.563],[-118.3632,55.5273],[-118.3606,55.4614],[-118.6212,55.4614],[-118.6211,55.4932]]]},"properties":{"id":"4819006","name":"Grande Prairie County No. 1"}},
{"type":"Feature","geometry":{"type":"Polygon","coordinates":[[[-116.9757,55.8985],[-116.9763,55.9415],[-117.2898,55.9416],[-117.2898,55.9852],[-117.5284,55.9856],[-117.4951,55.8616],[-117.5597,55.7896],[-117.6438,55.7412],[-117.63,55.6715],[-117.5688,55.6703],[-117.5709,55.4615],[-117.5387,55.3749],[-116.9203,55.3739],[-116.7699,55.3746],[-116.7934,55.462],[-116.7933,55.7231],[-116.9196,55.7376],[-116.9217,55.8107],[-116.9727,55.8117],[-116.9757,55.8985]]]},"properties":{"id":"4819041","name":"Smoky River No. 130"}},
{"type":"Feature","geometry":{"type":"Polygon","coordinates":[[[-118,55.9097],[-118.1972,55.9209],[-118.4447,55.8991],[-118.5526,55.9228],[-118.6278,55.9228],[-118.6274,55.8981],[-118.4706,55.8979],[-118.4662,55.723],[-118.6211,55.723],[-118.6211,55.636],[-118.6211,55.4932],[-118.6212,55.4614],[-118.3606,55.4614],[-118.3632,55.5273],[-118.2585,55.563],[-118.1983,55.549],[-118.0942,55.5451],[-117.985,55.5816],[-117.9493,55.5572],[-117.8268,55.5493],[-117.7019,55.5634],[-117.6486,55.6086],[-117.63,55.6715],[-117.6438,55.7412],[-117.5597,55.7896],[-117.4951,55.8616],[-117.5284,55.9856],[-117.4545,56.078],[-117.3903,56.1102],[-117.3113,56.1918],[-117.437,56.1521],[-117.5001,56.1041],[-117.567,56.0931],[-117.6565,56.0308],[-117.7305,56.0235],[-117.8685,55.942],[-118,55.9097]]]},"properties":{"id":"4819049","name":"Birch Hills County"}},
{"type":"Feature","geometry":{"type":"Polygon","coordinates":[[[-118.6274,55.8981],[-118.7304,55.898],[-118.7828,55.8481],[-118.8878,55.8486],[-118.9314,55.8106],[-118.9313,55.6359],[-118.6211,55.636],[-118.6211,55.723],[-118.4662,55.723],[-118.4706,55.8979],[-118.6274,55.8981]]]},"properties":{"id":"4819054","name":"Spirit River No. 133"}},
{"type":"Feature","geometry":{"type":"Polygon","coordinates":[[[-118.9028,56.1305],[-118.9716,56.2148],[-118.964,56.2692],[-119.0329,56.2682],[-119.1634,56.3116],[-119.3613,56.2429],[-119.4664,56.2346],[-119.644,56.167],[-119.7661,56.174],[-119.8653,56.1335],[-120,56.1455],[-120.0015,55.4903],[-119.8367,55.4904],[-119.7601,55.4612],[-119.5764,55.4615],[-119.5259,55.5196],[-119.4482,55.5196],[-119.4236,55.5484],[-119.1639,55.5487],[-119.1639,55.4901],[-118.6211,55.4932],[-118.6211,55.636],[-118.9313,55.6359],[-118.9314,55.8106],[-118.8878,55.8486],[-118.7828,55.8481],[-118.7304,55.898],[-118.6274,55.8981],[-118.6278,55.9228],[-118.7868,55.9459],[-118.8214,56.0136],[-118.9112,56.0419],[-118.9028,56.1305]]]},"properties":{"id":"4819059","name":"Saddle Hills County"}},
{"type":"Feature","geometry":{"type":"Polygon","coordinates":[[[-118.0005,56.16],[-118.7835,56.1599],[-118.7837,56.1307],[-118.9028,56.1305],[-118.9112,56.0419],[-118.8214,56.0136],[-118.7868,55.9459],[-118.6278,55.9228],[-118.5526,55.9228],[-118.4447,55.8991],[-118.1972,55.9209],[-118,55.9097],[-118.0005,56.16]]]},"properties":{"id":"4819066","name":"Fairview No. 136"}},
{"type":"Feature","geometry":{"type":"Polygon","coordinates":[[[-117.2753,56.2741],[-117.3206,56.2483],[-118.0004,56.2474],[-118.0005,56.16],[-118,55.9097],[-117.8685,55.942],[-117.7305,56.0235],[-117.6565,56.0308],[-117.567,56.0931],[-117.5001,56.1041],[-117.437,56.1521],[-117.3113,56.1918],[-117.2777,56.2091],[-117.2753,56.2741]]]},"properties":{"id":"4819071","name":"Peace No. 135"}}
]}