{"type":"FeatureCollection", "features": [
{"type":"Feature","geometry":{"type":"Polygon","coordinates":[[[-96.6463,49.2664],[-96.78,49.2663],[-96.781,49.1781],[-96.786,49.1632],[-96.7863,49.0002],[-96.3821,49.0001],[-96.2474,49.0002],[-96.2472,49.1782],[-96.2392,49.1782],[-96.2396,49.2661],[-96.3745,49.267],[-96.6463,49.2664]]]},"properties":{"id":"4601035","name":"Stuartburn"}},
{"type":"Feature","geometry":{"type":"Polygon","coordinates":[[[-95.6977,49.4139],[-96.1033,49.414],[-96.3747,49.4139],[-96.3764,49.3551],[-96.3761,49.2715],[-96.3745,49.267],[-96.2396,49.2661],[-96.2392,49.1782],[-96.2472,49.1782],[-96.2474,49.0002],[-95.9341,48.9999],[-95.574,48.9994],[-95.3165,48.9989],[-95.3059,48.9998],[-95.3061,49.0889],[-95.4414,49.089],[-95.442,49.1779],[-95.6972,49.1773],[-95.6977,49.4139]]]},"properties":{"id":"4601039","name":"Piney"}},
{"type":"Feature","geometry":{"type":"Polygon","coordinates":[[[-95.6977,49.4139],[-95.6978,49.5325],[-95.564,49.535],[-95.4076,49.5322],[-95.4079,49.6648],[-95.5439,49.6649],[-95.5439,49.8122],[-95.4985,49.8123],[-95.4991,49.9011],[-95.5258,49.901],[-95.5541,49.886],[-95.6397,49.886],[-95.6398,49.9014],[-95.6625,49.9014],[-95.6625,49.9159],[-95.6852,49.9159],[-95.6853,50.1052],[-95.8207,50.105],[-95.8204,50.033],[-95.8235,50.0003],[-95.8214,49.978],[-95.8204,49.8862],[-95.8157,49.8861],[-95.8157,49.7974],[-96.0921,49.7959],[-96.0922,49.8846],[-96.0863,49.8845],[-96.0857,50.0613],[-96.3605,50.0615],[-96.361,49.973],[-96.3567,49.8851],[-96.3657,49.8849],[-96.3657,49.7961],[-96.3672,49.7073],[-96.3657,49.6705],[-96.3675,49.5321],[-96.3754,49.5322],[-96.3747,49.4139],[-96.1033,49.414],[-95.6977,49.4139]]]},"properties":{"id":"4601043","name":"Reynolds"}},
{"type":"Feature","geometry":{"type":"Polygon","coordinates":[[[-95.8212,50.1294],[-95.8418,50.112],[-95.8509,50.1114],[-95.8729,50.1269],[-95.8727,50.1344],[-95.9309,50.1395],[-95.9685,50.1334],[-95.9992,50.1323],[-96.0254,50.1176],[-96.0434,50.1346],[-96.0874,50.1343],[-96.0857,50.0613],[-96.0863,49.8845],[-96.0922,49.8846],[-96.0921,49.7959],[-95.8157,49.7974],[-95.8157,49.8861],[-95.8204,49.8862],[-95.8214,49.978],[-95.8235,50.0003],[-95.8204,50.033],[-95.8207,50.105],[-95.8212,50.1294]]]},"properties":{"id":"4601046","name":"Whitemouth"}},
{"type":"Feature","geometry":{"type":"Polygon","coordinates":[[[-95.8211,50.1924],[-95.8212,50.2216],[-95.81,50.2216],[-95.8093,50.3363],[-95.8144,50.3669],[-95.8097,50.3959],[-95.9665,50.3963],[-96.0753,50.3971],[-96.0752,50.4151],[-96.2152,50.4147],[-96.3533,50.4152],[-96.3532,50.3268],[-96.353,50.2827],[-96.3529,50.2386],[-96.3609,50.2385],[-96.3602,50.1999],[-96.3605,50.0615],[-96.0857,50.0613],[-96.0874,50.1343],[-96.0434,50.1346],[-96.0254,50.1176],[-95.9992,50.1323],[-95.9685,50.1334],[-95.9309,50.1395],[-95.8727,50.1344],[-95.8729,50.1269],[-95.8509,50.1114],[-95.8418,50.112],[-95.8212,50.1294],[-95.8211,50.1924]]]},"properties":{"id":"4601057","name":"Lac du Bonnet"}},
{"type":"Feature","geometry":{"type":"Polygon","coordinates":[[[-95.5348,50.3648],[-95.5336,50.4608],[-95.5344,50.483],[-95.8709,50.4836],[-95.9465,50.4832],[-95.9461,50.5704],[-96.075,50.5716],[-96.0754,50.5915],[-96.2147,50.5918],[-96.2147,50.5755],[-96.2329,50.5775],[-96.2334,50.5607],[-96.2154,50.5534],[-96.3293,50.5532],[-96.3295,50.5966],[-96.3752,50.597],[-96.3749,50.6201],[-96.3897,50.6213],[-96.3955,50.6309],[-96.4113,50.6317],[-96.4603,50.6469],[-96.4739,50.6551],[-96.4802,50.6714],[-96.4895,50.678],[-96.5226,50.6878],[-96.5279,50.6976],[-96.5162,50.7213],[-96.5361,50.7243],[-96.5447,50.7415],[-96.5182,50.7598],[-96.5163,50.7764],[-96.5275,50.7808],[-96.5626,50.7636],[-96.5735,50.7503],[-96.5456,50.7369],[-96.5445,50.7212],[-96.5678,50.7065],[-96.5283,50.683],[-96.5349,50.6758],[-96.57,50.6722],[-96.6031,50.6617],[-96.5929,50.629],[-96.5916,50.6057],[-96.5791,50.587],[-96.5827,50.5823],[-96.583,50.5478],[-96.583,50.5331],[-96.5373,50.5331],[-96.5376,50.416],[-96.4454,50.4153],[-96.4453,50.3263],[-96.3532,50.3268],[-96.3533,50.4152],[-96.2152,50.4147],[-96.0752,50.4151],[-96.0753,50.3971],[-95.9665,50.3963],[-95.8097,50.3959],[-95.8144,50.3669],[-95.8093,50.3363],[-95.81,50.2216],[-95.8212,50.2216],[-95.8211,50.1924],[-95.6398,50.1924],[-95.6399,50.2216],[-95.6029,50.2219],[-95.6033,50.3377],[-95.5346,50.3377],[-95.5348,50.3648]]]},"properties":{"id":"4601071","name":"Alexander"}},
{"type":"Feature","geometry":{"type":"Polygon","coordinates":[[[-95.3059,48.9998],[-95.2324,48.9995],[-95.2246,49.0092],[-95.2179,49.0329],[-95.2471,49.0357],[-95.261,49.0406],[-95.2811,49.0563],[-95.2783,49.0683],[-95.2889,49.0797],[-95.2929,49.1047],[-95.2833,49.1313],[-95.2635,49.1518],[-95.2449,49.1642],[-95.207,49.1762],[-95.1765,49.1785],[-95.1533,49.1757],[-95.1537,49.3532],[-95.1527,49.452],[-95.1625,49.4635],[-95.1524,49.4701],[-95.1525,49.5765],[-95.1593,49.5874],[-95.1882,49.5874],[-95.1946,49.6009],[-95.1529,49.6034],[-95.1542,49.6146],[-95.1872,49.6055],[-95.2042,49.6136],[-95.173,49.6392],[-95.1534,49.6461],[-95.1541,49.7391],[-95.1521,49.7462],[-95.1529,49.8331],[-95.1529,50.0012],[-95.1529,50.2474],[-95.1528,50.3958],[-95.2602,50.3959],[-95.26,50.3702],[-95.351,50.3674],[-95.5348,50.3648],[-95.5346,50.3377],[-95.6033,50.3377],[-95.6029,50.2219],[-95.6399,50.2216],[-95.6398,50.1924],[-95.8211,50.1924],[-95.8212,50.1294],[-95.8207,50.105],[-95.6853,50.1052],[-95.6852,49.9159],[-95.6625,49.9159],[-95.6625,49.9014],[-95.6398,49.9014],[-95.6397,49.886],[-95.5541,49.886],[-95.5258,49.901],[-95.4991,49.9011],[-95.4985,49.8123],[-95.5439,49.8122],[-95.5439,49.6649],[-95.4079,49.6648],[-95.4076,49.5322],[-95.564,49.535],[-95.6978,49.5325],[-95.6977,49.4139],[-95.6972,49.1773],[-95.442,49.1779],[-95.4414,49.089],[-95.3061,49.0889],[-95.3059,48.9998]]]},"properties":{"id":"4601094","name":"Division No.  1, Unorganized"}},
{"type":"Feature","geometry":{"type":"Polygon","coordinates":[[[-96.78,49.2663],[-97.188,49.2662],[-97.2783,49.2661],[-97.2771,49.2372],[-97.2664,49.2373],[-97.2654,49.1924],[-97.2925,49.1881],[-97.291,49.1746],[-97.2714,49.1512],[-97.2559,49.1449],[-97.24,49.1034],[-97.2167,49.0969],[-97.2161,49.0739],[-97.1883,49.05],[-97.1963,49.0326],[-97.225,49.038],[-97.2578,49.0377],[-97.2577,49.0005],[-97.1891,49.0003],[-96.7863,49.0002],[-96.786,49.1632],[-96.781,49.1781],[-96.78,49.2663]]]},"properties":{"id":"4602024","name":"Emerson-Franklin"}},
{"type":"Feature","geometry":{"type":"Polygon","coordinates":[[[-97.0486,49.5317],[-97.16,49.5319],[-97.1766,49.5245],[-97.1765,49.5024],[-97.1879,49.4876],[-97.188,49.3548],[-97.188,49.2662],[-96.78,49.2663],[-96.7813,49.355],[-96.9176,49.3549],[-96.9171,49.4754],[-96.918,49.5322],[-97.0486,49.5317]]]},"properties":{"id":"4602032","name":"De Salaberry"}},
{"type":"Feature","geometry":{"type":"Polygon","coordinates":[[[-96.643,49.5322],[-96.6412,49.619],[-96.7755,49.6194],[-96.9806,49.6206],[-97.0715,49.6207],[-97.0714,49.5912],[-97.0487,49.5912],[-97.0486,49.5317],[-96.918,49.5322],[-96.9171,49.4754],[-96.9176,49.3549],[-96.7813,49.355],[-96.78,49.2663],[-96.6463,49.2664],[-96.6456,49.2962],[-96.6461,49.5316],[-96.643,49.5322]]]},"properties":{"id":"4602041","name":"Hanover"}},
{"type":"Feature","geometry":{"type":"Polygon","coordinates":[[[-96.643,49.5322],[-96.6461,49.5316],[-96.6456,49.2962],[-96.6463,49.2664],[-96.3745,49.267],[-96.3761,49.2715],[-96.3764,49.3551],[-96.3747,49.4139],[-96.3754,49.5322],[-96.643,49.5322]]]},"properties":{"id":"4602053","name":"La Broquerie"}},
{"type":"Feature","geometry":{"type":"Polygon","coordinates":[[[-96.3672,49.7073],[-96.6077,49.7075],[-96.7759,49.7085],[-96.7755,49.6194],[-96.6412,49.619],[-96.643,49.5322],[-96.3754,49.5322],[-96.3675,49.5321],[-96.3657,49.6705],[-96.3672,49.7073]]]},"properties":{"id":"4602057","name":"Ste. Anne"}},
{"type":"Feature","geometry":{"type":"Polygon","coordinates":[[[-96.3657,49.7961],[-96.5017,49.7958],[-96.9811,49.7975],[-96.9806,49.6206],[-96.7755,49.6194],[-96.7759,49.7085],[-96.6077,49.7075],[-96.3672,49.7073],[-96.3657,49.7961]]]},"properties":{"id":"4602069","name":"Taché"}},
{"type":"Feature","geometry":{"type":"Polygon","coordinates":[[[-97.0262,49.7976],[-97.0487,49.7925],[-97.0481,49.7746],[-97.0836,49.7624],[-97.0829,49.753],[-97.1221,49.7405],[-97.1283,49.7455],[-97.2199,49.7136],[-97.2098,49.7092],[-97.2085,49.6956],[-97.1726,49.7082],[-97.1627,49.7081],[-97.1626,49.6206],[-97.1806,49.6206],[-97.1801,49.6059],[-97.1966,49.5911],[-97.2256,49.5764],[-97.254,49.5469],[-97.2541,49.5319],[-97.16,49.5319],[-97.0486,49.5317],[-97.0487,49.5912],[-97.0714,49.5912],[-97.0715,49.6207],[-96.9806,49.6206],[-96.9811,49.7975],[-97.0262,49.7976]]]},"properties":{"id":"4602075","name":"Ritchot"}},
{"type":"Feature","geometry":{"type":"Polygon","coordinates":[[[-97.188,49.3548],[-97.3503,49.3543],[-97.3349,49.3474],[-97.3363,49.3329],[-97.3267,49.3251],[-97.3685,49.3252],[-97.369,49.2661],[-97.4594,49.2661],[-97.4597,49.0887],[-97.3246,49.0891],[-97.3249,49.0006],[-97.2577,49.0005],[-97.2578,49.0377],[-97.225,49.038],[-97.1963,49.0326],[-97.1883,49.05],[-97.2161,49.0739],[-97.2167,49.0969],[-97.24,49.1034],[-97.2559,49.1449],[-97.2714,49.1512],[-97.291,49.1746],[-97.2925,49.1881],[-97.2654,49.1924],[-97.2664,49.2373],[-97.2771,49.2372],[-97.2783,49.2661],[-97.188,49.2662],[-97.188,49.3548]]]},"properties":{"id":"4603030","name":"Montcalm"}},
{"type":"Feature","geometry":{"type":"Polygon","coordinates":[[[-97.4594,49.2661],[-97.7304,49.2665],[-97.8659,49.2663],[-97.8661,49.1777],[-97.8634,49.1777],[-97.8633,49.0006],[-97.5717,49.0005],[-97.3249,49.0006],[-97.3246,49.0891],[-97.4597,49.0887],[-97.4594,49.2661]]]},"properties":{"id":"4603041","name":"Rhineland"}},
{"type":"Feature","geometry":{"type":"Polygon","coordinates":[[[-98.0693,49.2662],[-98.273,49.2664],[-98.2732,49.1778],[-98.2676,49.1777],[-98.268,49.0003],[-98.0331,49.0004],[-97.8633,49.0006],[-97.8634,49.1777],[-97.8661,49.1777],[-97.8659,49.2663],[-98.0693,49.2662]]]},"properties":{"id":"4603047","name":"Stanley"}},
{"type":"Feature","geometry":{"type":"Polygon","coordinates":[[[-98.0696,49.4435],[-98.273,49.4434],[-98.2731,49.4875],[-98.4091,49.4879],[-98.4081,49.3992],[-98.409,49.3548],[-98.4089,49.2661],[-98.273,49.2664],[-98.0693,49.2662],[-98.0696,49.4435]]]},"properties":{"id":"4603058","name":"Thompson"}},
{"type":"Feature","geometry":{"type":"Polygon","coordinates":[[[-97.7304,49.2665],[-97.7305,49.4437],[-97.8537,49.4427],[-97.8661,49.4435],[-98.0696,49.4435],[-98.0693,49.2662],[-97.8659,49.2663],[-97.7304,49.2665]]]},"properties":{"id":"4603062","name":"Roland"}},
{"type":"Feature","geometry":{"type":"Polygon","coordinates":[[[-97.2541,49.5319],[-97.5161,49.5322],[-97.7307,49.5324],[-97.7305,49.4437],[-97.7304,49.2665],[-97.4594,49.2661],[-97.369,49.2661],[-97.3685,49.3252],[-97.3267,49.3251],[-97.3363,49.3329],[-97.3349,49.3474],[-97.3503,49.3543],[-97.188,49.3548],[-97.1879,49.4876],[-97.1765,49.5024],[-97.1766,49.5245],[-97.16,49.5319],[-97.2541,49.5319]]]},"properties":{"id":"4603065","name":"Morris"}},
{"type":"Feature","geometry":{"type":"Polygon","coordinates":[[[-97.7305,49.4437],[-97.7307,49.5324],[-97.7324,49.621],[-98.2104,49.6207],[-98.4148,49.6211],[-98.4145,49.5317],[-98.4091,49.5317],[-98.4091,49.4879],[-98.2731,49.4875],[-98.273,49.4434],[-98.0696,49.4435],[-97.8661,49.4435],[-97.8537,49.4427],[-97.7305,49.4437]]]},"properties":{"id":"4603072","name":"Dufferin"}},
{"type":"Feature","geometry":{"type":"Polygon","coordinates":[[[-98.409,49.3548],[-98.6586,49.3551],[-98.6953,49.3564],[-98.7265,49.3543],[-98.8175,49.3547],[-98.8159,49.3402],[-98.7945,49.3398],[-98.7945,49.325],[-98.7719,49.3251],[-98.7718,49.3103],[-98.7379,49.3105],[-98.7378,49.2957],[-98.7248,49.2956],[-98.7253,49.2514],[-98.7038,49.2514],[-98.7031,49.1998],[-98.6805,49.1999],[-98.6803,49.1775],[-98.6723,49.1775],[-98.6717,49.015],[-98.6725,49.0001],[-98.3891,49.0001],[-98.268,49.0003],[-98.2676,49.1777],[-98.2732,49.1778],[-98.273,49.2664],[-98.4089,49.2661],[-98.409,49.3548]]]},"properties":{"id":"4604034","name":"Pembina"}},
{"type":"Feature","geometry":{"type":"Polygon","coordinates":[[[-98.8175,49.3547],[-98.9287,49.3542],[-98.9526,49.3244],[-98.9647,49.3251],[-98.9648,49.2957],[-98.9757,49.2956],[-98.9755,49.2796],[-98.9981,49.2799],[-98.9974,49.2658],[-99.01,49.2657],[-99.0203,49.2513],[-99.0201,49.2146],[-99.0653,49.2149],[-99.0879,49.2078],[-99.0879,49.1778],[-99.0782,49.1777],[-99.0775,49.0887],[-99.0755,49.0148],[-99.0766,49.0001],[-98.6725,49.0001],[-98.6717,49.015],[-98.6723,49.1775],[-98.6803,49.1775],[-98.6805,49.1999],[-98.7031,49.1998],[-98.7038,49.2514],[-98.7253,49.2514],[-98.7248,49.2956],[-98.7378,49.2957],[-98.7379,49.3105],[-98.7718,49.3103],[-98.7719,49.3251],[-98.7945,49.325],[-98.7945,49.3398],[-98.8159,49.3402],[-98.8175,49.3547]]]},"properties":{"id":"4604040","name":"Louise"}},
{"type":"Feature","geometry":{"type":"Polygon","coordinates":[[[-99.361,49.2221],[-99.4057,49.2223],[-99.4035,49.2369],[-99.4426,49.2371],[-99.4506,49.2441],[-99.45,49.2668],[-99.4706,49.2669],[-99.4949,49.2669],[-99.4952,49.1783],[-99.4813,49.1713],[-99.4814,49.0143],[-99.4822,49],[-99.2405,49],[-99.0766,49.0001],[-99.0755,49.0148],[-99.0775,49.0887],[-99.0782,49.1777],[-99.0879,49.1778],[-99.0879,49.2078],[-99.1927,49.2081],[-99.224,49.2217],[-99.2588,49.2228],[-99.361,49.2221]]]},"properties":{"id":"4604052","name":"Cartwright-Roblin"}},
{"type":"Feature","geometry":{"type":"Polygon","coordinates":[[[-99.0993,49.5332],[-99.1143,49.5325],[-99.3472,49.533],[-99.3604,49.5335],[-99.3598,49.2369],[-99.361,49.2221],[-99.2588,49.2228],[-99.224,49.2217],[-99.1927,49.2081],[-99.0879,49.2078],[-99.0653,49.2149],[-99.0201,49.2146],[-99.0203,49.2513],[-99.01,49.2657],[-98.9974,49.2658],[-98.9981,49.2799],[-98.9755,49.2796],[-98.9757,49.2956],[-98.9648,49.2957],[-98.9647,49.3251],[-98.9526,49.3244],[-98.9527,49.355],[-99.0884,49.3549],[-99.0885,49.5324],[-99.0993,49.5332]]]},"properties":{"id":"4604057","name":"Argyle"}},
{"type":"Feature","geometry":{"type":"Polygon","coordinates":[[[-98.7327,49.5325],[-98.8242,49.5322],[-99.0885,49.5324],[-99.0884,49.3549],[-98.9527,49.355],[-98.9526,49.3244],[-98.9287,49.3542],[-98.8175,49.3547],[-98.7265,49.3543],[-98.6953,49.3564],[-98.6586,49.3551],[-98.409,49.3548],[-98.4081,49.3992],[-98.4091,49.4879],[-98.4091,49.5317],[-98.4145,49.5317],[-98.5451,49.5327],[-98.7327,49.5325]]]},"properties":{"id":"4604064","name":"Lorne"}},
{"type":"Feature","geometry":{"type":"Polygon","coordinates":[[[-99.4706,49.2669],[-99.4731,49.2817],[-99.4964,49.2886],[-99.4965,49.3038],[-99.5373,49.3229],[-99.5588,49.3428],[-99.5711,49.3631],[-99.604,49.4005],[-99.6139,49.4035],[-99.6303,49.3936],[-99.5888,49.3549],[-99.6307,49.3551],[-99.6299,49.2669],[-99.9014,49.2668],[-99.9013,49.1776],[-99.8845,49.1756],[-99.8846,49.0001],[-99.4822,49],[-99.4814,49.0143],[-99.4813,49.1713],[-99.4952,49.1783],[-99.4949,49.2669],[-99.4706,49.2669]]]},"properties":{"id":"4605025","name":"Killarney - Turtle Mountain"}},
{"type":"Feature","geometry":{"type":"Polygon","coordinates":[[[-99.9013,49.3553],[-100.1997,49.3554],[-100.2176,49.3526],[-100.3079,49.3553],[-100.3075,49.2806],[-100.309,49.2694],[-100.3085,49.1776],[-100.2873,49.1776],[-100.2874,49.0921],[-100.289,49.078],[-100.2882,49],[-99.8846,49.0001],[-99.8845,49.1756],[-99.9013,49.1776],[-99.9014,49.2668],[-99.9013,49.3553]]]},"properties":{"id":"4605032","name":"Boissevain-Morton"}},
{"type":"Feature","geometry":{"type":"Polygon","coordinates":[[[-100.3079,49.3553],[-100.579,49.3553],[-100.5804,49.3111],[-100.5789,49.2669],[-100.5791,49.1776],[-100.5558,49.1736],[-100.5556,49.0001],[-100.2882,49],[-100.289,49.078],[-100.2874,49.0921],[-100.2873,49.1776],[-100.3085,49.1776],[-100.309,49.2694],[-100.3075,49.2806],[-100.3079,49.3553]]]},"properties":{"id":"4605038","name":"Deloraine-Winchester"}},
{"type":"Feature","geometry":{"type":"Polygon","coordinates":[[[-100.5556,49.0001],[-100.5558,49.1736],[-100.5791,49.1776],[-100.5789,49.2669],[-100.5804,49.3111],[-100.579,49.3553],[-100.6402,49.3547],[-100.8502,49.3553],[-100.8501,49.2667],[-100.8516,49.2501],[-100.8508,49.1777],[-100.8245,49.1777],[-100.8246,49.0001],[-100.5556,49.0001]]]},"properties":{"id":"4605044","name":"Brenda-Waskada"}},
{"type":"Feature","geometry":{"type":"Polygon","coordinates":[[[-100.8246,49.0001],[-100.8245,49.1777],[-100.8508,49.1777],[-100.8516,49.2501],[-100.8501,49.2667],[-100.8502,49.3553],[-100.8502,49.5328],[-100.8721,49.5329],[-101,49.5327],[-101.3926,49.5327],[-101.3924,49.4592],[-101.3891,49.3995],[-101.3924,49.3971],[-101.3915,49.1779],[-101.3621,49.1778],[-101.362,48.9995],[-101.1147,48.9995],[-101.0935,49.0001],[-100.8246,49.0001]]]},"properties":{"id":"4605056","name":"Two Borders"}},
{"type":"Feature","geometry":{"type":"Polygon","coordinates":[[[-100.4642,49.5324],[-100.4861,49.5329],[-100.8502,49.5328],[-100.8502,49.3553],[-100.6402,49.3547],[-100.579,49.3553],[-100.3079,49.3553],[-100.2176,49.3526],[-100.1997,49.3554],[-99.9013,49.3553],[-99.9012,49.5328],[-100.0296,49.5328],[-100.0538,49.5338],[-100.0651,49.5329],[-100.4642,49.5324]]]},"properties":{"id":"4605062","name":"Grassland"}},
{"type":"Feature","geometry":{"type":"Polygon","coordinates":[[[-99.6434,49.5329],[-99.8482,49.5334],[-99.9012,49.5328],[-99.9013,49.3553],[-99.9014,49.2668],[-99.6299,49.2669],[-99.6307,49.3551],[-99.5888,49.3549],[-99.6303,49.3936],[-99.6139,49.4035],[-99.604,49.4005],[-99.5711,49.3631],[-99.5588,49.3428],[-99.5373,49.3229],[-99.4965,49.3038],[-99.4964,49.2886],[-99.4731,49.2817],[-99.4706,49.2669],[-99.45,49.2668],[-99.4506,49.2441],[-99.4426,49.2371],[-99.4035,49.2369],[-99.4057,49.2223],[-99.361,49.2221],[-99.3598,49.2369],[-99.3604,49.5335],[-99.4206,49.533],[-99.6434,49.5329]]]},"properties":{"id":"4605071","name":"Prairie Lakes"}},
{"type":"Feature","geometry":{"type":"Polygon","coordinates":[[[-100.8721,49.7983],[-100.8721,49.5329],[-100.8502,49.5328],[-100.4861,49.5329],[-100.4642,49.5324],[-100.4628,49.5593],[-100.4628,49.7101],[-100.4627,49.7982],[-100.8721,49.7983]]]},"properties":{"id":"4606016","name":"Sifton"}},
{"type":"Feature","geometry":{"type":"Polygon","coordinates":[[[-100.8721,49.7983],[-101.0769,49.7982],[-101.4176,49.7983],[-101.4176,49.5327],[-101.3926,49.5327],[-101,49.5327],[-100.8721,49.5329],[-100.8721,49.7983]]]},"properties":{"id":"4606023","name":"Pipestone"}},
{"type":"Feature","geometry":{"type":"Polygon","coordinates":[[[-100.76,50.0637],[-100.9528,50.0641],[-101.1721,50.0637],[-101.3783,50.0636],[-101.4473,50.064],[-101.4472,49.8944],[-101.4484,49.8867],[-101.4175,49.8867],[-101.4176,49.7983],[-101.0769,49.7982],[-100.8721,49.7983],[-100.4627,49.7982],[-100.4625,49.8868],[-100.4851,49.8864],[-100.4853,50.0623],[-100.4845,50.063],[-100.4845,50.0631],[-100.76,50.0637]]]},"properties":{"id":"4606031","name":"Wallace-Woodworth"}},
{"type":"Feature","geometry":{"type":"Polygon","coordinates":[[[-99.0993,49.5332],[-99.0981,49.5364],[-99.0976,49.7536],[-99.2344,49.7536],[-99.2345,49.7979],[-99.5054,49.7978],[-99.6434,49.7979],[-99.6435,49.7092],[-99.6434,49.5329],[-99.4206,49.533],[-99.3604,49.5335],[-99.3472,49.533],[-99.1143,49.5325],[-99.0993,49.5332]]]},"properties":{"id":"4607039","name":"Glenboro-South Cypress"}},
{"type":"Feature","geometry":{"type":"Polygon","coordinates":[[[-99.6435,49.7092],[-99.8087,49.7093],[-100.0528,49.7097],[-100.0531,49.5435],[-100.0538,49.5338],[-100.0296,49.5328],[-99.9012,49.5328],[-99.8482,49.5334],[-99.6434,49.5329],[-99.6435,49.7092]]]},"properties":{"id":"4607046","name":"Oakland-Wawanesa"}},
{"type":"Feature","geometry":{"type":"Polygon","coordinates":[[[-100.0538,49.5338],[-100.0531,49.5435],[-100.0528,49.7097],[-100.4628,49.7101],[-100.4628,49.5593],[-100.4642,49.5324],[-100.0651,49.5329],[-100.0538,49.5338]]]},"properties":{"id":"4607052","name":"Souris-Glenwood"}},
{"type":"Feature","geometry":{"type":"Polygon","coordinates":[[[-100.0724,49.8869],[-100.1893,49.8866],[-100.4625,49.8868],[-100.4627,49.7982],[-100.4628,49.7101],[-100.0528,49.7097],[-100.0527,49.8855],[-100.0724,49.8869]]]},"properties":{"id":"4607057","name":"Whitehead"}},
{"type":"Feature","geometry":{"type":"Polygon","coordinates":[[[-99.4007,50.2405],[-99.4311,50.2405],[-99.4317,50.2114],[-99.4886,50.2104],[-99.4886,50.2405],[-99.6608,50.24],[-99.6597,50.1663],[-99.6602,50.0634],[-99.66,49.8866],[-99.6444,49.8866],[-99.6434,49.7979],[-99.5054,49.7978],[-99.2345,49.7979],[-99.2344,49.7536],[-99.0976,49.7536],[-99.0979,49.7981],[-99.0977,49.8866],[-99.1104,49.8985],[-99.1104,50.0635],[-99.248,50.0634],[-99.2492,50.1553],[-99.248,50.2404],[-99.4007,50.2405]]]},"properties":{"id":"4607066","name":"North Cypress-Langford"}},
{"type":"Feature","geometry":{"type":"Polygon","coordinates":[[[-99.6434,49.7979],[-99.6444,49.8866],[-99.66,49.8866],[-99.6602,50.0634],[-99.9353,50.0636],[-100.0721,50.0636],[-100.0724,49.8869],[-100.0527,49.8855],[-100.0528,49.7097],[-99.8087,49.7093],[-99.6435,49.7092],[-99.6434,49.7979]]]},"properties":{"id":"4607071","name":"Elton"}},
{"type":"Feature","geometry":{"type":"Polygon","coordinates":[[[-100.0721,50.0636],[-100.2077,50.0635],[-100.4712,50.0636],[-100.4845,50.063],[-100.4853,50.0623],[-100.4851,49.8864],[-100.4625,49.8868],[-100.1893,49.8866],[-100.0724,49.8869],[-100.0721,50.0636]]]},"properties":{"id":"4607076","name":"Riverdale"}},
{"type":"Feature","geometry":{"type":"Polygon","coordinates":[[[-98.5513,49.798],[-98.7793,49.7981],[-98.7786,49.621],[-98.7449,49.621],[-98.7447,49.5914],[-98.7331,49.5913],[-98.7327,49.5325],[-98.5451,49.5327],[-98.4145,49.5317],[-98.4148,49.6211],[-98.4148,49.7985],[-98.5513,49.798]]]},"properties":{"id":"4608032","name":"Norfolk-Treherne"}},
{"type":"Feature","geometry":{"type":"Polygon","coordinates":[[[-98.7793,49.7981],[-99.0979,49.7981],[-99.0976,49.7536],[-99.0981,49.5364],[-99.0993,49.5332],[-99.0885,49.5324],[-98.8242,49.5322],[-98.7327,49.5325],[-98.7331,49.5913],[-98.7447,49.5914],[-98.7449,49.621],[-98.7786,49.621],[-98.7793,49.7981]]]},"properties":{"id":"4608042","name":"Victoria"}},
{"type":"Feature","geometry":{"type":"Polygon","coordinates":[[[-98.5513,49.798],[-98.5513,49.887],[-98.5603,49.8869],[-98.56,50.0636],[-98.8047,50.0636],[-99.1104,50.0635],[-99.1104,49.8985],[-99.0977,49.8866],[-99.0979,49.7981],[-98.7793,49.7981],[-98.5513,49.798]]]},"properties":{"id":"4608046","name":"North Norfolk"}},
{"type":"Feature","geometry":{"type":"Polygon","coordinates":[[[-98.8472,50.5063],[-98.8468,50.5651],[-98.985,50.5648],[-98.985,50.5948],[-98.9966,50.5948],[-98.9969,50.6394],[-99.2754,50.639],[-99.4152,50.6392],[-99.4151,50.5947],[-99.4005,50.5947],[-99.4004,50.4028],[-99.4007,50.2405],[-99.248,50.2404],[-99.2492,50.1553],[-99.248,50.0634],[-99.1104,50.0635],[-99.1103,50.2408],[-99.1235,50.2408],[-99.1235,50.506],[-98.8694,50.5057],[-98.8472,50.5063]]]},"properties":{"id":"4608055","name":"Glenella-Lansdowne"}},
{"type":"Feature","geometry":{"type":"Polygon","coordinates":[[[-98.5599,50.2356],[-98.5901,50.2629],[-98.6021,50.3066],[-98.5971,50.336],[-98.5809,50.3625],[-98.5643,50.3706],[-98.5316,50.3762],[-98.5205,50.4001],[-98.5308,50.425],[-98.5617,50.4614],[-98.5627,50.4722],[-98.5781,50.4777],[-98.5954,50.5022],[-98.5964,50.5224],[-98.6066,50.5596],[-98.6385,50.5762],[-98.644,50.5949],[-98.7068,50.595],[-98.7071,50.5061],[-98.8472,50.5063],[-98.8694,50.5057],[-99.1235,50.506],[-99.1235,50.2408],[-99.1103,50.2408],[-99.1104,50.0635],[-98.8047,50.0636],[-98.56,50.0636],[-98.5601,50.1319],[-98.549,50.1522],[-98.5606,50.1558],[-98.5599,50.2356]]]},"properties":{"id":"4608060","name":"WestLake-Gladstone"}},
{"type":"Feature","geometry":{"type":"Polygon","coordinates":[[[-97.7323,49.7984],[-97.8688,49.7979],[-98.1683,49.7981],[-98.4148,49.7985],[-98.4148,49.6211],[-98.2104,49.6207],[-97.7324,49.621],[-97.7323,49.7984]]]},"properties":{"id":"4609018","name":"Grey"}},
{"type":"Feature","geometry":{"type":"Polygon","coordinates":[[[-97.9474,50.0768],[-97.9737,50.0668],[-98.01,50.0677],[-98.0104,50.241],[-98.0146,50.241],[-98.0145,50.3071],[-98.0654,50.297],[-98.0803,50.2707],[-98.1077,50.2499],[-98.1997,50.2159],[-98.2469,50.2029],[-98.32,50.1878],[-98.3713,50.1843],[-98.4502,50.1913],[-98.5,50.2034],[-98.5599,50.2356],[-98.5606,50.1558],[-98.549,50.1522],[-98.5601,50.1319],[-98.56,50.0636],[-98.5603,49.8869],[-98.5513,49.887],[-98.5513,49.798],[-98.4148,49.7985],[-98.1683,49.7981],[-97.8688,49.7979],[-97.8688,49.8864],[-97.8725,49.8865],[-97.8725,50.0267],[-97.9412,50.0266],[-97.95,50.0419],[-97.9474,50.0768]]]},"properties":{"id":"4609024","name":"Portage la Prairie"}},
{"type":"Feature","geometry":{"type":"Polygon","coordinates":[[[-97.4538,49.8057],[-97.4591,49.7981],[-97.7323,49.7984],[-97.7324,49.621],[-97.7307,49.5324],[-97.5161,49.5322],[-97.2541,49.5319],[-97.254,49.5469],[-97.2256,49.5764],[-97.1966,49.5911],[-97.1801,49.6059],[-97.1806,49.6206],[-97.1626,49.6206],[-97.1627,49.7081],[-97.1726,49.7082],[-97.2085,49.6956],[-97.2098,49.7092],[-97.2199,49.7136],[-97.2194,49.7529],[-97.2137,49.7536],[-97.2139,49.7973],[-97.2222,49.814],[-97.2995,49.809],[-97.3491,49.8091],[-97.4538,49.8057]]]},"properties":{"id":"4610035","name":"Macdonald"}},
{"type":"Feature","geometry":{"type":"Polygon","coordinates":[[[-97.4493,49.8707],[-97.5095,49.8737],[-97.5183,49.8932],[-97.555,49.9131],[-97.5804,49.9222],[-97.6121,49.9532],[-97.6489,49.9542],[-97.6578,49.9678],[-97.6819,49.974],[-97.6936,49.9924],[-97.7285,50.0101],[-97.7364,50.0052],[-97.8003,50.0117],[-97.8128,50.0074],[-97.8369,50.0348],[-97.8706,50.0468],[-97.9086,50.0535],[-97.9254,50.0444],[-97.95,50.0419],[-97.9412,50.0266],[-97.8725,50.0267],[-97.8725,49.8865],[-97.8688,49.8864],[-97.8688,49.7979],[-97.7323,49.7984],[-97.4591,49.7981],[-97.4538,49.8057],[-97.4493,49.8707]]]},"properties":{"id":"4610043","name":"Cartier"}},
{"type":"Feature","geometry":{"type":"Polygon","coordinates":[[[-97.7351,50.0638],[-97.8099,50.0638],[-97.8307,50.0772],[-97.8743,50.0776],[-97.902,50.0832],[-97.9299,50.0836],[-97.9474,50.0768],[-97.95,50.0419],[-97.9254,50.0444],[-97.9086,50.0535],[-97.8706,50.0468],[-97.8369,50.0348],[-97.8128,50.0074],[-97.8003,50.0117],[-97.7364,50.0052],[-97.7285,50.0101],[-97.6936,49.9924],[-97.6819,49.974],[-97.6578,49.9678],[-97.6489,49.9542],[-97.6121,49.9532],[-97.5804,49.9222],[-97.555,49.9131],[-97.5183,49.8932],[-97.5095,49.8737],[-97.4493,49.8707],[-97.4441,49.9233],[-97.4705,49.9236],[-97.4879,49.9418],[-97.5285,49.9641],[-97.5282,49.9681],[-97.5622,49.9902],[-97.5969,50.0049],[-97.6026,50.0123],[-97.6426,50.0162],[-97.6519,49.9964],[-97.697,50.0299],[-97.7321,50.0432],[-97.7351,50.0638]]]},"properties":{"id":"4610052","name":"St. François Xavier"}},
{"type":"Feature","geometry":{"type":"Polygon","coordinates":[[[-96.9977,49.9304],[-97.0681,49.9617],[-97.073,49.9599],[-97.1494,49.9939],[-97.161,49.9904],[-97.161,49.9754],[-97.1839,49.9755],[-97.2294,49.9755],[-97.2296,49.9165],[-97.2638,49.916],[-97.2625,49.9312],[-97.2983,49.9313],[-97.3204,49.9273],[-97.3219,49.8988],[-97.3449,49.8984],[-97.3466,49.878],[-97.3389,49.8674],[-97.3258,49.8689],[-97.3245,49.839],[-97.3468,49.8374],[-97.3491,49.8091],[-97.2995,49.809],[-97.2222,49.814],[-97.2139,49.7973],[-97.2137,49.7536],[-97.2194,49.7529],[-97.2199,49.7136],[-97.1283,49.7455],[-97.1221,49.7405],[-97.0829,49.753],[-97.0836,49.7624],[-97.0481,49.7746],[-97.0487,49.7925],[-97.0262,49.7976],[-97.0269,49.8711],[-96.9813,49.8711],[-96.9813,49.886],[-96.956,49.886],[-96.956,49.9006],[-96.9648,49.9156],[-97.0225,49.9158],[-97.0248,49.9306],[-96.9977,49.9304]]]},"properties":{"id":"4611040","name":"Winnipeg"}},
{"type":"Feature","geometry":{"type":"Polygon","coordinates":[[[-97.3204,49.9273],[-97.3895,49.9276],[-97.4122,49.9233],[-97.4441,49.9233],[-97.4493,49.8707],[-97.4538,49.8057],[-97.3491,49.8091],[-97.3468,49.8374],[-97.3245,49.839],[-97.3258,49.8689],[-97.3389,49.8674],[-97.3466,49.878],[-97.3449,49.8984],[-97.3219,49.8988],[-97.3204,49.9273]]]},"properties":{"id":"4611042","name":"Headingley"}},
{"type":"Feature","geometry":{"type":"Polygon","coordinates":[[[-96.7045,50.0624],[-96.8533,50.063],[-96.865,50.0482],[-96.8994,50.0267],[-96.9396,50.0082],[-96.9567,49.9946],[-96.9618,49.9743],[-96.9901,49.9746],[-97.0015,49.9673],[-96.9977,49.9304],[-97.0248,49.9306],[-97.0225,49.9158],[-96.9648,49.9156],[-96.956,49.9006],[-96.956,49.886],[-96.9813,49.886],[-96.9813,49.8711],[-97.0269,49.8711],[-97.0262,49.7976],[-96.9811,49.7975],[-96.5017,49.7958],[-96.3657,49.7961],[-96.3657,49.8849],[-96.3567,49.8851],[-96.361,49.973],[-96.6365,49.9732],[-96.6355,50.062],[-96.7045,50.0624]]]},"properties":{"id":"4612047","name":"Springfield"}},
{"type":"Feature","geometry":{"type":"Polygon","coordinates":[[[-96.353,50.2827],[-96.6039,50.2816],[-96.6283,50.2837],[-96.6271,50.2394],[-96.6799,50.2395],[-96.68,50.1506],[-96.703,50.1507],[-96.7039,50.0913],[-96.717,50.0906],[-96.7166,50.0695],[-96.7045,50.0624],[-96.6355,50.062],[-96.6365,49.9732],[-96.361,49.973],[-96.3605,50.0615],[-96.3602,50.1999],[-96.3609,50.2385],[-96.3529,50.2386],[-96.353,50.2827]]]},"properties":{"id":"4612054","name":"Brokenhead"}},
{"type":"Feature","geometry":{"type":"Polygon","coordinates":[[[-96.9567,49.9946],[-97.0322,50.0287],[-97.1151,50.0638],[-97.1839,50.0639],[-97.1839,49.9755],[-97.161,49.9754],[-97.161,49.9904],[-97.1494,49.9939],[-97.073,49.9599],[-97.0681,49.9617],[-96.9977,49.9304],[-97.0015,49.9673],[-96.9901,49.9746],[-96.9618,49.9743],[-96.9567,49.9946]]]},"properties":{"id":"4613037","name":"West St. Paul"}},
{"type":"Feature","geometry":{"type":"Polygon","coordinates":[[[-96.9526,50.4916],[-96.9865,50.4917],[-96.9864,50.5067],[-97.1143,50.507],[-97.1133,50.374],[-97.1145,50.3153],[-97.1134,50.2501],[-97.1161,50.226],[-97.1151,50.0638],[-97.0322,50.0287],[-97.0066,50.0331],[-96.9858,50.043],[-96.9793,50.0633],[-96.9621,50.0642],[-96.9382,50.0801],[-96.9385,50.1004],[-96.9221,50.1151],[-96.9069,50.116],[-96.8885,50.1265],[-96.8607,50.1252],[-96.8712,50.1397],[-96.8514,50.1516],[-96.8571,50.1742],[-96.8454,50.18],[-96.8424,50.1926],[-96.8318,50.2004],[-96.8355,50.2138],[-96.8333,50.2389],[-96.8445,50.2546],[-96.8496,50.2794],[-96.8625,50.289],[-96.8588,50.2968],[-96.8397,50.3025],[-96.8239,50.3205],[-96.8262,50.337],[-96.8435,50.3516],[-96.8727,50.4005],[-96.9062,50.4096],[-96.9492,50.4308],[-96.955,50.4422],[-96.9459,50.4742],[-96.9526,50.4916]]]},"properties":{"id":"4613043","name":"St. Andrews"}},
{"type":"Feature","geometry":{"type":"Polygon","coordinates":[[[-96.583,50.5478],[-96.6294,50.5476],[-96.6276,50.5339],[-96.6067,50.5207],[-96.5984,50.4951],[-96.583,50.4821],[-96.576,50.4673],[-96.5744,50.4483],[-96.5848,50.4374],[-96.6202,50.423],[-96.636,50.4053],[-96.6583,50.3949],[-96.7305,50.3884],[-96.7766,50.3905],[-96.7962,50.3839],[-96.8125,50.3973],[-96.8727,50.4005],[-96.8435,50.3516],[-96.8262,50.337],[-96.8239,50.3205],[-96.8397,50.3025],[-96.8588,50.2968],[-96.8625,50.289],[-96.8496,50.2794],[-96.8445,50.2546],[-96.8333,50.2389],[-96.8355,50.2138],[-96.8318,50.2004],[-96.8424,50.1926],[-96.8454,50.18],[-96.8571,50.1742],[-96.8514,50.1516],[-96.8712,50.1397],[-96.8607,50.1252],[-96.8885,50.1265],[-96.9069,50.116],[-96.9221,50.1151],[-96.9385,50.1004],[-96.9382,50.0801],[-96.9621,50.0642],[-96.9793,50.0633],[-96.9858,50.043],[-97.0066,50.0331],[-97.0322,50.0287],[-96.9567,49.9946],[-96.9396,50.0082],[-96.8994,50.0267],[-96.865,50.0482],[-96.8533,50.063],[-96.7045,50.0624],[-96.7166,50.0695],[-96.717,50.0906],[-96.7039,50.0913],[-96.703,50.1507],[-96.68,50.1506],[-96.6799,50.2395],[-96.6271,50.2394],[-96.6283,50.2837],[-96.6039,50.2816],[-96.353,50.2827],[-96.3532,50.3268],[-96.4453,50.3263],[-96.4454,50.4153],[-96.5376,50.416],[-96.5373,50.5331],[-96.583,50.5331],[-96.583,50.5478]]]},"properties":{"id":"4613056","name":"St. Clements"}},
{"type":"Feature","geometry":{"type":"Polygon","coordinates":[[[-97.4594,50.0638],[-97.7351,50.0638],[-97.7321,50.0432],[-97.697,50.0299],[-97.6519,49.9964],[-97.6426,50.0162],[-97.6026,50.0123],[-97.5969,50.0049],[-97.5622,49.9902],[-97.5282,49.9681],[-97.5285,49.9641],[-97.4879,49.9418],[-97.4705,49.9236],[-97.4441,49.9233],[-97.4122,49.9233],[-97.3895,49.9276],[-97.3204,49.9273],[-97.2983,49.9313],[-97.2625,49.9312],[-97.2638,49.916],[-97.2296,49.9165],[-97.2294,49.9755],[-97.1839,49.9755],[-97.1839,50.0639],[-97.4594,50.0638]]]},"properties":{"id":"4614015","name":"Rosser"}},
{"type":"Feature","geometry":{"type":"Polygon","coordinates":[[[-97.6246,50.4182],[-97.5986,50.4037],[-97.5987,50.3296],[-97.7242,50.33],[-97.9762,50.3294],[-98.0145,50.3071],[-98.0146,50.241],[-98.0104,50.241],[-98.01,50.0677],[-97.9737,50.0668],[-97.9474,50.0768],[-97.9299,50.0836],[-97.902,50.0832],[-97.8743,50.0776],[-97.8307,50.0772],[-97.8099,50.0638],[-97.7351,50.0638],[-97.4594,50.0638],[-97.4595,50.229],[-97.4606,50.2974],[-97.4605,50.4188],[-97.6246,50.4182]]]},"properties":{"id":"4614031","name":"Woodlands"}},
{"type":"Feature","geometry":{"type":"Polygon","coordinates":[[[-97.1151,50.0638],[-97.1161,50.226],[-97.1134,50.2501],[-97.1145,50.3153],[-97.1133,50.374],[-97.1143,50.507],[-97.4614,50.507],[-97.4595,50.448],[-97.4605,50.4188],[-97.4606,50.2974],[-97.4595,50.229],[-97.4594,50.0638],[-97.1839,50.0639],[-97.1151,50.0638]]]},"properties":{"id":"4614036","name":"Rockwood"}},
{"type":"Feature","geometry":{"type":"Polygon","coordinates":[[[-100.2307,50.329],[-100.4382,50.329],[-100.5067,50.3281],[-100.5071,50.2446],[-100.485,50.2406],[-100.4845,50.0631],[-100.4845,50.063],[-100.4712,50.0636],[-100.2077,50.0635],[-100.0721,50.0636],[-99.9353,50.0636],[-99.9347,50.2402],[-99.9543,50.2409],[-99.9537,50.3289],[-100.2307,50.329]]]},"properties":{"id":"4615032","name":"Oakview"}},
{"type":"Feature","geometry":{"type":"Polygon","coordinates":[[[-100.4845,50.0631],[-100.485,50.2406],[-100.5071,50.2446],[-100.5067,50.3281],[-100.6036,50.329],[-100.7846,50.3289],[-100.7846,50.2422],[-100.7588,50.2406],[-100.7598,50.2105],[-100.76,50.0637],[-100.4845,50.0631]]]},"properties":{"id":"4615037","name":"Hamiota"}},
{"type":"Feature","geometry":{"type":"Polygon","coordinates":[[[-101.2296,50.5943],[-101.477,50.5944],[-101.477,50.3584],[-101.4767,50.2405],[-101.4472,50.2405],[-101.4473,50.064],[-101.3783,50.0636],[-101.1721,50.0637],[-101.1715,50.1342],[-101.1722,50.2405],[-101.2022,50.2405],[-101.1981,50.3443],[-101.1979,50.3874],[-101.2001,50.4764],[-101.1997,50.5943],[-101.2296,50.5943]]]},"properties":{"id":"4615047","name":"Ellice-Archie"}},
{"type":"Feature","geometry":{"type":"Polygon","coordinates":[[[-100.9503,50.5944],[-101.1997,50.5943],[-101.2001,50.4764],[-101.1979,50.3874],[-101.1981,50.3443],[-101.2022,50.2405],[-101.1722,50.2405],[-101.1715,50.1342],[-101.1721,50.0637],[-100.9528,50.0641],[-100.76,50.0637],[-100.7598,50.2105],[-100.7588,50.2406],[-100.7846,50.2422],[-100.7846,50.3289],[-100.7844,50.5944],[-100.9503,50.5944]]]},"properties":{"id":"4615056","name":"Prairie View"}},
{"type":"Feature","geometry":{"type":"Polygon","coordinates":[[[-100.2307,50.329],[-100.2301,50.414],[-100.2319,50.5502],[-100.2305,50.5947],[-100.5313,50.5945],[-100.7844,50.5944],[-100.7846,50.3289],[-100.6036,50.329],[-100.5067,50.3281],[-100.4382,50.329],[-100.2307,50.329]]]},"properties":{"id":"4615063","name":"Yellowhead"}},
{"type":"Feature","geometry":{"type":"Polygon","coordinates":[[[-99.9426,50.4913],[-99.9434,50.5134],[-99.9531,50.5132],[-99.9542,50.5944],[-99.8343,50.5945],[-99.8343,50.6524],[-99.9039,50.6529],[-99.9042,50.6683],[-99.9508,50.6657],[-99.9598,50.6454],[-99.9852,50.6462],[-99.9856,50.6534],[-100.0204,50.6534],[-100.0199,50.6637],[-100.0548,50.668],[-100.0564,50.6976],[-100.0787,50.6976],[-100.0786,50.7124],[-100.2532,50.7124],[-100.2533,50.6829],[-100.3689,50.683],[-100.3689,50.7265],[-100.5314,50.7271],[-100.5313,50.5945],[-100.2305,50.5947],[-100.2319,50.5502],[-100.2301,50.414],[-100.2307,50.329],[-99.9537,50.3289],[-99.9526,50.4175],[-99.9541,50.4322],[-99.952,50.4913],[-99.9426,50.4913]]]},"properties":{"id":"4615070","name":"Harrison Park"}},
{"type":"Feature","geometry":{"type":"Polygon","coordinates":[[[-99.6764,50.4169],[-99.6967,50.4175],[-99.9526,50.4175],[-99.9537,50.3289],[-99.9543,50.2409],[-99.9347,50.2402],[-99.9353,50.0636],[-99.6602,50.0634],[-99.6597,50.1663],[-99.6608,50.24],[-99.677,50.2405],[-99.6771,50.3957],[-99.6764,50.4169]]]},"properties":{"id":"4615074","name":"Minto-Odanah"}},
{"type":"Feature","geometry":{"type":"Polygon","coordinates":[[[-99.4007,50.2405],[-99.4004,50.4028],[-99.4005,50.5947],[-99.4151,50.5947],[-99.4152,50.6392],[-99.5548,50.639],[-99.6949,50.6388],[-99.6949,50.5945],[-99.6773,50.5944],[-99.6772,50.4418],[-99.6764,50.4169],[-99.6771,50.3957],[-99.677,50.2405],[-99.6608,50.24],[-99.4886,50.2405],[-99.4886,50.2104],[-99.4317,50.2114],[-99.4311,50.2405],[-99.4007,50.2405]]]},"properties":{"id":"4615078","name":"Rosedale"}},
{"type":"Feature","geometry":{"type":"Polygon","coordinates":[[[-99.9426,50.4913],[-99.952,50.4913],[-99.9541,50.4322],[-99.9526,50.4175],[-99.6967,50.4175],[-99.6764,50.4169],[-99.6772,50.4418],[-99.6773,50.5944],[-99.6949,50.5945],[-99.7332,50.5956],[-99.8343,50.5945],[-99.9542,50.5944],[-99.9531,50.5132],[-99.9434,50.5134],[-99.9426,50.4913]]]},"properties":{"id":"4615092","name":"Clanwilliam-Erickson"}},
{"type":"Feature","geometry":{"type":"Polygon","coordinates":[[[-100.5314,50.7271],[-100.5319,50.7713],[-100.6712,50.7712],[-100.6713,50.8598],[-100.9487,50.8597],[-100.9505,50.8574],[-100.9506,50.7281],[-100.9968,50.7272],[-100.9971,50.6316],[-100.9505,50.6317],[-100.9503,50.5944],[-100.7844,50.5944],[-100.5313,50.5945],[-100.5314,50.7271]]]},"properties":{"id":"4616005","name":"Rossburn"}},
{"type":"Feature","geometry":{"type":"Polygon","coordinates":[[[-100.9768,51.1255],[-101.1252,51.1251],[-101.429,51.1249],[-101.539,51.1251],[-101.539,50.9485],[-101.5087,50.9485],[-101.5088,50.8598],[-101.2297,50.8597],[-101.2296,50.5943],[-101.1997,50.5943],[-100.9503,50.5944],[-100.9505,50.6317],[-100.9971,50.6316],[-100.9968,50.7272],[-100.9506,50.7281],[-100.9505,50.8574],[-100.9487,50.8597],[-100.9506,50.8715],[-100.9503,50.9482],[-100.9758,50.948],[-100.9766,51.0367],[-100.9781,51.0701],[-100.9768,51.1255]]]},"properties":{"id":"4616020","name":"Riding Mountain West"}},
{"type":"Feature","geometry":{"type":"Polygon","coordinates":[[[-101.2296,50.5943],[-101.2297,50.8597],[-101.5088,50.8598],[-101.5087,50.5944],[-101.477,50.5944],[-101.2296,50.5943]]]},"properties":{"id":"4616030","name":"Russell-Binscarth"}},
{"type":"Feature","geometry":{"type":"Polygon","coordinates":[[[-100.9785,51.3619],[-100.9787,51.4493],[-101.2598,51.4493],[-101.2599,51.6214],[-101.399,51.6211],[-101.3995,51.565],[-101.429,51.5669],[-101.5705,51.5664],[-101.5705,51.3019],[-101.5392,51.3019],[-101.539,51.1251],[-101.429,51.1249],[-101.1252,51.1251],[-100.9768,51.1255],[-100.9768,51.2137],[-100.9651,51.2061],[-100.9298,51.2062],[-100.9298,51.1989],[-100.884,51.1989],[-100.883,51.2576],[-100.9766,51.2577],[-100.9785,51.3619]]]},"properties":{"id":"4616048","name":"Hillsburg-Roblin-Shell River"}},
{"type":"Feature","geometry":{"type":"Polygon","coordinates":[[[-98.7873,51.1049],[-98.8225,51.1069],[-98.8424,51.1014],[-98.8677,51.0769],[-98.8693,51.0969],[-98.8606,51.1313],[-98.8724,51.1422],[-98.8799,51.1655],[-98.849,51.1941],[-98.849,51.2284],[-98.8546,51.2734],[-98.8719,51.2573],[-98.9054,51.2539],[-98.914,51.2449],[-98.9141,51.2305],[-98.9412,51.2234],[-98.9409,51.2124],[-98.928,51.1773],[-98.9493,51.1724],[-98.9614,51.1945],[-98.9772,51.1935],[-98.9965,51.2205],[-99.0118,51.2355],[-99.0394,51.278],[-99.0594,51.2564],[-99.0731,51.2737],[-99.0928,51.3279],[-99.1175,51.3602],[-99.1026,51.3809],[-99.1172,51.3973],[-99.1109,51.4083],[-99.1217,51.4489],[-99.4337,51.4493],[-99.434,51.3326],[-99.4306,51.3024],[-99.43,51.1846],[-99.4303,51.1256],[-99.3601,51.1257],[-99.3599,51.0371],[-99.2897,51.0369],[-99.2897,50.949],[-99.2756,50.949],[-99.2752,50.8602],[-99.2758,50.7719],[-99.2754,50.639],[-98.9969,50.6394],[-98.9966,50.5948],[-98.985,50.5948],[-98.985,50.5648],[-98.8468,50.5651],[-98.8472,50.5063],[-98.7071,50.5061],[-98.7068,50.595],[-98.644,50.5949],[-98.635,50.6179],[-98.6663,50.6637],[-98.6841,50.6726],[-98.7141,50.7094],[-98.717,50.7263],[-98.7293,50.7523],[-98.7387,50.7585],[-98.739,50.7728],[-98.76,50.779],[-98.7771,50.7965],[-98.7844,50.8104],[-98.8097,50.8287],[-98.8188,50.8557],[-98.8357,50.8559],[-98.8495,50.8706],[-98.8621,50.8749],[-98.8675,50.8908],[-98.8615,50.8968],[-98.8625,50.9279],[-98.8698,50.9418],[-98.8326,50.963],[-98.8355,50.9883],[-98.851,51.0269],[-98.8431,51.0432],[-98.8517,51.0593],[-98.8369,51.0616],[-98.8224,51.0741],[-98.7893,51.0855],[-98.7815,51.0981],[-98.7873,51.1049]]]},"properties":{"id":"4617026","name":"Alonsa"}},
{"type":"Feature","geometry":{"type":"Polygon","coordinates":[[[-99.2754,50.639],[-99.2758,50.7719],[-99.2752,50.8602],[-99.5786,50.8604],[-99.6821,50.8605],[-99.6702,50.8451],[-99.6357,50.8451],[-99.6243,50.8377],[-99.624,50.8157],[-99.5896,50.8155],[-99.5889,50.7936],[-99.5786,50.7935],[-99.5779,50.764],[-99.5664,50.7645],[-99.5656,50.7423],[-99.5543,50.7426],[-99.5548,50.639],[-99.4152,50.6392],[-99.2754,50.639]]]},"properties":{"id":"4617035","name":"McCreary"}},
{"type":"Feature","geometry":{"type":"Polygon","coordinates":[[[-99.2752,50.8602],[-99.2756,50.949],[-99.2897,50.949],[-99.2897,51.0369],[-99.3599,51.0371],[-99.3601,51.1257],[-99.4303,51.1256],[-99.43,51.1846],[-99.5476,51.1846],[-99.5473,51.1254],[-99.594,51.1256],[-99.5935,50.9486],[-99.5787,50.9487],[-99.5786,50.8604],[-99.2752,50.8602]]]},"properties":{"id":"4617041","name":"Ste. Rose"}},
{"type":"Feature","geometry":{"type":"Polygon","coordinates":[[[-99.8523,50.9485],[-99.8523,51.1532],[-99.8355,51.1817],[-99.8488,51.1942],[-99.8479,51.207],[-99.8568,51.2184],[-99.8524,51.2501],[-99.8553,51.4257],[-99.8591,51.4369],[-99.8731,51.4498],[-99.9713,51.4489],[-100.276,51.4492],[-100.2774,51.4173],[-100.276,51.3618],[-100.2731,51.1665],[-100.2741,51.096],[-100.2735,50.9486],[-99.8523,50.9485]]]},"properties":{"id":"4617048","name":"Dauphin"}},
{"type":"Feature","geometry":{"type":"Polygon","coordinates":[[[-100.276,51.3618],[-100.6038,51.3619],[-100.6041,51.304],[-100.602,51.3026],[-100.6017,51.0303],[-100.601,50.9483],[-100.2735,50.9486],[-100.2741,51.096],[-100.2731,51.1665],[-100.276,51.3618]]]},"properties":{"id":"4617054","name":"Gilbert Plains"}},
{"type":"Feature","geometry":{"type":"Polygon","coordinates":[[[-100.601,50.9483],[-100.6017,51.0303],[-100.602,51.3026],[-100.6041,51.304],[-100.6038,51.3619],[-100.6979,51.3623],[-100.9785,51.3619],[-100.9766,51.2577],[-100.883,51.2576],[-100.884,51.1989],[-100.9298,51.1989],[-100.9298,51.2062],[-100.9651,51.2061],[-100.9768,51.2137],[-100.9768,51.1255],[-100.9781,51.0701],[-100.9766,51.0367],[-100.9758,50.948],[-100.9503,50.9482],[-100.601,50.9483]]]},"properties":{"id":"4617058","name":"Grandview"}},
{"type":"Feature","geometry":{"type":"Polygon","coordinates":[[[-100.276,51.4492],[-100.2753,51.6237],[-100.2973,51.6235],[-100.2971,51.7111],[-100.4733,51.7111],[-100.6516,51.7114],[-100.7226,51.7111],[-100.7224,51.624],[-100.6972,51.6239],[-100.6979,51.3623],[-100.6038,51.3619],[-100.276,51.3618],[-100.2774,51.4173],[-100.276,51.4492]]]},"properties":{"id":"4617064","name":"Ethelbert"}},
{"type":"Feature","geometry":{"type":"Polygon","coordinates":[[[-99.7147,51.5369],[-99.7148,51.603],[-99.7399,51.6012],[-99.7481,51.5858],[-99.7642,51.5764],[-99.8065,51.5698],[-99.8044,51.601],[-99.8119,51.6083],[-99.8347,51.6037],[-99.8444,51.6224],[-99.8694,51.6354],[-99.8662,51.6457],[-99.896,51.6472],[-99.9146,51.6532],[-99.93,51.6642],[-99.9288,51.6743],[-99.9473,51.6772],[-99.9564,51.6986],[-99.9486,51.7113],[-99.9543,51.7191],[-99.9386,51.7571],[-99.9398,51.7679],[-99.9539,51.7804],[-99.9591,51.7959],[-99.9431,51.8222],[-99.9361,51.8188],[-99.9373,51.7983],[-99.9157,51.7951],[-99.907,51.8248],[-99.8959,51.8296],[-99.9054,51.8427],[-99.8985,51.8561],[-99.9111,51.8594],[-99.9175,51.8709],[-99.916,51.8887],[-99.9254,51.9019],[-99.9451,51.8992],[-99.9533,51.964],[-99.9403,51.9752],[-99.9507,51.9881],[-99.9498,51.9989],[-99.9733,52.0239],[-99.9758,52.0569],[-99.999,52.0519],[-100.0149,52.0385],[-100.0292,52.0396],[-100.0432,52.0001],[-100.0371,51.9837],[-100.0093,52.0064],[-100.0193,51.9778],[-100.0092,51.9458],[-100.0121,51.928],[-99.9988,51.9238],[-99.9893,51.8943],[-99.9777,51.9226],[-99.9665,51.9139],[-99.9657,51.8914],[-99.9818,51.8813],[-99.9847,51.858],[-99.9739,51.8565],[-99.9737,51.8404],[-99.9887,51.8383],[-99.9997,51.8117],[-100.0061,51.7848],[-99.9883,51.7788],[-99.984,51.7622],[-99.9896,51.7451],[-99.98,51.7421],[-99.9852,51.7169],[-100.018,51.7059],[-100.0382,51.7113],[-100.2971,51.7111],[-100.2973,51.6235],[-100.2753,51.6237],[-100.276,51.4492],[-99.9713,51.4489],[-99.8731,51.4498],[-99.7147,51.4491],[-99.7131,51.5],[-99.7147,51.5369]]]},"properties":{"id":"4617072","name":"Mossey River"}},
{"type":"Feature","geometry":{"type":"Polygon","coordinates":[[[-99.4337,51.4493],[-99.4372,51.4791],[-99.4333,51.4835],[-99.4336,51.5361],[-99.5741,51.5355],[-99.7147,51.5369],[-99.7131,51.5],[-99.7147,51.4491],[-99.8731,51.4498],[-99.8591,51.4369],[-99.8553,51.4257],[-99.8524,51.2501],[-99.8568,51.2184],[-99.8479,51.207],[-99.8488,51.1942],[-99.8355,51.1817],[-99.8523,51.1532],[-99.8523,50.9485],[-99.8343,50.9485],[-99.8342,50.8605],[-99.6821,50.8605],[-99.5786,50.8604],[-99.5787,50.9487],[-99.5935,50.9486],[-99.594,51.1256],[-99.5473,51.1254],[-99.5476,51.1846],[-99.43,51.1846],[-99.4306,51.3024],[-99.434,51.3326],[-99.4337,51.4493]]]},"properties":{"id":"4617075","name":"Lakeshore"}},
{"type":"Feature","geometry":{"type":"Polygon","coordinates":[[[-99.6821,50.8605],[-99.8342,50.8605],[-99.8343,50.9485],[-99.8523,50.9485],[-100.2735,50.9486],[-100.601,50.9483],[-100.9503,50.9482],[-100.9506,50.8715],[-100.9487,50.8597],[-100.6713,50.8598],[-100.6712,50.7712],[-100.5319,50.7713],[-100.5314,50.7271],[-100.3689,50.7265],[-100.3689,50.683],[-100.2533,50.6829],[-100.2532,50.7124],[-100.0786,50.7124],[-100.0787,50.6976],[-100.0564,50.6976],[-100.0548,50.668],[-100.0199,50.6637],[-100.0204,50.6534],[-99.9856,50.6534],[-99.9852,50.6462],[-99.9598,50.6454],[-99.9508,50.6657],[-99.9042,50.6683],[-99.9039,50.6529],[-99.8343,50.6524],[-99.8343,50.5945],[-99.7332,50.5956],[-99.6949,50.5945],[-99.6949,50.6388],[-99.5548,50.639],[-99.5543,50.7426],[-99.5656,50.7423],[-99.5664,50.7645],[-99.5779,50.764],[-99.5786,50.7935],[-99.5889,50.7936],[-99.5896,50.8155],[-99.624,50.8157],[-99.6243,50.8377],[-99.6357,50.8451],[-99.6702,50.8451],[-99.6821,50.8605]]]},"properties":{"id":"4617092","name":"Division No. 17, Unorganized"}},
{"type":"Feature","geometry":{"type":"Polygon","coordinates":[[[-96.9526,50.4916],[-96.9659,50.499],[-96.9713,50.5247],[-96.9891,50.5641],[-96.983,50.5764],[-96.9538,50.5879],[-96.9409,50.5978],[-96.9797,50.6152],[-96.9879,50.6225],[-96.9757,50.6546],[-96.9947,50.6736],[-96.9972,50.6891],[-96.9872,50.701],[-96.9871,50.7349],[-96.9782,50.7609],[-96.9827,50.7799],[-96.9716,50.8024],[-96.9492,50.8167],[-97.1101,50.8166],[-97.1113,50.7871],[-97.1111,50.5957],[-97.1146,50.5957],[-97.1143,50.507],[-96.9864,50.5067],[-96.9865,50.4917],[-96.9526,50.4916]]]},"properties":{"id":"4618031","name":"Gimli"}},
{"type":"Feature","geometry":{"type":"Polygon","coordinates":[[[-97.4628,50.8607],[-97.729,50.8604],[-97.8785,50.8606],[-97.8786,50.7716],[-97.7393,50.772],[-97.7411,50.7282],[-97.7395,50.6138],[-97.737,50.5946],[-97.6687,50.5946],[-97.668,50.4768],[-97.6445,50.4768],[-97.6449,50.4181],[-97.6246,50.4182],[-97.4605,50.4188],[-97.4595,50.448],[-97.4614,50.507],[-97.1143,50.507],[-97.1146,50.5957],[-97.1111,50.5957],[-97.1113,50.7871],[-97.1101,50.8166],[-97.1107,50.8609],[-97.1811,50.8605],[-97.3699,50.8613],[-97.4628,50.8607]]]},"properties":{"id":"4618037","name":"Armstrong"}},
{"type":"Feature","geometry":{"type":"Polygon","coordinates":[[[-97.6246,50.4182],[-97.6449,50.4181],[-97.6445,50.4768],[-97.668,50.4768],[-97.6687,50.5946],[-97.737,50.5946],[-97.7368,50.5068],[-97.9869,50.5061],[-98.0012,50.5186],[-98.0427,50.5054],[-98.0158,50.4838],[-97.9797,50.4485],[-97.9598,50.4184],[-97.9623,50.4072],[-97.9494,50.385],[-97.9565,50.3702],[-97.9481,50.3529],[-97.9762,50.3294],[-97.7242,50.33],[-97.5987,50.3296],[-97.5986,50.4037],[-97.6246,50.4182]]]},"properties":{"id":"4618040","name":"St. Laurent"}},
{"type":"Feature","geometry":{"type":"Polygon","coordinates":[[[-97.8786,50.7716],[-98.1655,50.7721],[-98.3355,50.7712],[-98.3363,50.7644],[-98.2978,50.7638],[-98.2939,50.7485],[-98.2788,50.7412],[-98.278,50.7263],[-98.2653,50.7083],[-98.2366,50.7095],[-98.2222,50.6815],[-98.2055,50.6754],[-98.1988,50.6618],[-98.1479,50.624],[-98.1349,50.6196],[-98.1201,50.587],[-98.1248,50.5543],[-98.1185,50.5277],[-98.0925,50.5223],[-98.0826,50.531],[-98.0528,50.5246],[-98.0427,50.5054],[-98.0012,50.5186],[-97.9869,50.5061],[-97.7368,50.5068],[-97.737,50.5946],[-97.7395,50.6138],[-97.7411,50.7282],[-97.7393,50.772],[-97.8786,50.7716]]]},"properties":{"id":"4618044","name":"Coldwell"}},
{"type":"Feature","geometry":{"type":"Polygon","coordinates":[[[-97.8839,50.9499],[-98.0404,50.9499],[-98.0882,50.9491],[-98.3035,50.9483],[-98.3032,51.0819],[-98.3003,51.1253],[-98.2567,51.1263],[-98.2564,51.2439],[-98.5778,51.244],[-98.5863,51.2448],[-98.5671,51.2221],[-98.5513,51.2099],[-98.5974,51.1808],[-98.6096,51.1763],[-98.6526,51.1855],[-98.6513,51.166],[-98.6746,51.1611],[-98.6554,51.152],[-98.6739,51.1396],[-98.6776,51.1293],[-98.6445,51.1135],[-98.6425,51.0935],[-98.695,51.0874],[-98.7137,51.0918],[-98.7255,51.1018],[-98.7322,51.1231],[-98.7503,51.1411],[-98.7584,51.1227],[-98.7729,51.1206],[-98.741,51.093],[-98.759,51.0892],[-98.7622,51.075],[-98.7367,51.0619],[-98.7176,51.0593],[-98.7086,51.046],[-98.7307,51.0399],[-98.7467,51.061],[-98.7762,51.0516],[-98.7857,51.0414],[-98.7845,51.0186],[-98.7506,50.9968],[-98.7669,50.9885],[-98.7903,50.9881],[-98.7924,50.9779],[-98.7703,50.959],[-98.7546,50.9643],[-98.773,50.9338],[-98.7588,50.911],[-98.7391,50.9025],[-98.7078,50.8979],[-98.7091,50.8864],[-98.6754,50.8947],[-98.6517,50.9044],[-98.6458,50.8908],[-98.6192,50.9099],[-98.6096,50.8907],[-98.5915,50.8847],[-98.5708,50.8895],[-98.5375,50.8743],[-98.4986,50.8784],[-98.4816,50.8739],[-98.4603,50.8585],[-98.453,50.8452],[-98.4282,50.8415],[-98.4093,50.8289],[-98.3954,50.8287],[-98.3802,50.8194],[-98.3725,50.8057],[-98.3388,50.7778],[-98.3355,50.7712],[-98.1655,50.7721],[-97.8786,50.7716],[-97.8785,50.8606],[-97.8783,50.9499],[-97.8839,50.9499]]]},"properties":{"id":"4618056","name":"West Interlake"}},
{"type":"Feature","geometry":{"type":"MultiPolygon","coordinates":[[[[-98.5368,51.6136],[-98.5478,51.6091],[-98.5346,51.5809],[-98.5223,51.5927],[-98.5368,51.6136]]],[[[-98.5393,51.7114],[-98.52,51.7219],[-98.4992,51.7262],[-98.4982,51.7622],[-98.4521,51.7622],[-98.4523,51.7501],[-98.4168,51.7647],[-98.393,51.7644],[-98.3812,51.7697],[-98.3505,51.7662],[-98.3357,51.7815],[-98.319,51.7687],[-98.3105,51.7794],[-98.3364,51.7884],[-98.3574,51.7847],[-98.3677,51.8042],[-98.3599,51.8147],[-98.3609,51.8279],[-98.375,51.8299],[-98.4536,51.8277],[-98.5936,51.8276],[-98.5938,51.8858],[-98.7356,51.8856],[-98.7354,51.7551],[-98.8776,51.7555],[-98.8768,51.7123],[-98.8459,51.7127],[-98.84,51.7016],[-98.8248,51.6933],[-98.8139,51.6757],[-98.8271,51.6702],[-98.7956,51.6286],[-98.7985,51.6145],[-98.7849,51.5958],[-98.737,51.5833],[-98.7309,51.5655],[-98.7708,51.549],[-98.7688,51.5389],[-98.7864,51.5312],[-98.7869,51.5165],[-98.7805,51.4958],[-98.7635,51.465],[-98.7976,51.4532],[-98.812,51.4286],[-98.8099,51.4128],[-98.8199,51.4074],[-98.8152,51.3815],[-98.8024,51.3848],[-98.7907,51.3972],[-98.7761,51.3801],[-98.7773,51.3704],[-98.7516,51.3394],[-98.7539,51.315],[-98.7299,51.3044],[-98.7255,51.2976],[-98.6879,51.2867],[-98.6415,51.293],[-98.6217,51.2877],[-98.5916,51.2868],[-98.5642,51.2801],[-98.5624,51.272],[-98.5863,51.2448],[-98.5778,51.244],[-98.2564,51.2439],[-98.2567,51.1263],[-98.3003,51.1253],[-98.3032,51.0819],[-98.3035,50.9483],[-98.0882,50.9491],[-98.0404,50.9499],[-97.8839,50.9499],[-97.8841,51.0383],[-97.9535,51.0381],[-97.9532,51.1265],[-97.8841,51.1265],[-97.8838,51.2152],[-98.1394,51.2147],[-98.1396,51.2291],[-98.1157,51.2293],[-98.1161,51.2438],[-98.1395,51.244],[-98.1399,51.3028],[-98.1613,51.3029],[-98.1593,51.3616],[-98.3037,51.3616],[-98.3035,51.4489],[-98.4442,51.4489],[-98.4443,51.5679],[-98.4553,51.5617],[-98.4687,51.5436],[-98.4723,51.5305],[-98.4905,51.5233],[-98.4976,51.5096],[-98.4925,51.492],[-98.5098,51.487],[-98.5261,51.5022],[-98.5382,51.5259],[-98.5569,51.5168],[-98.5709,51.5184],[-98.5897,51.5406],[-98.5996,51.5658],[-98.6033,51.5892],[-98.5963,51.6008],[-98.6062,51.605],[-98.6112,51.6113],[-98.6281,51.6239],[-98.637,51.6277],[-98.634,51.642],[-98.6569,51.6597],[-98.6812,51.6652],[-98.6901,51.6865],[-98.6695,51.6951],[-98.653,51.6925],[-98.648,51.6709],[-98.6282,51.6455],[-98.6342,51.6312],[-98.6013,51.6035],[-98.5901,51.6023],[-98.579,51.613],[-98.5715,51.6348],[-98.5808,51.6676],[-98.5636,51.6649],[-98.553,51.6863],[-98.5524,51.704],[-98.5393,51.7114]]]]},"properties":{"id":"4618060","name":"Grahamdale"}},
{"type":"Feature","geometry":{"type":"Polygon","coordinates":[[[-97.3683,51.3032],[-97.4621,51.304],[-97.4622,51.2151],[-97.7434,51.2152],[-97.7436,51.3035],[-97.8843,51.3035],[-97.8838,51.2152],[-97.8841,51.1265],[-97.9532,51.1265],[-97.9535,51.0381],[-97.8841,51.0383],[-97.8839,50.9499],[-97.8783,50.9499],[-97.8785,50.8606],[-97.729,50.8604],[-97.4628,50.8607],[-97.4629,50.9646],[-97.4616,51.0383],[-97.3916,51.0383],[-97.3917,51.0678],[-97.3683,51.0677],[-97.3678,51.1711],[-97.3688,51.2228],[-97.3683,51.3032]]]},"properties":{"id":"4618068","name":"Fisher"}},
{"type":"Feature","geometry":{"type":"Polygon","coordinates":[[[-96.8983,51.2052],[-96.9195,51.1965],[-96.9778,51.1858],[-96.985,51.2003],[-97.0089,51.2144],[-96.9935,51.2398],[-96.975,51.2517],[-96.9719,51.2616],[-96.9429,51.283],[-96.9365,51.2983],[-96.9631,51.3035],[-97.3208,51.3026],[-97.3683,51.3032],[-97.3688,51.2228],[-97.3678,51.1711],[-97.3683,51.0677],[-97.3917,51.0678],[-97.3916,51.0383],[-97.4616,51.0383],[-97.4629,50.9646],[-97.4628,50.8607],[-97.3699,50.8613],[-97.1811,50.8605],[-97.1107,50.8609],[-97.1101,50.8166],[-96.9492,50.8167],[-96.9438,50.8256],[-96.9483,50.8398],[-96.9611,50.8524],[-96.9763,50.8579],[-96.9938,50.8826],[-96.9869,50.9075],[-96.9635,50.9264],[-96.9516,50.9478],[-96.9336,50.9665],[-96.9314,50.9926],[-96.9459,51.0025],[-96.959,51.022],[-96.9576,51.038],[-96.96,51.0522],[-96.9391,51.0585],[-96.9395,51.0661],[-96.9072,51.0859],[-96.8737,51.0855],[-96.8434,51.1168],[-96.8529,51.1265],[-96.8978,51.1266],[-96.8983,51.2052]]]},"properties":{"id":"4618076","name":"Bifrost-Riverton"}},
{"type":"Feature","geometry":{"type":"Polygon","coordinates":[[[-96.9576,51.038],[-96.8835,51.0001],[-96.8013,50.9598],[-96.7496,50.9852],[-96.6334,51.0527],[-96.5002,51.1338],[-96.4084,51.1561],[-96.3923,51.157],[-96.3804,51.1732],[-96.3582,51.1872],[-96.3182,51.1895],[-96.3069,51.1931],[-96.272,51.1894],[-96.2619,51.2004],[-96.2852,51.2215],[-96.2944,51.2348],[-96.3286,51.263],[-96.3635,51.3085],[-96.3796,51.324],[-96.4112,51.34],[-96.4216,51.3358],[-96.459,51.3477],[-96.473,51.3626],[-96.4571,51.3704],[-96.4565,51.3816],[-96.4772,51.3799],[-96.4978,51.3848],[-96.498,51.3935],[-96.513,51.4012],[-96.5198,51.4277],[-96.5324,51.4434],[-96.7211,51.3772],[-96.7371,51.3691],[-96.7455,51.3548],[-96.7804,51.3335],[-96.7627,51.3259],[-96.7846,51.303],[-96.8023,51.2911],[-96.8249,51.2914],[-96.8321,51.2718],[-96.8552,51.2541],[-96.8654,51.2337],[-96.8807,51.2246],[-96.8957,51.2232],[-96.8983,51.2052],[-96.8978,51.1266],[-96.8529,51.1265],[-96.8434,51.1168],[-96.8737,51.0855],[-96.9072,51.0859],[-96.9395,51.0661],[-96.9391,51.0585],[-96.96,51.0522],[-96.9576,51.038]]]},"properties":{"id":"4618091","name":"Division No. 18, Unorganized, East Part"}},
{"type":"Feature","geometry":{"type":"MultiPolygon","coordinates":[[[[-98.4443,51.5679],[-98.4802,51.6265],[-98.5285,51.698],[-98.5393,51.7114],[-98.5524,51.704],[-98.553,51.6863],[-98.5636,51.6649],[-98.5808,51.6676],[-98.5715,51.6348],[-98.579,51.613],[-98.5901,51.6023],[-98.6013,51.6035],[-98.6342,51.6312],[-98.6282,51.6455],[-98.648,51.6709],[-98.653,51.6925],[-98.6695,51.6951],[-98.6901,51.6865],[-98.6812,51.6652],[-98.6569,51.6597],[-98.634,51.642],[-98.637,51.6277],[-98.6281,51.6239],[-98.6112,51.6113],[-98.6062,51.605],[-98.5963,51.6008],[-98.6033,51.5892],[-98.5996,51.5658],[-98.5897,51.5406],[-98.5709,51.5184],[-98.5569,51.5168],[-98.5382,51.5259],[-98.5261,51.5022],[-98.5098,51.487],[-98.4925,51.492],[-98.4976,51.5096],[-98.4905,51.5233],[-98.4723,51.5305],[-98.4687,51.5436],[-98.4553,51.5617],[-98.4443,51.5679]],[[-98.5368,51.6136],[-98.5223,51.5927],[-98.5346,51.5809],[-98.5478,51.6091],[-98.5368,51.6136]]],[[[-98.3355,50.7712],[-98.3388,50.7778],[-98.3725,50.8057],[-98.3802,50.8194],[-98.3954,50.8287],[-98.4093,50.8289],[-98.4282,50.8415],[-98.453,50.8452],[-98.4603,50.8585],[-98.4816,50.8739],[-98.4986,50.8784],[-98.5375,50.8743],[-98.5708,50.8895],[-98.5915,50.8847],[-98.6096,50.8907],[-98.6192,50.9099],[-98.6458,50.8908],[-98.6517,50.9044],[-98.6754,50.8947],[-98.7091,50.8864],[-98.7078,50.8979],[-98.7391,50.9025],[-98.7588,50.911],[-98.773,50.9338],[-98.7546,50.9643],[-98.7703,50.959],[-98.7924,50.9779],[-98.7903,50.9881],[-98.7669,50.9885],[-98.7506,50.9968],[-98.7845,51.0186],[-98.7857,51.0414],[-98.7762,51.0516],[-98.7467,51.061],[-98.7307,51.0399],[-98.7086,51.046],[-98.7176,51.0593],[-98.7367,51.0619],[-98.7622,51.075],[-98.759,51.0892],[-98.741,51.093],[-98.7729,51.1206],[-98.7873,51.1049],[-98.7815,51.0981],[-98.7893,51.0855],[-98.8224,51.0741],[-98.8369,51.0616],[-98.8517,51.0593],[-98.8431,51.0432],[-98.851,51.0269],[-98.8355,50.9883],[-98.8326,50.963],[-98.8698,50.9418],[-98.8625,50.9279],[-98.8615,50.8968],[-98.8675,50.8908],[-98.8621,50.8749],[-98.8495,50.8706],[-98.8357,50.8559],[-98.8188,50.8557],[-98.8097,50.8287],[-98.7844,50.8104],[-98.7771,50.7965],[-98.76,50.779],[-98.739,50.7728],[-98.7387,50.7585],[-98.7293,50.7523],[-98.717,50.7263],[-98.7141,50.7094],[-98.6841,50.6726],[-98.6663,50.6637],[-98.635,50.6179],[-98.644,50.5949],[-98.6385,50.5762],[-98.6066,50.5596],[-98.5964,50.5224],[-98.5954,50.5022],[-98.5781,50.4777],[-98.5627,50.4722],[-98.5617,50.4614],[-98.5308,50.425],[-98.5205,50.4001],[-98.5316,50.3762],[-98.5643,50.3706],[-98.5809,50.3625],[-98.5971,50.336],[-98.6021,50.3066],[-98.5901,50.2629],[-98.5599,50.2356],[-98.5,50.2034],[-98.4502,50.1913],[-98.3713,50.1843],[-98.32,50.1878],[-98.2469,50.2029],[-98.1997,50.2159],[-98.1077,50.2499],[-98.0803,50.2707],[-98.0654,50.297],[-98.0145,50.3071],[-97.9762,50.3294],[-97.9481,50.3529],[-97.9565,50.3702],[-97.9494,50.385],[-97.9623,50.4072],[-97.9598,50.4184],[-97.9797,50.4485],[-98.0158,50.4838],[-98.0427,50.5054],[-98.0528,50.5246],[-98.0826,50.531],[-98.0925,50.5223],[-98.1185,50.5277],[-98.1248,50.5543],[-98.1201,50.587],[-98.1349,50.6196],[-98.1479,50.624],[-98.1988,50.6618],[-98.2055,50.6754],[-98.2222,50.6815],[-98.2366,50.7095],[-98.2653,50.7083],[-98.278,50.7263],[-98.2788,50.7412],[-98.2939,50.7485],[-98.2978,50.7638],[-98.3363,50.7644],[-98.3355,50.7712]]]]},"properties":{"id":"4618093","name":"Division No. 18, Unorganized, West Part"}},
{"type":"Feature","geometry":{"type":"Polygon","coordinates":[[[-94.2697,53.3772],[-94.7205,53.3783],[-94.9627,53.3778],[-95.1456,53.3781],[-95.2296,53.376],[-95.4939,53.3748],[-95.848,53.371],[-96,53.3724],[-96.336,53.376],[-96.6391,53.3776],[-97,53.378],[-97.3845,53.3792],[-97.6229,53.3792],[-97.5961,53.3665],[-97.5864,53.3426],[-97.578,53.3388],[-97.5962,53.3093],[-97.5761,53.2634],[-97.5533,53.2532],[-97.546,53.2403],[-97.5147,53.2349],[-97.5054,53.2163],[-97.4894,53.2098],[-97.4696,53.1872],[-97.4567,53.1904],[-97.4413,53.1833],[-97.4371,53.171],[-97.4187,53.1639],[-97.449,53.1559],[-97.4659,53.1413],[-97.4345,53.1189],[-97.4254,53.1072],[-97.4378,53.0988],[-97.4275,53.0644],[-97.4111,53.0471],[-97.4096,53.0329],[-97.3891,53.0313],[-97.3608,53.0234],[-97.3314,53.0001],[-97.3787,53.0012],[-97.4999,53],[-97.7499,53],[-98,53],[-98.25,53],[-98.4954,53.0005],[-99.059,53.002],[-99.1644,53.0019],[-99.7207,53.0023],[-100.0066,53.0017],[-100.0754,53.0005],[-100.5748,53.0014],[-101.0002,53],[-101.1584,53.0009],[-101.6716,53.0013],[-101.6716,52.7981],[-101.6232,52.7981],[-101.6231,52.7836],[-101.5265,52.7834],[-101.5267,52.7982],[-101.4294,52.798],[-101.4298,52.8126],[-101.3086,52.8127],[-101.3084,52.7982],[-101.2602,52.7984],[-101.2601,52.7551],[-101.1146,52.7543],[-101.1142,52.8419],[-100.9452,52.8423],[-100.9446,52.6672],[-100.7751,52.6677],[-100.7757,52.6377],[-100.8206,52.6121],[-100.8347,52.5983],[-100.8314,52.5909],[-100.8607,52.5708],[-100.8677,52.5576],[-100.8606,52.5291],[-100.8793,52.5116],[-100.8778,52.4989],[-100.8464,52.4988],[-100.8229,52.4799],[-100.8222,52.3181],[-100.7531,52.3185],[-100.7517,52.2312],[-100.6083,52.2308],[-100.6101,52.0562],[-100.4647,52.057],[-100.4648,52.0124],[-100.2495,52.0126],[-100.244,52.0041],[-100.1878,52.0041],[-100.19,51.9712],[-100.116,51.9694],[-100.127,51.9525],[-100.1421,51.9099],[-100.138,51.892],[-100.1256,51.8911],[-100.1124,51.8745],[-100.112,51.8541],[-100.0972,51.8514],[-100.0868,51.8341],[-100.0864,51.8047],[-100.0704,51.7956],[-100.0756,51.7748],[-100.0551,51.7658],[-100.0427,51.7534],[-100.0504,51.7463],[-100.0546,51.7254],[-100.0382,51.7267],[-100.0382,51.7113],[-100.018,51.7059],[-99.9852,51.7169],[-99.98,51.7421],[-99.9896,51.7451],[-99.984,51.7622],[-99.9883,51.7788],[-100.0061,51.7848],[-99.9997,51.8117],[-99.9887,51.8383],[-99.9737,51.8404],[-99.9739,51.8565],[-99.9847,51.858],[-99.9818,51.8813],[-99.9657,51.8914],[-99.9665,51.9139],[-99.9777,51.9226],[-99.9893,51.8943],[-99.9988,51.9238],[-100.0121,51.928],[-100.0092,51.9458],[-100.0193,51.9778],[-100.0093,52.0064],[-100.0371,51.9837],[-100.0432,52.0001],[-100.0292,52.0396],[-100.0149,52.0385],[-99.999,52.0519],[-99.9758,52.0569],[-99.9733,52.0239],[-99.9498,51.9989],[-99.9507,51.9881],[-99.9403,51.9752],[-99.9533,51.964],[-99.9451,51.8992],[-99.9254,51.9019],[-99.916,51.8887],[-99.9175,51.8709],[-99.9111,51.8594],[-99.8985,51.8561],[-99.9054,51.8427],[-99.8959,51.8296],[-99.907,51.8248],[-99.9157,51.7951],[-99.9373,51.7983],[-99.9361,51.8188],[-99.9431,51.8222],[-99.9591,51.7959],[-99.9539,51.7804],[-99.9398,51.7679],[-99.9386,51.7571],[-99.9543,51.7191],[-99.9486,51.7113],[-99.9564,51.6986],[-99.9473,51.6772],[-99.9288,51.6743],[-99.93,51.6642],[-99.9146,51.6532],[-99.896,51.6472],[-99.8662,51.6457],[-99.8694,51.6354],[-99.8444,51.6224],[-99.8347,51.6037],[-99.8119,51.6083],[-99.8044,51.601],[-99.8065,51.5698],[-99.7642,51.5764],[-99.7481,51.5858],[-99.7399,51.6012],[-99.7148,51.603],[-99.7147,51.5369],[-99.5741,51.5355],[-99.4336,51.5361],[-99.4333,51.4835],[-99.4372,51.4791],[-99.4337,51.4493],[-99.1217,51.4489],[-99.1109,51.4083],[-99.1172,51.3973],[-99.1026,51.3809],[-99.1175,51.3602],[-99.0928,51.3279],[-99.0731,51.2737],[-99.0594,51.2564],[-99.0394,51.278],[-99.0118,51.2355],[-98.9965,51.2205],[-98.9772,51.1935],[-98.9614,51.1945],[-98.9493,51.1724],[-98.928,51.1773],[-98.9409,51.2124],[-98.9412,51.2234],[-98.9141,51.2305],[-98.914,51.2449],[-98.9054,51.2539],[-98.8719,51.2573],[-98.8546,51.2734],[-98.849,51.2284],[-98.849,51.1941],[-98.8799,51.1655],[-98.8724,51.1422],[-98.8606,51.1313],[-98.8693,51.0969],[-98.8677,51.0769],[-98.8424,51.1014],[-98.8225,51.1069],[-98.7873,51.1049],[-98.7729,51.1206],[-98.7584,51.1227],[-98.7503,51.1411],[-98.7322,51.1231],[-98.7255,51.1018],[-98.7137,51.0918],[-98.695,51.0874],[-98.6425,51.0935],[-98.6445,51.1135],[-98.6776,51.1293],[-98.6739,51.1396],[-98.6554,51.152],[-98.6746,51.1611],[-98.6513,51.166],[-98.6526,51.1855],[-98.6096,51.1763],[-98.5974,51.1808],[-98.5513,51.2099],[-98.5671,51.2221],[-98.5863,51.2448],[-98.5624,51.272],[-98.5642,51.2801],[-98.5916,51.2868],[-98.6217,51.2877],[-98.6415,51.293],[-98.6879,51.2867],[-98.7255,51.2976],[-98.7299,51.3044],[-98.7539,51.315],[-98.7516,51.3394],[-98.7773,51.3704],[-98.7761,51.3801],[-98.7907,51.3972],[-98.8024,51.3848],[-98.8152,51.3815],[-98.8199,51.4074],[-98.8099,51.4128],[-98.812,51.4286],[-98.7976,51.4532],[-98.7635,51.465],[-98.7805,51.4958],[-98.7869,51.5165],[-98.7864,51.5312],[-98.7688,51.5389],[-98.7708,51.549],[-98.7309,51.5655],[-98.737,51.5833],[-98.7849,51.5958],[-98.7985,51.6145],[-98.7956,51.6286],[-98.8271,51.6702],[-98.8139,51.6757],[-98.8248,51.6933],[-98.84,51.7016],[-98.8459,51.7127],[-98.8768,51.7123],[-98.8776,51.7555],[-98.7354,51.7551],[-98.7356,51.8856],[-98.5938,51.8858],[-98.5936,51.8276],[-98.4536,51.8277],[-98.375,51.8299],[-98.3609,51.8279],[-98.3599,51.8147],[-98.3677,51.8042],[-98.3574,51.7847],[-98.3364,51.7884],[-98.3105,51.7794],[-98.319,51.7687],[-98.3357,51.7815],[-98.3505,51.7662],[-98.3812,51.7697],[-98.393,51.7644],[-98.4168,51.7647],[-98.4523,51.7501],[-98.4521,51.7622],[-98.4982,51.7622],[-98.4992,51.7262],[-98.52,51.7219],[-98.5393,51.7114],[-98.5285,51.698],[-98.4802,51.6265],[-98.4443,51.5679],[-98.4442,51.4489],[-98.3035,51.4489],[-98.3037,51.3616],[-98.1593,51.3616],[-98.1613,51.3029],[-98.1399,51.3028],[-98.1395,51.244],[-98.1161,51.2438],[-98.1157,51.2293],[-98.1396,51.2291],[-98.1394,51.2147],[-97.8838,51.2152],[-97.8843,51.3035],[-97.7436,51.3035],[-97.7434,51.2152],[-97.4622,51.2151],[-97.4621,51.304],[-97.3683,51.3032],[-97.3208,51.3026],[-96.9631,51.3035],[-96.9365,51.2983],[-96.9429,51.283],[-96.9719,51.2616],[-96.975,51.2517],[-96.9935,51.2398],[-97.0089,51.2144],[-96.985,51.2003],[-96.9778,51.1858],[-96.9195,51.1965],[-96.8983,51.2052],[-96.8957,51.2232],[-96.8807,51.2246],[-96.8654,51.2337],[-96.8552,51.2541],[-96.8321,51.2718],[-96.8249,51.2914],[-96.8023,51.2911],[-96.7846,51.303],[-96.7627,51.3259],[-96.7804,51.3335],[-96.7455,51.3548],[-96.7371,51.3691],[-96.7211,51.3772],[-96.5324,51.4434],[-96.5198,51.4277],[-96.513,51.4012],[-96.498,51.3935],[-96.4978,51.3848],[-96.4772,51.3799],[-96.4565,51.3816],[-96.4571,51.3704],[-96.473,51.3626],[-96.459,51.3477],[-96.4216,51.3358],[-96.4112,51.34],[-96.3796,51.324],[-96.3635,51.3085],[-96.3286,51.263],[-96.2944,51.2348],[-96.2852,51.2215],[-96.2619,51.2004],[-96.272,51.1894],[-96.3069,51.1931],[-96.3182,51.1895],[-96.3582,51.1872],[-96.3804,51.1732],[-96.3923,51.157],[-96.4084,51.1561],[-96.5002,51.1338],[-96.6334,51.0527],[-96.7496,50.9852],[-96.8013,50.9598],[-96.8835,51.0001],[-96.9576,51.038],[-96.959,51.022],[-96.9459,51.0025],[-96.9314,50.9926],[-96.9336,50.9665],[-96.9516,50.9478],[-96.9635,50.9264],[-96.9869,50.9075],[-96.9938,50.8826],[-96.9763,50.8579],[-96.9611,50.8524],[-96.9483,50.8398],[-96.9438,50.8256],[-96.9492,50.8167],[-96.9716,50.8024],[-96.9827,50.7799],[-96.9782,50.7609],[-96.9871,50.7349],[-96.9872,50.701],[-96.9972,50.6891],[-96.9947,50.6736],[-96.9757,50.6546],[-96.9879,50.6225],[-96.9797,50.6152],[-96.9409,50.5978],[-96.9538,50.5879],[-96.983,50.5764],[-96.9891,50.5641],[-96.9713,50.5247],[-96.9659,50.499],[-96.9526,50.4916],[-96.9459,50.4742],[-96.955,50.4422],[-96.9492,50.4308],[-96.9062,50.4096],[-96.8727,50.4005],[-96.8125,50.3973],[-96.7962,50.3839],[-96.7766,50.3905],[-96.7305,50.3884],[-96.6583,50.3949],[-96.636,50.4053],[-96.6202,50.423],[-96.5848,50.4374],[-96.5744,50.4483],[-96.576,50.4673],[-96.583,50.4821],[-96.5984,50.4951],[-96.6067,50.5207],[-96.6276,50.5339],[-96.6294,50.5476],[-96.583,50.5478],[-96.5827,50.5823],[-96.5791,50.587],[-96.5916,50.6057],[-96.5929,50.629],[-96.6031,50.6617],[-96.57,50.6722],[-96.5349,50.6758],[-96.5283,50.683],[-96.5678,50.7065],[-96.5445,50.7212],[-96.5456,50.7369],[-96.5735,50.7503],[-96.5626,50.7636],[-96.5275,50.7808],[-96.5163,50.7764],[-96.5182,50.7598],[-96.5447,50.7415],[-96.5361,50.7243],[-96.5162,50.7213],[-96.5279,50.6976],[-96.5226,50.6878],[-96.4895,50.678],[-96.4802,50.6714],[-96.4739,50.6551],[-96.4603,50.6469],[-96.4113,50.6317],[-96.3955,50.6309],[-96.3897,50.6213],[-96.3749,50.6201],[-96.3752,50.597],[-96.3295,50.5966],[-96.3293,50.5532],[-96.2154,50.5534],[-96.2334,50.5607],[-96.2329,50.5775],[-96.2147,50.5755],[-96.2147,50.5918],[-96.0754,50.5915],[-96.075,50.5716],[-95.9461,50.5704],[-95.9465,50.4832],[-95.8709,50.4836],[-95.5344,50.483],[-95.5336,50.4608],[-95.5348,50.3648],[-95.351,50.3674],[-95.26,50.3702],[-95.2602,50.3959],[-95.1528,50.3958],[-95.1529,50.5516],[-95.1529,50.7815],[-95.153,50.9431],[-95.153,51.1198],[-95.1527,51.3301],[-95.153,51.5422],[-95.1529,51.7451],[-95.1531,51.9691],[-95.1531,52.18],[-95.1531,52.3325],[-95.1528,52.6303],[-95.1531,52.8406],[-95.0036,52.933],[-94.7371,53.0959],[-94.5275,53.2229],[-94.2697,53.3772]]]},"properties":{"id":"4619045","name":"Division No. 19, Unorganized"}},
{"type":"Feature","geometry":{"type":"Polygon","coordinates":[[[-100.0382,51.7113],[-100.0382,51.7267],[-100.0546,51.7254],[-100.0504,51.7463],[-100.0427,51.7534],[-100.0551,51.7658],[-100.0756,51.7748],[-100.0704,51.7956],[-100.0864,51.8047],[-100.0868,51.8341],[-100.0972,51.8514],[-100.112,51.8541],[-100.1124,51.8745],[-100.1256,51.8911],[-100.138,51.892],[-100.1421,51.9099],[-100.127,51.9525],[-100.116,51.9694],[-100.19,51.9712],[-100.1878,52.0041],[-100.244,52.0041],[-100.2495,52.0126],[-100.4648,52.0124],[-100.4647,52.057],[-100.6101,52.0562],[-100.6083,52.2308],[-100.7517,52.2312],[-100.7515,51.9709],[-100.7226,51.971],[-100.7223,51.8857],[-100.6518,51.8857],[-100.6529,51.7554],[-100.6754,51.7552],[-100.6754,51.7402],[-100.6994,51.7402],[-100.6989,51.7256],[-100.6514,51.7258],[-100.6516,51.7114],[-100.4733,51.7111],[-100.2971,51.7111],[-100.0382,51.7113]]]},"properties":{"id":"4620032","name":"Mountain (South)"}},
{"type":"Feature","geometry":{"type":"Polygon","coordinates":[[[-101.1525,51.9684],[-101.2039,51.9685],[-101.2039,52.2309],[-101.223,52.2313],[-101.2227,52.2461],[-101.2034,52.246],[-101.2038,52.318],[-101.23,52.3187],[-101.3976,52.3184],[-101.609,52.3182],[-101.609,52.2232],[-101.6093,51.9686],[-101.5776,51.9685],[-101.5773,51.7062],[-101.2942,51.706],[-101.2939,51.8808],[-101.1522,51.8818],[-101.1525,51.9684]]]},"properties":{"id":"4620042","name":"Swan Valley West"}},
{"type":"Feature","geometry":{"type":"Polygon","coordinates":[[[-100.8222,52.3181],[-101.2038,52.318],[-101.2034,52.246],[-101.2227,52.2461],[-101.223,52.2313],[-101.2039,52.2309],[-101.2039,51.9685],[-101.1525,51.9684],[-101,51.9688],[-100.7515,51.9709],[-100.7517,52.2312],[-100.7531,52.3185],[-100.8222,52.3181]]]},"properties":{"id":"4620051","name":"Minitonas-Bowsman"}},
{"type":"Feature","geometry":{"type":"Polygon","coordinates":[[[-100.8222,52.3181],[-100.8229,52.4799],[-100.8464,52.4988],[-100.8778,52.4989],[-100.8793,52.5116],[-100.8606,52.5291],[-100.8677,52.5576],[-100.8607,52.5708],[-100.8314,52.5909],[-100.8347,52.5983],[-100.8206,52.6121],[-100.7757,52.6377],[-100.7751,52.6677],[-100.9446,52.6672],[-100.9452,52.8423],[-101.1142,52.8419],[-101.1146,52.7543],[-101.2601,52.7551],[-101.2602,52.7984],[-101.3084,52.7982],[-101.3086,52.8127],[-101.4298,52.8126],[-101.4294,52.798],[-101.5267,52.7982],[-101.5265,52.7834],[-101.6231,52.7836],[-101.6232,52.7981],[-101.6716,52.7981],[-101.6716,52.6673],[-101.6377,52.6673],[-101.6377,52.5353],[-101.6378,52.3182],[-101.609,52.3182],[-101.3976,52.3184],[-101.23,52.3187],[-101.2038,52.318],[-100.8222,52.3181]]]},"properties":{"id":"4620055","name":"Mountain (North)"}},
{"type":"Feature","geometry":{"type":"Polygon","coordinates":[[[-100.7515,51.9709],[-101,51.9688],[-101.1525,51.9684],[-101.1522,51.8818],[-101.2939,51.8808],[-101.2942,51.706],[-101.5773,51.7062],[-101.5773,51.6549],[-101.5705,51.6549],[-101.5705,51.5664],[-101.429,51.5669],[-101.3995,51.565],[-101.399,51.6211],[-101.2599,51.6214],[-101.2598,51.4493],[-100.9787,51.4493],[-100.9785,51.3619],[-100.6979,51.3623],[-100.6972,51.6239],[-100.7224,51.624],[-100.7226,51.7111],[-100.6516,51.7114],[-100.6514,51.7258],[-100.6989,51.7256],[-100.6994,51.7402],[-100.6754,51.7402],[-100.6754,51.7552],[-100.6529,51.7554],[-100.6518,51.8857],[-100.7223,51.8857],[-100.7226,51.971],[-100.7515,51.9709]]]},"properties":{"id":"4620066","name":"Division No. 20, Unorganized, South Part"}},
{"type":"Feature","geometry":{"type":"Polygon","coordinates":[[[-97.6229,53.3792],[-97.6548,53.3931],[-97.6817,53.4125],[-97.6823,53.4348],[-97.6746,53.4458],[-97.6736,53.4641],[-97.6982,53.4839],[-97.7117,53.49],[-97.7051,53.5],[-97.7145,53.5233],[-97.7321,53.5407],[-97.7639,53.5621],[-97.7765,53.5651],[-97.7969,53.5879],[-97.8177,53.6048],[-97.8352,53.6136],[-97.9249,53.6476],[-97.9667,53.6616],[-98.0169,53.6753],[-98.0236,53.6802],[-98.0332,53.7127],[-98.054,53.7369],[-98.0753,53.752],[-98.1128,53.7669],[-98.136,53.7792],[-98.182,53.7986],[-98.2675,53.8274],[-98.3125,53.8391],[-98.3681,53.8484],[-98.4213,53.8524],[-98.4827,53.853],[-98.5397,53.8506],[-98.6339,53.8413],[-98.7212,53.828],[-98.7727,53.8173],[-98.8267,53.803],[-98.887,53.7832],[-98.9141,53.7714],[-98.9495,53.7459],[-98.9499,53.8823],[-98.9497,54.0668],[-98.9617,54.0683],[-98.961,54.2501],[-98.9634,54.4153],[-98.9771,54.4152],[-98.9823,54.5636],[-98.9824,54.695],[-98.9715,54.75],[-98.9883,54.75],[-98.9862,55],[-98.9854,55.1008],[-99,55.1012],[-99,55.25],[-99,55.4453],[-99.0192,55.4454],[-99.0176,55.5001],[-99.0172,55.6255],[-99.3718,55.626],[-99.5344,55.6245],[-100.0262,55.6229],[-100.3356,55.6246],[-100.7818,55.6255],[-101.0165,55.6252],[-101.337,55.6259],[-101.8565,55.6251],[-101.9637,55.624],[-101.9639,55.4604],[-101.9242,55.4602],[-101.9238,55.1969],[-101.9244,55.1121],[-101.8853,55.1116],[-101.8853,54.9383],[-101.8853,54.7625],[-101.8474,54.7625],[-101.8475,54.5302],[-101.8475,54.4136],[-101.8105,54.4135],[-101.8111,54.2047],[-101.8104,54.0644],[-101.7713,54.0644],[-101.7712,53.7465],[-101.7707,53.7109],[-101.7354,53.7107],[-101.7355,53.6254],[-101.7381,53.6017],[-101.7355,53.5639],[-101.7355,53.3658],[-101.7006,53.3658],[-101.7007,53.0165],[-101.6716,53.0165],[-101.6716,53.0013],[-101.1584,53.0009],[-101.0002,53],[-100.5748,53.0014],[-100.0754,53.0005],[-100.0066,53.0017],[-99.7207,53.0023],[-99.1644,53.0019],[-99.059,53.002],[-98.4954,53.0005],[-98.25,53],[-98,53],[-97.7499,53],[-97.4999,53],[-97.3787,53.0012],[-97.3314,53.0001],[-97.3608,53.0234],[-97.3891,53.0313],[-97.4096,53.0329],[-97.4111,53.0471],[-97.4275,53.0644],[-97.4378,53.0988],[-97.4254,53.1072],[-97.4345,53.1189],[-97.4659,53.1413],[-97.449,53.1559],[-97.4187,53.1639],[-97.4371,53.171],[-97.4413,53.1833],[-97.4567,53.1904],[-97.4696,53.1872],[-97.4894,53.2098],[-97.5054,53.2163],[-97.5147,53.2349],[-97.546,53.2403],[-97.5533,53.2532],[-97.5761,53.2634],[-97.5962,53.3093],[-97.578,53.3388],[-97.5864,53.3426],[-97.5961,53.3665],[-97.6229,53.3792]]]},"properties":{"id":"4621078","name":"Division No. 21, Unorganized"}},
{"type":"Feature","geometry":{"type":"Polygon","coordinates":[[[-91.6478,55.1585],[-91.7909,55.1587],[-92.1974,55.1654],[-92.3601,55.1688],[-92.8334,55.1733],[-93.2098,55.1762],[-93.69,55.1782],[-93.9264,55.1785],[-94.4392,55.1779],[-94.6522,55.1775],[-95.0001,55.1759],[-95.0001,55.3347],[-95.0001,55.5493],[-95.0001,55.6829],[-95.0001,55.8665],[-95.0001,56.1099],[-95.0001,56.335],[-95.5,56.3389],[-95.8651,56.3397],[-96.182,56.3396],[-96.5,56.3419],[-96.905,56.3414],[-97.2435,56.3385],[-97.604,56.3367],[-98,56.3335],[-98.4282,56.3325],[-98.5235,56.331],[-98.7572,56.3336],[-99.0293,56.3336],[-99.0257,56.0947],[-99.0266,56.0002],[-99.0254,55.8871],[-99.0273,55.806],[-99.0106,55.8063],[-99.0172,55.6255],[-99.0176,55.5001],[-99.0192,55.4454],[-99,55.4453],[-99,55.25],[-99,55.1012],[-98.9854,55.1008],[-98.9862,55],[-98.9883,54.75],[-98.9715,54.75],[-98.9824,54.695],[-98.9823,54.5636],[-98.9771,54.4152],[-98.9634,54.4153],[-98.961,54.2501],[-98.9617,54.0683],[-98.9497,54.0668],[-98.9499,53.8823],[-98.9495,53.7459],[-98.9141,53.7714],[-98.887,53.7832],[-98.8267,53.803],[-98.7727,53.8173],[-98.7212,53.828],[-98.6339,53.8413],[-98.5397,53.8506],[-98.4827,53.853],[-98.4213,53.8524],[-98.3681,53.8484],[-98.3125,53.8391],[-98.2675,53.8274],[-98.182,53.7986],[-98.136,53.7792],[-98.1128,53.7669],[-98.0753,53.752],[-98.054,53.7369],[-98.0332,53.7127],[-98.0236,53.6802],[-98.0169,53.6753],[-97.9667,53.6616],[-97.9249,53.6476],[-97.8352,53.6136],[-97.8177,53.6048],[-97.7969,53.5879],[-97.7765,53.5651],[-97.7639,53.5621],[-97.7321,53.5407],[-97.7145,53.5233],[-97.7051,53.5],[-97.7117,53.49],[-97.6982,53.4839],[-97.6736,53.4641],[-97.6746,53.4458],[-97.6823,53.4348],[-97.6817,53.4125],[-97.6548,53.3931],[-97.6229,53.3792],[-97.3845,53.3792],[-97,53.378],[-96.6391,53.3776],[-96.336,53.376],[-96,53.3724],[-95.848,53.371],[-95.4939,53.3748],[-95.2296,53.376],[-95.1456,53.3781],[-94.9627,53.3778],[-94.7205,53.3783],[-94.2697,53.3772],[-93.9584,53.5537],[-93.7377,53.6852],[-93.6295,53.7502],[-93.5205,53.8315],[-93.3292,53.9697],[-93.1897,54.0748],[-93.14,54.1112],[-92.9276,54.2636],[-92.6586,54.4534],[-92.3838,54.6423],[-92.1887,54.7749],[-92,54.906],[-91.8701,54.9998],[-91.7476,55.0851],[-91.6478,55.1585]]]},"properties":{"id":"4622046","name":"Division No. 22, Unorganized"}},
{"type":"Feature","geometry":{"type":"MultiPolygon","coordinates":[[[[-94.6606,58.9331],[-94.6845,58.923],[-94.6741,58.9146],[-94.6537,58.9251],[-94.6606,58.9331]]],[[[-91.6478,55.1585],[-91.44,55.2992],[-91.1633,55.4835],[-91,55.5912],[-90.8022,55.7204],[-90.5535,55.8803],[-90.3112,56.0342],[-89.9672,56.25],[-89.6442,56.4499],[-89.458,56.5636],[-89.149,56.7501],[-88.9796,56.8512],[-89,56.8541],[-89.0507,56.8535],[-89.086,56.8621],[-89.2116,56.8801],[-89.2643,56.8962],[-89.3203,56.9101],[-89.3636,56.9237],[-89.3915,56.9203],[-89.4101,56.9238],[-89.4624,56.9225],[-89.4986,56.9244],[-89.5757,56.9408],[-89.6192,56.9476],[-89.682,56.9612],[-89.7768,56.9719],[-89.9,57.0012],[-89.9368,56.9991],[-89.9771,57.008],[-89.9852,57.0199],[-90.0263,57.0378],[-90.0688,57.0517],[-90.1586,57.0747],[-90.1878,57.0922],[-90.2409,57.1132],[-90.3542,57.1526],[-90.3914,57.1581],[-90.3889,57.177],[-90.4666,57.1976],[-90.5094,57.1978],[-90.5437,57.2104],[-90.5623,57.2119],[-90.5878,57.2234],[-90.6358,57.2379],[-90.6635,57.2385],[-90.7143,57.2321],[-90.7326,57.236],[-90.7702,57.2512],[-90.7978,57.2514],[-90.8612,57.2653],[-90.9477,57.2622],[-90.9644,57.2592],[-91.0036,57.2639],[-91.0649,57.2593],[-91.1041,57.2534],[-91.1296,57.2539],[-91.1465,57.2477],[-91.2507,57.2284],[-91.267,57.2197],[-91.3173,57.2141],[-91.3334,57.2074],[-91.3762,57.201],[-91.4527,57.1798],[-91.4708,57.1766],[-91.5793,57.1483],[-91.634,57.1379],[-91.6456,57.1329],[-91.6831,57.1293],[-91.7179,57.1205],[-91.7874,57.0982],[-91.829,57.0897],[-91.8701,57.0772],[-91.9518,57.0614],[-92.0169,57.0512],[-92.0944,57.0477],[-92.104,57.0392],[-92.1231,57.0492],[-92.1675,57.0407],[-92.2568,57.0121],[-92.2765,57.024],[-92.222,57.0526],[-92.1965,57.0631],[-92.2098,57.0725],[-92.2837,57.0636],[-92.3687,57.0588],[-92.4414,57.047],[-92.4822,57.0347],[-92.6164,56.9787],[-92.6345,56.9593],[-92.6838,56.9322],[-92.7571,56.9179],[-92.7723,56.9187],[-92.8028,56.9113],[-92.8366,56.9125],[-92.9037,56.9051],[-92.9339,56.9124],[-92.9786,56.9122],[-93,56.9084],[-93,56.9213],[-92.9409,56.9196],[-92.9215,56.9141],[-92.8341,56.9231],[-92.8098,56.9321],[-92.7616,56.9377],[-92.7266,56.9458],[-92.7136,56.9537],[-92.6863,56.9876],[-92.6385,57.0215],[-92.6121,57.0432],[-92.5961,57.0502],[-92.5449,57.1011],[-92.4956,57.1793],[-92.4566,57.226],[-92.4386,57.2637],[-92.4332,57.3091],[-92.4245,57.3292],[-92.425,57.3577],[-92.4418,57.3985],[-92.4495,57.4342],[-92.4593,57.46],[-92.4791,57.4869],[-92.503,57.5315],[-92.5421,57.5431],[-92.5433,57.5604],[-92.5612,57.592],[-92.5904,57.6196],[-92.6007,57.6406],[-92.6265,57.6597],[-92.6568,57.7035],[-92.6674,57.7136],[-92.7112,57.7735],[-92.7306,57.8098],[-92.7322,57.8327],[-92.7416,57.8349],[-92.7482,57.8547],[-92.762,57.8757],[-92.7935,57.9569],[-92.799,57.9818],[-92.8149,58.0188],[-92.8152,58.031],[-92.8003,58.0433],[-92.8239,58.0646],[-92.8507,58.1055],[-92.8468,58.1339],[-92.8742,58.1457],[-92.8834,58.1574],[-92.8692,58.1707],[-92.8949,58.1756],[-92.9216,58.1996],[-92.9274,58.2186],[-92.9794,58.2804],[-92.9757,58.3133],[-93.0139,58.3272],[-93.0346,58.3449],[-93.0432,58.3674],[-93.0555,58.3794],[-93.0607,58.4078],[-93.0838,58.4401],[-93.1155,58.4778],[-93.1156,58.5031],[-93.1345,58.5267],[-93.1417,58.5716],[-93.1353,58.5792],[-93.1352,58.6032],[-93.1477,58.6249],[-93.1543,58.6578],[-93.1441,58.676],[-93.176,58.7111],[-93.1794,58.7369],[-93.2102,58.7628],[-93.2387,58.7654],[-93.2811,58.761],[-93.3005,58.7519],[-93.3279,58.7562],[-93.3484,58.7647],[-93.3832,58.7557],[-93.3927,58.7374],[-93.4146,58.7225],[-93.4576,58.7265],[-93.4606,58.7488],[-93.4711,58.7666],[-93.4979,58.7754],[-93.5374,58.7784],[-93.5511,58.7701],[-93.5806,58.765],[-93.6078,58.7677],[-93.6407,58.7882],[-93.6886,58.7873],[-93.7457,58.7924],[-93.7413,58.7745],[-93.7622,58.7694],[-93.7912,58.7707],[-93.8165,58.7778],[-93.87,58.7667],[-93.8736,58.7555],[-93.8897,58.7516],[-93.9089,58.7664],[-93.9394,58.7651],[-93.9679,58.7703],[-94.0338,58.7619],[-94.1083,58.7655],[-94.1715,58.7739],[-94.2186,58.7945],[-94.2444,58.7887],[-94.2644,58.7894],[-94.2701,58.7792],[-94.2881,58.7731],[-94.2853,58.7639],[-94.3016,58.7415],[-94.3234,58.7199],[-94.3441,58.71],[-94.3694,58.7042],[-94.4266,58.7028],[-94.451,58.7153],[-94.4787,58.7437],[-94.4758,58.7581],[-94.4836,58.7848],[-94.5102,58.8005],[-94.5176,58.8189],[-94.5294,58.8271],[-94.5753,58.8391],[-94.6018,58.8567],[-94.6064,58.8884],[-94.5943,58.8916],[-94.606,58.9154],[-94.6347,58.9242],[-94.6563,58.9172],[-94.6863,58.8998],[-94.6868,58.924],[-94.6721,58.9402],[-94.7016,58.9623],[-94.7164,58.986],[-94.7325,59.0028],[-94.7524,59.0137],[-94.7849,59.0169],[-94.7887,59.0364],[-94.7978,59.0464],[-94.789,59.0584],[-94.8106,59.0856],[-94.8111,59.1183],[-94.7939,59.1267],[-94.7949,59.1471],[-94.7812,59.1526],[-94.7907,59.1759],[-94.8051,59.1878],[-94.801,59.1984],[-94.8086,59.2136],[-94.8223,59.2218],[-94.8028,59.2405],[-94.7858,59.246],[-94.8042,59.266],[-94.7712,59.285],[-94.7815,59.2978],[-94.7527,59.3091],[-94.7594,59.3199],[-94.7873,59.3207],[-94.8084,59.3419],[-94.8,59.3561],[-94.8041,59.3691],[-94.8213,59.3751],[-94.8582,59.3736],[-94.9122,59.385],[-94.8542,59.3873],[-94.8003,59.3691],[-94.7872,59.3541],[-94.7926,59.3424],[-94.767,59.3353],[-94.753,59.3426],[-94.716,59.3802],[-94.7341,59.4118],[-94.7504,59.4277],[-94.7401,59.4388],[-94.7448,59.4595],[-94.7643,59.4757],[-94.7732,59.5011],[-94.7923,59.5058],[-94.8004,59.5157],[-94.8007,59.5342],[-94.8115,59.5445],[-94.7995,59.5663],[-94.8111,59.5914],[-94.8361,59.6026],[-94.8276,59.6159],[-94.8342,59.6489],[-94.8256,59.6505],[-94.8243,59.6889],[-94.8276,59.7026],[-94.8171,59.7277],[-94.8225,59.7392],[-94.7965,59.7513],[-94.7948,59.7674],[-94.783,59.7708],[-94.7725,59.79],[-94.792,59.7958],[-94.7972,59.8166],[-94.8146,59.823],[-94.8027,59.8318],[-94.8006,59.8555],[-94.8113,59.8717],[-94.8274,59.8816],[-94.8188,59.8886],[-94.8318,59.9024],[-94.8234,59.9117],[-94.8377,59.9328],[-94.8391,59.9553],[-94.8527,59.9713],[-94.8366,59.9769],[-94.8281,60],[-95.0625,60],[-95.475,60],[-95.7875,60],[-96.25,60],[-96.5,60],[-96.75,60],[-97,60],[-97.25,60],[-97.5,60],[-97.75,60],[-98,60],[-98.25,60],[-98.5,60],[-98.75,60],[-99,60],[-99.25,60],[-99.5,60],[-99.75,60],[-100,60],[-100.25,60],[-100.5,60],[-100.75,60],[-101,60],[-101.25,60],[-101.5,60],[-101.75,60],[-102,60],[-102.0074,59.7518],[-102.0067,59.0005],[-102.0063,58.8146],[-102.006,58.3137],[-102.0057,57.9999],[-102.0052,57.4169],[-102.005,57.1781],[-102.0074,57.0835],[-102.0076,56.5002],[-102.0064,56.3256],[-102.0041,55.9998],[-102.0041,55.8094],[-101.9639,55.8095],[-101.9637,55.624],[-101.8565,55.6251],[-101.337,55.6259],[-101.0165,55.6252],[-100.7818,55.6255],[-100.3356,55.6246],[-100.0262,55.6229],[-99.5344,55.6245],[-99.3718,55.626],[-99.0172,55.6255],[-99.0106,55.8063],[-99.0273,55.806],[-99.0254,55.8871],[-99.0266,56.0002],[-99.0257,56.0947],[-99.0293,56.3336],[-98.7572,56.3336],[-98.5235,56.331],[-98.4282,56.3325],[-98,56.3335],[-97.604,56.3367],[-97.2435,56.3385],[-96.905,56.3414],[-96.5,56.3419],[-96.182,56.3396],[-95.8651,56.3397],[-95.5,56.3389],[-95.0001,56.335],[-95.0001,56.1099],[-95.0001,55.8665],[-95.0001,55.6829],[-95.0001,55.5493],[-95.0001,55.3347],[-95.0001,55.1759],[-94.6522,55.1775],[-94.4392,55.1779],[-93.9264,55.1785],[-93.69,55.1782],[-93.2098,55.1762],[-92.8334,55.1733],[-92.3601,55.1688],[-92.1974,55.1654],[-91.7909,55.1587],[-91.6478,55.1585]]]]},"properties":{"id":"4623062","name":"Division No. 23, Unorganized"}}
]}